{
"type": "FeatureCollection",
"name": "papua_mining",
"crs": { "type": "name", "properties": { "name": "urn:ogc:def:crs:OGC:1.3:CRS84" } },
"features": [
{ "type": "Feature", "properties": { "name": "FREEPORT INDONESIA", "commodity": "TEMBAGA", "activity": "WIL. PENUNJANG", "permit_type": "IUPK", "area_ha": 116783.75, "regency": "MIMIKA, PANIAI", "concession_type": "mining" }, "geometry": { "type": "MultiPolygon", "coordinates": [ [ [ [ 136.964968611000018, -4.608733611 ], [ 136.993058056, -4.608890832999975 ], [ 136.993466667, -4.704269443999976 ], [ 137.006216667, -4.704227778000018 ], [ 137.006302777999963, -4.734158332999982 ], [ 137.020722222000018, -4.734108333 ], [ 137.020969722000018, -4.797449167000025 ], [ 137.039160555999956, -4.797364722 ], [ 137.039547475295194, -4.922535757008161 ], [ 137.032027891174266, -4.917746714938944 ], [ 137.01218987774817, -4.932416915003763 ], [ 136.984234978661533, -4.931422865372872 ], [ 136.971603684719554, -4.932532541920071 ], [ 136.957924049555459, -4.916930337365129 ], [ 136.927522552324064, -4.899166091042208 ], [ 136.927713136652045, -4.885753379914528 ], [ 136.900117752632269, -4.880559723152739 ], [ 136.835728864884487, -4.911275723024794 ], [ 136.835489084979031, -4.835355800351232 ], [ 136.843608876148807, -4.835889628203758 ], [ 136.845031635102004, -4.827733548864151 ], [ 136.835458641367183, -4.825717827109852 ], [ 136.835219444000018, -4.749991667000018 ], [ 136.851016666999953, -4.74993888900002 ], [ 136.850916666999979, -4.712677778 ], [ 136.869969444000048, -4.712619443999984 ], [ 136.869719444, -4.636388888999988 ], [ 136.88894166700004, -4.636344443999974 ], [ 136.888291666999976, -4.38405 ], [ 136.904655555999966, -4.384005555999977 ], [ 136.904466666999951, -4.332677778 ], [ 136.93685222199997, -4.332596110999987 ], [ 136.936781110999959, -4.304676111 ], [ 136.965202778000048, -4.3047 ], [ 136.965152777999947, -4.294588889000011 ], [ 136.980980555999963, -4.294583333 ], [ 136.980947222000054, -4.273577778 ], [ 137.0, -4.273527778000016 ], [ 137.0, -4.243127777999973 ], [ 137.017094444, -4.2431 ], [ 137.017041666999944, -4.217658332999974 ], [ 137.02675, -4.217638889 ], [ 137.0263675, -4.083333332999985 ], [ 137.042866667, -4.083308333 ], [ 137.042861110999979, -4.08145 ], [ 137.050088332999962, -4.081431667 ], [ 137.050083611, -4.077684444 ], [ 137.052978056000029, -4.077677221999977 ], [ 137.052970277999975, -4.074990833000015 ], [ 137.056421667, -4.074982222000017 ], [ 137.056410832999973, -4.0711475 ], [ 137.058561667000049, -4.071151389000022 ], [ 137.058553889, -4.068086666999989 ], [ 137.07157, -4.068033610999976 ], [ 137.07165, -4.087919444000022 ], [ 137.07885, -4.087888889 ], [ 137.078991666999968, -4.122227778000024 ], [ 137.118169444000046, -4.122069443999976 ], [ 137.118272221999973, -4.15861944400001 ], [ 137.113880556000026, -4.158638888999974 ], [ 137.113994444000014, -4.200888889 ], [ 137.104944444000012, -4.200908332999973 ], [ 137.105069444000037, -4.247888889000023 ], [ 137.090963889000022, -4.247908333 ], [ 137.090986111, -4.266527778000011 ], [ 137.035463888999971, -4.266688889000022 ], [ 137.03560555599995, -4.332386111 ], [ 136.988605556000039, -4.332511110999974 ], [ 136.988686111, -4.348755556000015 ], [ 136.964205556000024, -4.34885277799998 ], [ 136.964968611000018, -4.608733611 ] ] ], [ [ [ 136.835759363321074, -4.920932357105706 ], [ 136.837356172349672, -4.919325117759962 ], [ 136.839019415413759, -4.921416664747272 ], [ 136.835759363321074, -4.920932357105706 ] ] ], [ [ [ 136.882533832070749, -4.910953923284917 ], [ 136.882719429657982, -4.912391118155558 ], [ 136.88113066664701, -4.912607138008934 ], [ 136.882533832070749, -4.910953923284917 ] ] ] ] } },
{ "type": "Feature", "properties": { "name": "FREEPORT INDONESIA", "commodity": "TEMBAGA DMP", "activity": "OPERASI PRODUKSI", "permit_type": "IUPK", "area_ha": 9946.12, "regency": "MIMIKA", "concession_type": "mining" }, "geometry": { "type": "Polygon", "coordinates": [ [ [ 137.078991, -4.12223 ], [ 137.078851, -4.087887 ], [ 137.071651, -4.087916 ], [ 137.07157, -4.068034 ], [ 137.05429, -4.068104 ], [ 137.054141, -4.031956 ], [ 137.138919, -4.031603 ], [ 137.138973, -4.044258 ], [ 137.148873, -4.044216 ], [ 137.148943, -4.061388 ], [ 137.157043, -4.061354 ], [ 137.157152, -4.087562 ], [ 137.168853, -4.087513 ], [ 137.168996, -4.121855 ], [ 137.078991, -4.12223 ] ] ] } },
{ "type": "Feature", "properties": { "name": "TRIDENT GLOBAL GARMINDO", "commodity": "Emas", "activity": "EKSPLORASI", "permit_type": "IUP", "area_ha": 17830.0, "regency": "KAB. NABIRE, KAB. DOGIYAI", "concession_type": "mining" }, "geometry": { "type": "Polygon", "coordinates": [ [ [ 135.5479, -3.85 ], [ 135.562222221999946, -3.85 ], [ 135.562222221999946, -3.86944444400001 ], [ 135.433888888999945, -3.86944444400001 ], [ 135.433888888999945, -3.7625 ], [ 135.428055556, -3.7625 ], [ 135.428055556, -3.745972221999978 ], [ 135.5479, -3.745972221999978 ], [ 135.5479, -3.85 ] ] ] } },
{ "type": "Feature", "properties": { "name": "IRIANA MUTIARA IDENBURG", "commodity": "EMAS", "activity": "EKSPLORASI", "permit_type": "KK", "area_ha": 95280.0, "regency": "KAB. PEGUNUNGAN BINTANG,KAB. KEEROM", "concession_type": "mining" }, "geometry": { "type": "Polygon", "coordinates": [ [ [ 140.5, -3.883333333 ], [ 140.5, -3.8 ], [ 140.45, -3.8 ], [ 140.45, -3.75 ], [ 140.43333333299995, -3.75 ], [ 140.43333333299995, -3.6 ], [ 140.56666666700005, -3.6 ], [ 140.56666666700005, -3.633333333 ], [ 140.75, -3.633333333 ], [ 140.75, -3.883333333 ], [ 140.5, -3.883333333 ] ] ] } },
{ "type": "Feature", "properties": { "name": "KRISTALIN EKALESTARI", "commodity": "EMAS", "activity": "OPERASI PRODUKSI", "permit_type": "IUP", "area_ha": 3500.0, "regency": "NABIRE", "concession_type": "mining" }, "geometry": { "type": "Polygon", "coordinates": [ [ [ 135.751666667, -3.210833332999982 ], [ 135.751666667, -3.268611110999984 ], [ 135.746388888999945, -3.268611110999984 ], [ 135.746388888999945, -3.3025 ], [ 135.72, -3.3025 ], [ 135.72, -3.210833332999982 ], [ 135.751666667, -3.210833332999982 ] ] ] } },
{ "type": "Feature", "properties": { "name": "KRISTALIN EKALESTARI", "commodity": "EMAS", "activity": "OPERASI PRODUKSI", "permit_type": "IUP", "area_ha": 198.0, "regency": "NABIRE", "concession_type": "mining" }, "geometry": { "type": "Polygon", "coordinates": [ [ [ 135.768283333, -3.232780556000023 ], [ 135.768283333, -3.242244444 ], [ 135.751666667, -3.242244444 ], [ 135.751666667, -3.232780556000023 ], [ 135.768283333, -3.232780556000023 ] ] ] } },
{ "type": "Feature", "properties": { "name": "ABISHA BUMI PERSADA", "commodity": "EMAS", "activity": "OPERASI PRODUKSI", "permit_type": "IUP", "area_ha": 23324.0, "regency": "KAB. TELUK WONDAMA", "concession_type": "mining" }, "geometry": { "type": "Polygon", "coordinates": [ [ [ 134.419444443999964, -2.833611110999982 ], [ 134.419444443999964, -2.863888889 ], [ 134.444444444000055, -2.863888889 ], [ 134.444444444000055, -2.874166667 ], [ 134.50416666700005, -2.874166667 ], [ 134.50416666700005, -2.863888889 ], [ 134.527777777999972, -2.863888889 ], [ 134.527777777999972, -2.925277778 ], [ 134.543333332999964, -2.925277778 ], [ 134.543333332999964, -2.970833332999973 ], [ 134.55833333299995, -2.970833332999973 ], [ 134.55833333299995, -2.997222222 ], [ 134.477222222000023, -2.997222222 ], [ 134.477222222000023, -2.986666667 ], [ 134.4075, -2.986666667 ], [ 134.4075, -2.9225 ], [ 134.383333333, -2.9225 ], [ 134.383333333, -2.85 ], [ 134.366666667, -2.85 ], [ 134.366666667, -2.833611110999982 ], [ 134.419444443999964, -2.833611110999982 ] ] ] } },
{ "type": "Feature", "properties": { "name": "BERKAT ALAM SENTANI", "commodity": "TANAH MERAH (LATERIT)", "activity": "EKSPLORASI", "permit_type": "IUP", "area_ha": 1316.0, "regency": "KAB. JAYAPURA", "concession_type": "mining" }, "geometry": { "type": "Polygon", "coordinates": [ [ [ 140.386461823123994, -2.400194444000022 ], [ 140.3985, -2.406590760503966 ], [ 140.3985, -2.426888889 ], [ 140.386694444, -2.426888889 ], [ 140.386694444, -2.429111111 ], [ 140.382194444, -2.429111111 ], [ 140.382194444, -2.465305555999976 ], [ 140.3685, -2.465305555999976 ], [ 140.3685, -2.459764676890511 ], [ 140.371815596112953, -2.455929604767443 ], [ 140.372694444, -2.422805556000014 ], [ 140.366111111, -2.419752873621739 ], [ 140.366111111, -2.415805556 ], [ 140.370388888999969, -2.415805556 ], [ 140.370388888999969, -2.413 ], [ 140.379694444000052, -2.413 ], [ 140.379694444000052, -2.407888889 ], [ 140.383, -2.407888889 ], [ 140.383, -2.400194444000022 ], [ 140.386461823123994, -2.400194444000022 ] ] ] } },
{ "type": "Feature", "properties": { "name": "IRIANA MUTIARA MINING", "commodity": "NIKEL", "activity": "EKSPLORASI", "permit_type": "KK", "area_ha": 16470.0, "regency": "KAB. SARMI", "concession_type": "mining" }, "geometry": { "type": "Polygon", "coordinates": [ [ [ 139.15, -2.233333333000019 ], [ 139.15, -2.333333332999985 ], [ 139.016666666999981, -2.333333332999985 ], [ 139.016666666999981, -2.233333333000019 ], [ 139.15, -2.233333333000019 ] ] ] } },
{ "type": "Feature", "properties": { "name": "KUMAMBA MINING", "commodity": "ZIRKON", "activity": "EKSPLORASI", "permit_type": "KK", "area_ha": 98805.0, "regency": "SARMI", "concession_type": "mining" }, "geometry": { "type": "MultiPolygon", "coordinates": [ [ [ [ 139.216667, -2.15 ], [ 139.216667, -2.138889 ], [ 139.161111, -2.138889 ], [ 139.161111, -2.127778 ], [ 139.136111, -2.127778 ], [ 139.136111, -2.119444 ], [ 139.119444, -2.119444 ], [ 139.119444, -2.108333 ], [ 139.1, -2.108333 ], [ 139.1, -2.1 ], [ 139.080556, -2.1 ], [ 139.080556, -2.091667 ], [ 139.05, -2.091667 ], [ 139.05, -2.066667 ], [ 139.019444, -2.066667 ], [ 139.019444, -2.05 ], [ 139.0, -2.05 ], [ 139.0, -1.980556 ], [ 139.005269303283654, -1.980556 ], [ 139.033333, -1.997184717060715 ], [ 139.033333, -2.0 ], [ 139.038084253286087, -2.0 ], [ 139.044444, -2.003768371278832 ], [ 139.044444, -2.005556 ], [ 139.048247761116471, -2.005556 ], [ 139.068055556, -2.012037780913138 ], [ 139.068055556, -2.018888888999982 ], [ 139.084722221999982, -2.018888888999982 ], [ 139.084722221999982, -2.025 ], [ 139.096388888999968, -2.025 ], [ 139.096388888999968, -2.033333332999973 ], [ 139.114722221999955, -2.033333332999973 ], [ 139.114722221999955, -2.036388889000023 ], [ 139.122222222, -2.036388889000023 ], [ 139.122222222, -2.043333333000021 ], [ 139.130833333000055, -2.043333333000021 ], [ 139.130833333000055, -2.05 ], [ 139.1375, -2.05 ], [ 139.1375, -2.057222222 ], [ 139.153888888999973, -2.057222222 ], [ 139.153888888999973, -2.063888889 ], [ 139.165277778000018, -2.063888889 ], [ 139.165277778000018, -2.077777777999984 ], [ 139.194755392868302, -2.077777777999984 ], [ 139.211111, -2.087091401226537 ], [ 139.211111, -2.088889 ], [ 139.214267754208691, -2.088889 ], [ 139.225, -2.095000426672853 ], [ 139.225, -2.1 ], [ 139.233779725696024, -2.1 ], [ 139.247222, -2.108333 ], [ 139.255556, -2.111239736663326 ], [ 139.255556, -2.116667 ], [ 139.271688365505241, -2.116667 ], [ 139.283333, -2.120584497272275 ], [ 139.283333, -2.125 ], [ 139.296457939674781, -2.125 ], [ 139.311111, -2.129929594302026 ], [ 139.311111, -2.133333 ], [ 139.32122751384432, -2.133333 ], [ 139.336111, -2.138340114344629 ], [ 139.336111, -2.141667 ], [ 139.35, -2.143012662859523 ], [ 139.35, -2.15 ], [ 139.368819051181532, -2.15 ], [ 139.380556, -2.15594422039882 ], [ 139.380556, -2.158333 ], [ 139.385272679738705, -2.158333 ], [ 139.413889, -2.172825839431188 ], [ 139.413889, -2.175 ], [ 139.418181911367242, -2.175 ], [ 139.44837485601488, -2.190291326583443 ], [ 139.458333, -2.196982109384791 ], [ 139.458333, -2.2 ], [ 139.462824640241536, -2.2 ], [ 139.472222, -2.206313997180958 ], [ 139.472222, -2.208333 ], [ 139.475226957921251, -2.208333 ], [ 139.483333, -2.213779373039828 ], [ 139.483333, -2.216667 ], [ 139.487630763938597, -2.216667 ], [ 139.5, -2.224977772773368 ], [ 139.5, -2.227778 ], [ 139.504167683624161, -2.227778 ], [ 139.536111, -2.248733662080248 ], [ 139.536111, -2.25 ], [ 139.538530715095447, -2.25 ], [ 139.583333, -2.273446905949027 ], [ 139.583333, -2.275 ], [ 139.586300647940703, -2.275 ], [ 139.616126544804303, -2.290609136902161 ], [ 139.615598848221452, -2.283333 ], [ 139.633333, -2.286152955157987 ], [ 139.633333, -2.288889 ], [ 139.643111758286608, -2.288889 ], [ 139.655556, -2.297610327458732 ], [ 139.655556, -2.3 ], [ 139.658965763348618, -2.3 ], [ 139.672222, -2.309290399798579 ], [ 139.672222, -2.311111 ], [ 139.674819768410515, -2.311111 ], [ 139.7, -2.328758121474845 ], [ 139.7, -2.333333 ], [ 139.706527778534422, -2.333333 ], [ 139.722222, -2.341239013450774 ], [ 139.722222, -2.344444 ], [ 139.728752314095601, -2.344444 ], [ 139.733333, -2.34669213638289 ], [ 139.733333, -2.35 ], [ 139.740072931064759, -2.35 ], [ 139.75, -2.354872066174022 ], [ 139.75, -2.388889 ], [ 139.727778, -2.388889 ], [ 139.727778, -2.383333 ], [ 139.691667, -2.383333 ], [ 139.691667, -2.366667 ], [ 139.663889, -2.366667 ], [ 139.663889, -2.355556 ], [ 139.619444, -2.355556 ], [ 139.619444, -2.333333 ], [ 139.580556, -2.333333 ], [ 139.580556, -2.316667 ], [ 139.55, -2.316667 ], [ 139.55, -2.308333 ], [ 139.527778, -2.308333 ], [ 139.527778, -2.266667 ], [ 139.483333, -2.266667 ], [ 139.483333, -2.241667 ], [ 139.466667, -2.241667 ], [ 139.466666667000027, -2.227777778000018 ], [ 139.45, -2.227777778000018 ], [ 139.45, -2.208333332999985 ], [ 139.425, -2.208333332999985 ], [ 139.425, -2.2 ], [ 139.413888888999963, -2.2 ], [ 139.413888888999963, -2.191666667 ], [ 139.3925, -2.191666667 ], [ 139.3925, -2.178888889 ], [ 139.372222222, -2.178888889 ], [ 139.372222222, -2.166666667000015 ], [ 139.311111110999946, -2.166666667000015 ], [ 139.311111110999946, -2.158333332999973 ], [ 139.275, -2.158333332999973 ], [ 139.275, -2.15 ], [ 139.216667, -2.15 ] ] ], [ [ [ 138.616667, -1.916667 ], [ 138.616667, -1.9 ], [ 138.577778, -1.9 ], [ 138.577778, -1.880556 ], [ 138.616667, -1.880556 ], [ 138.616667, -1.858333 ], [ 138.577778, -1.858333 ], [ 138.577778, -1.838889 ], [ 138.55, -1.838889 ], [ 138.55, -1.827778 ], [ 138.516667, -1.827778 ], [ 138.516667, -1.816667 ], [ 138.413889, -1.816667 ], [ 138.413889, -1.805556 ], [ 138.391667, -1.805556 ], [ 138.391667, -1.797222 ], [ 138.355556, -1.797222 ], [ 138.355556, -1.786111 ], [ 138.341111111000032, -1.786111 ], [ 138.341111111000032, -1.754166667 ], [ 138.311111110999946, -1.754166667 ], [ 138.311111110999946, -1.733333333000019 ], [ 138.294444443999964, -1.733333333000019 ], [ 138.294444443999964, -1.716666667000027 ], [ 138.25, -1.716666667000027 ], [ 138.25, -1.708333332999985 ], [ 138.19722222200005, -1.708333332999985 ], [ 138.197222, -1.64181908475366 ], [ 138.208333, -1.647326906899268 ], [ 138.208333, -1.65 ], [ 138.216667, -1.651458145290171 ], [ 138.216667, -1.661111 ], [ 138.236139827162162, -1.661111 ], [ 138.238889, -1.66247378958133 ], [ 138.238889, -1.666667 ], [ 138.25, -1.667981611726937 ], [ 138.25, -1.677778 ], [ 138.269762379253478, -1.677778 ], [ 138.294444, -1.690012900309311 ], [ 138.294444, -1.691667 ], [ 138.298327075260659, -1.691667 ], [ 138.313889, -1.697427882631817 ], [ 138.313889, -1.7 ], [ 138.320837084080608, -1.7 ], [ 138.333333, -1.704625874125109 ], [ 138.333333, -1.708333 ], [ 138.343347092900586, -1.708333 ], [ 138.35, -1.710795845541405 ], [ 138.35, -1.716667 ], [ 138.36585980302965, -1.716667 ], [ 138.383333, -1.723135418183117 ], [ 138.383333, -1.725 ], [ 138.405556, -1.729304259535549 ], [ 138.405556, -1.733333 ], [ 138.422084954756741, -1.733333 ], [ 138.433333, -1.736074580195774 ], [ 138.433333, -1.741667 ], [ 138.456277355621722, -1.741667 ], [ 138.483333, -1.748261498617953 ], [ 138.483333, -1.75 ], [ 138.490465653726829, -1.75 ], [ 138.516667, -1.756386273391633 ], [ 138.516667, -1.758333 ], [ 138.524653951831965, -1.758333 ], [ 138.55, -1.764510804426945 ], [ 138.55, -1.766667 ], [ 138.558846352696946, -1.766667 ], [ 138.665242219053198, -1.792599754874763 ], [ 138.691667, -1.814956949184968 ], [ 138.691667, -1.816667 ], [ 138.693688171242201, -1.816667 ], [ 138.708333, -1.8290575391245 ], [ 138.708333, -1.833333 ], [ 138.713386322680606, -1.833333 ], [ 138.716667, -1.836108680163504 ], [ 138.716667, -1.838889 ], [ 138.719953161117672, -1.838889 ], [ 138.725, -1.84315897513327 ], [ 138.725, -1.847222 ], [ 138.729802236836861, -1.847222 ], [ 138.733333, -1.850209270103036 ], [ 138.733333, -1.880555556 ], [ 138.725, -1.880555556 ], [ 138.725, -1.936111111 ], [ 138.691667, -1.936111111 ], [ 138.691667, -1.916667 ], [ 138.616667, -1.916667 ] ] ] ] } },
{ "type": "Feature", "properties": { "name": "FAKFAK BANGUN PERSADA", "commodity": "PASIR KUARSA", "activity": "PENCADANGAN", "permit_type": "WIUP", "area_ha": 24155.0, "regency": "TELUK BINTUNI", "concession_type": "mining" }, "geometry": { "type": "Polygon", "coordinates": [ [ [ 133.377, -2.676 ], [ 133.377, -2.767 ], [ 133.365, -2.767 ], [ 133.365, -2.8 ], [ 133.347, -2.8 ], [ 133.347, -2.867 ], [ 133.322, -2.867 ], [ 133.322, -2.9 ], [ 133.297, -2.9 ], [ 133.297, -2.883 ], [ 133.28, -2.883 ], [ 133.28, -2.867 ], [ 133.26, -2.867 ], [ 133.26, -2.85 ], [ 133.245, -2.85 ], [ 133.245, -2.833 ], [ 133.228888889000018, -2.833 ], [ 133.228888889000018, -2.8 ], [ 133.242, -2.8 ], [ 133.242, -2.75 ], [ 133.254, -2.75 ], [ 133.254, -2.717 ], [ 133.352, -2.717 ], [ 133.352, -2.676 ], [ 133.377, -2.676 ] ] ] } },
{ "type": "Feature", "properties": { "name": "GARIS EMAS SELARAS", "commodity": "BATUBARA", "activity": "OPERASI PRODUKSI", "permit_type": "IUP", "area_ha": 6968.39, "regency": "KAB. TELUK BINTUNI", "concession_type": "mining" }, "geometry": { "type": "Polygon", "coordinates": [ [ [ 133.641666666999981, -1.705555555999979 ], [ 133.641666666999981, -1.675 ], [ 133.783333332999973, -1.675 ], [ 133.783333332999973, -1.7 ], [ 133.702777778000041, -1.7 ], [ 133.702777778000041, -1.718669444 ], [ 133.566858333000027, -1.718669444 ], [ 133.566858333000027, -1.705555555999979 ], [ 133.641666666999981, -1.705555555999979 ] ] ] } },
{ "type": "Feature", "properties": { "name": "MEGAPURA PRIMA INDUSTRI", "commodity": "BATUBARA", "activity": "OPERASI PRODUKSI", "permit_type": "IUP", "area_ha": 8587.0, "regency": "SORONG", "concession_type": "mining" }, "geometry": { "type": "Polygon", "coordinates": [ [ [ 131.104194443999972, -1.301 ], [ 131.10437916, -1.248011010000027 ], [ 131.15479896, -1.248011010000027 ], [ 131.15479896, -1.27453599 ], [ 131.210525879999977, -1.27453599 ], [ 131.210525591999954, -1.232731859000012 ], [ 131.22725, -1.23275 ], [ 131.227327154000022, -1.214012363 ], [ 131.256524160000026, -1.21441203 ], [ 131.256524160000026, -1.28912499 ], [ 131.220699119999949, -1.28912499 ], [ 131.220699119999949, -1.30150296 ], [ 131.169836160000045, -1.30150296 ], [ 131.169836160000045, -1.280725019999977 ], [ 131.145510960000024, -1.280725019999977 ], [ 131.145510960000024, -1.30106096999998 ], [ 131.104194443999972, -1.301 ] ] ] } },
{ "type": "Feature", "properties": { "name": "PRO INTERTECH INDONESIA", "commodity": "ANDESIT", "activity": "OPERASI PRODUKSI", "permit_type": "IUP", "area_ha": 75.89, "regency": "KOTA SORONG", "concession_type": "mining" }, "geometry": { "type": "Polygon", "coordinates": [ [ [ 131.298144443999945, -0.814483333 ], [ 131.29285555599995, -0.814483333 ], [ 131.29285555599995, -0.806589681891939 ], [ 131.298144443999945, -0.804996999687833 ], [ 131.298144443999945, -0.814483333 ] ] ] } },
{ "type": "Feature", "properties": { "name": "PAPUA INDO MUSTIKA", "commodity": "BATU GAMPING", "activity": "OPERASI PRODUKSI", "permit_type": "IUP", "area_ha": 5.39, "regency": "KAB. TAMBRAUW", "concession_type": "mining" }, "geometry": { "type": "Polygon", "coordinates": [ [ [ 131.929246389000014, -0.656377222 ], [ 131.929246389000014, -0.658963611 ], [ 131.927561388999948, -0.658963611 ], [ 131.927561388999948, -0.656377222 ], [ 131.929246389000014, -0.656377222 ] ] ] } },
{ "type": "Feature", "properties": { "name": "GAG NIKEL", "commodity": "NIKEL", "activity": "OPERASI PRODUKSI", "permit_type": "KK", "area_ha": 13136.0, "regency": "RAJA AMPAT", "concession_type": "mining" }, "geometry": { "type": "MultiPolygon", "coordinates": [ [ [ [ 129.867571019387185, -0.415478082447512 ], [ 129.868006635697753, -0.415116897626705 ], [ 129.868345412111154, -0.414507721154328 ], [ 129.868646873854203, -0.412537538576535 ], [ 129.870321770333476, -0.411777749043823 ], [ 129.870039146689351, -0.409142767824472 ], [ 129.878050906424278, -0.40972214166351 ], [ 129.890016707305278, -0.397806049009924 ], [ 129.912716653350884, -0.400166100285309 ], [ 129.924237010130014, -0.414136061030318 ], [ 129.91486827415153, -0.430368043350532 ], [ 129.919093710906054, -0.442598574964231 ], [ 129.902642179792849, -0.439646654669362 ], [ 129.906813577184948, -0.466524849142496 ], [ 129.897929835693361, -0.472511428259731 ], [ 129.900669964747152, -0.479731860137194 ], [ 129.874414835875996, -0.497997187120452 ], [ 129.864465515571197, -0.492299170770144 ], [ 129.845621648420433, -0.439269024845595 ], [ 129.860097778189925, -0.411048685748222 ], [ 129.867571019387185, -0.415478082447512 ] ] ], [ [ [ 129.867735423551039, -0.415133535983886 ], [ 129.8678623286836, -0.415116086438255 ], [ 129.867832188804556, -0.415147812721367 ], [ 129.867735423551039, -0.415133535983886 ] ] ], [ [ [ 129.877368259837368, -0.408120867284195 ], [ 129.877514771989212, -0.408200434802191 ], [ 129.877376306971087, -0.408436896245684 ], [ 129.877368259837368, -0.408120867284195 ] ] ] ] } },
{ "type": "Feature", "properties": { "name": "KASUARI PAPUA MANDIRI", "commodity": "KERIKIL SUNGAI", "activity": "PENCADANGAN", "permit_type": "WIUP", "area_ha": 10.63, "regency": "MANOKWARI SELATAN", "concession_type": "mining" }, "geometry": { "type": "Polygon", "coordinates": [ [ [ 134.142957777999982, -1.496942499999989 ], [ 134.141475556000046, -1.493860278 ], [ 134.144066111000029, -1.493063611000025 ], [ 134.144942777999972, -1.496150833 ], [ 134.142957777999982, -1.496942499999989 ] ] ] } },
{ "type": "Feature", "properties": { "name": "LION MULTI RESOURCES", "commodity": "ANTIMON DMP", "activity": "OPERASI PRODUKSI", "permit_type": "IUP", "area_ha": 20490.0, "regency": "MANOKWARI", "concession_type": "mining" }, "geometry": { "type": "Polygon", "coordinates": [ [ [ 133.8968, -1.425641666999979 ], [ 134.076, -1.425641666999979 ], [ 134.076, -1.448877778 ], [ 134.096, -1.448877778 ], [ 134.096, -1.506691666999984 ], [ 134.093, -1.506691666999984 ], [ 134.093, -1.512188889000015 ], [ 133.918, -1.512188889000015 ], [ 133.918, -1.500661111 ], [ 133.8968, -1.500661111 ], [ 133.8968, -1.425641666999979 ] ] ] } },
{ "type": "Feature", "properties": { "name": "AVERY JAYA PERMAI", "commodity": "KERIKIL BERPASIR ALAMI (SIRTU)", "activity": "PENCADANGAN", "permit_type": "WIUP", "area_ha": 30.0, "regency": "KABUPATEN MANOKWARI SELATAN", "concession_type": "mining" }, "geometry": { "type": "Polygon", "coordinates": [ [ [ 134.1, -1.442 ], [ 134.1, -1.443194444000028 ], [ 134.103, -1.443194444000028 ], [ 134.103, -1.444888889000026 ], [ 134.106, -1.444888889000026 ], [ 134.106, -1.448194444000023 ], [ 134.101, -1.446277778000024 ], [ 134.101, -1.444777778 ], [ 134.097, -1.444777778 ], [ 134.097, -1.442 ], [ 134.1, -1.442 ] ] ] } },
{ "type": "Feature", "properties": { "name": "BAKTI ALAM PERKASA", "commodity": "KERIKIL BERPASIR ALAMI (SIRTU)", "activity": "PENCADANGAN", "permit_type": "WIUP", "area_ha": 9.2, "regency": "KABUPATEN MANOKWARI", "concession_type": "mining" }, "geometry": { "type": "Polygon", "coordinates": [ [ [ 134.022934167000017, -1.010873333 ], [ 134.023066111000048, -1.008635277999986 ], [ 134.024885555999958, -1.008635277999986 ], [ 134.023993333000021, -1.009993888999986 ], [ 134.025492777999943, -1.010233332999974 ], [ 134.025713333, -1.013008056 ], [ 134.022934167000017, -1.010873333 ] ] ] } },
{ "type": "Feature", "properties": { "name": "SDIC INDONESIA", "commodity": "CLAY", "activity": "OPERASI PRODUKSI", "permit_type": "IUP", "area_ha": 30.0, "regency": "KAB. MANOKWARI", "concession_type": "mining" }, "geometry": { "type": "Polygon", "coordinates": [ [ [ 133.998611110999946, -0.99444444400001 ], [ 134.000833332999946, -0.997777778 ], [ 133.99472222199995, -0.999166667 ], [ 133.995277777999945, -0.994166667 ], [ 133.998611110999946, -0.99444444400001 ] ] ] } },
{ "type": "Feature", "properties": { "name": "SDIC INDONESIA", "commodity": "BATU GAMPING UNTUK INDUSTRI", "activity": "OPERASI PRODUKSI", "permit_type": "IUP", "area_ha": 199.65, "regency": "KAB. MANOKWARI", "concession_type": "mining" }, "geometry": { "type": "Polygon", "coordinates": [ [ [ 134.017777777999981, -0.978611111000021 ], [ 134.027222221999978, -0.99333333300001 ], [ 134.022222221999982, -0.99333333300001 ], [ 134.014444444, -0.990833333000012 ], [ 134.010277778000045, -0.988055556 ], [ 134.008333333, -0.981666667000013 ], [ 134.013333333, -0.979722222000021 ], [ 134.013333333, -0.978333333000023 ], [ 134.017777777999981, -0.978611111000021 ] ] ] } },
{ "type": "Feature", "properties": { "name": "CENDRAWASIH ALAM SELARAS", "commodity": "CLAY", "activity": "PENCADANGAN", "permit_type": "WIUP", "area_ha": 58.4, "regency": "KABUPATEN MANOKWARI", "concession_type": "mining" }, "geometry": { "type": "Polygon", "coordinates": [ [ [ 133.987682778000021, -0.933496389000027 ], [ 133.987682778000021, -0.936274444 ], [ 133.991850278000015, -0.936274444 ], [ 133.991850278000015, -0.94193777800001 ], [ 133.98546111099995, -0.943148333000011 ], [ 133.984705833000021, -0.933496389000027 ], [ 133.987682778000021, -0.933496389000027 ] ] ] } }
]
}
