{
"type": "FeatureCollection",
"name": "papua_palm_oil",
"crs": { "type": "name", "properties": { "name": "urn:ogc:def:crs:OGC:1.3:CRS84" } },
"features": [
{ "type": "Feature", "properties": { "company": "PT. MUTING KAPAS PRIMA", "name": "PT. MUTING KAPAS PRIMA", "area_ha": 13039, "type": " ", "concession_type": "palm_oil" }, "geometry": { "type": "Polygon", "coordinates": [ [ [ 140.643359067952417, -8.218691745820289 ], [ 140.641688265304367, -8.223869605225426 ], [ 140.644513609705058, -8.226944245234085 ], [ 140.644536868884387, -8.264191103969281 ], [ 140.606373587955517, -8.265049564900986 ], [ 140.548526042533695, -8.280544945875659 ], [ 140.548319863904595, -8.157325528620513 ], [ 140.644786258275246, -8.157963733828682 ], [ 140.643359067952417, -8.218691745820289 ] ] ] } },
{ "type": "Feature", "properties": { "company": "PT. MERAUKE SAWIT JAYA", "name": "PT. MERAUKE SAWIT JAYA", "area_ha": 38597, "type": " ", "concession_type": "palm_oil" }, "geometry": { "type": "Polygon", "coordinates": [ [ [ 140.752075194964476, -7.889849186628645 ], [ 140.755783081131256, -7.905329226646144 ], [ 140.77043151860056, -7.928952216152335 ], [ 140.775177002039555, -7.942468165944107 ], [ 140.557998656830449, -7.937430858768496 ], [ 140.561798096596021, -7.836284161244717 ], [ 140.565643310915192, -7.831892967319495 ], [ 140.585739135860649, -7.817966938078174 ], [ 140.590377808714095, -7.81270980754811 ], [ 140.591812134355166, -7.804334164686155 ], [ 140.596908568914472, -7.797515868579275 ], [ 140.597763061684049, -7.793933867880503 ], [ 140.596908568914472, -7.791103839758707 ], [ 140.589416503562234, -7.784521102518845 ], [ 140.589294434193249, -7.778744220807205 ], [ 140.612030028669665, -7.7639517776187 ], [ 140.642547607179864, -7.749849795332241 ], [ 140.656967162897899, -7.751753807271938 ], [ 140.686843872504653, -7.764687061759092 ], [ 140.717300414982901, -7.7683191296049 ], [ 140.736754523913561, -7.772400515251002 ], [ 140.752075194964476, -7.889849186628645 ] ] ] } },
{ "type": "Feature", "properties": { "company": "DONGIN PRABHAWA", "name": "DONGIN PRABHAWA", "area_ha": 33498, "type": " ", "concession_type": "palm_oil" }, "geometry": { "type": "Polygon", "coordinates": [ [ [ 139.580668379583329, -7.329392612785603 ], [ 139.592505891510598, -7.339346886131399 ], [ 139.599366268741591, -7.352260535840623 ], [ 139.609455059051271, -7.366250324849279 ], [ 139.620889019905121, -7.37230359920141 ], [ 139.63460977436705, -7.372169080259186 ], [ 139.653980251043095, -7.360466085094352 ], [ 139.67483041558711, -7.340153988478656 ], [ 139.692990237246391, -7.325222579557 ], [ 139.706307440634873, -7.316882514578954 ], [ 139.72796470822405, -7.310829240474054 ], [ 139.746124530781572, -7.310560205451584 ], [ 139.757962042708783, -7.31432668725284 ], [ 139.781233517286495, -7.37149649473514 ], [ 139.869745832872837, -7.372034563948834 ], [ 139.874050382746191, -7.381047216033112 ], [ 139.869880350196723, -7.417366858845462 ], [ 139.86396159333475, -7.435930232239761 ], [ 139.539640633521515, -7.426648546444775 ], [ 139.538564495828581, -7.417770410756826 ], [ 139.533721876659541, -7.406470965307768 ], [ 139.53049346537739, -7.403511588015708 ], [ 139.532914773614436, -7.371092944177622 ], [ 139.531569602172027, -7.367730014210139 ], [ 139.536815772414457, -7.365577739248759 ], [ 139.546231977002947, -7.364636117337072 ], [ 139.553361387983443, -7.36019705067414 ], [ 139.56210500595239, -7.34916664067573 ], [ 139.567351175296494, -7.339615919815898 ], [ 139.573404449482354, -7.333562645288824 ], [ 139.580668379583329, -7.329392612785603 ] ] ] } },
{ "type": "Feature", "properties": { "company": "TUNAS SAWA ERMA", "name": "TUNAS SAWA ERMA", "area_ha": 20232, "type": " ", "concession_type": "palm_oil" }, "geometry": { "type": "Polygon", "coordinates": [ [ [ 140.182465600560647, -6.669876768835519 ], [ 140.291402679894986, -6.570447478947857 ], [ 140.347274543444399, -6.635587806079193 ], [ 140.170521031909402, -6.79950471346192 ], [ 140.165930313820809, -6.791258826124025 ], [ 140.172457400810003, -6.786537567349984 ], [ 140.174154443247488, -6.777443159093103 ], [ 140.172022262276272, -6.772352031976532 ], [ 140.174306741824125, -6.769806468340997 ], [ 140.180638015844352, -6.770154579027571 ], [ 140.183270607836192, -6.768762133882881 ], [ 140.188492276529246, -6.754228487562507 ], [ 140.182900739992732, -6.741739993989984 ], [ 140.175655672716061, -6.738911590313017 ], [ 140.172239831543124, -6.734886553592153 ], [ 140.181725863975345, -6.712607430503335 ], [ 140.181138425966594, -6.707603330232975 ], [ 140.176700006454666, -6.700662860990745 ], [ 140.178353535398145, -6.690110737855449 ], [ 140.187382672998694, -6.687630444847819 ], [ 140.192125688765657, -6.68406230332951 ], [ 140.191059598729169, -6.681233898265453 ], [ 140.187861325924843, -6.680015509829913 ], [ 140.177766098287748, -6.680733489606523 ], [ 140.182465600560647, -6.669876768835519 ] ] ] } },
{ "type": "Feature", "properties": { "company": "PT. TUNAS SAWERMA BLOK A", "name": "PT. TUNAS SAWERMA BLOK A", "area_ha": 15370, "type": " ", "concession_type": "palm_oil" }, "geometry": { "type": "Polygon", "coordinates": [ [ [ 140.617935181444977, -6.613792895752098 ], [ 140.562820435084888, -6.676576138193373 ], [ 140.446365356036182, -6.567375183319157 ], [ 140.466983262061774, -6.547044373608693 ], [ 140.475296021071074, -6.557120800209834 ], [ 140.480346680178428, -6.557361125931514 ], [ 140.480117798427159, -6.552240848707215 ], [ 140.481658935552161, -6.549690722885559 ], [ 140.488739013752195, -6.548620700936926 ], [ 140.491592407149341, -6.546300887666859 ], [ 140.479187011740464, -6.525470733590194 ], [ 140.487609863779397, -6.5250906936946 ], [ 140.498214721846836, -6.528070926766781 ], [ 140.507965088042937, -6.52516078944606 ], [ 140.514465332473122, -6.531671047000983 ], [ 140.516387939183545, -6.53111076459326 ], [ 140.517822266621295, -6.527881144798028 ], [ 140.523651123682868, -6.532041073588651 ], [ 140.526443481048005, -6.531480788917785 ], [ 140.52874307834378, -6.528141396947222 ], [ 140.617935181444977, -6.613792895752098 ] ] ] } },
{ "type": "Feature", "properties": { "company": "PT. ATSY SAWIT MAKMUR", "name": "PT. ATSY SAWIT MAKMUR", "area_ha": 107346, "type": " ", "concession_type": "palm_oil" }, "geometry": { "type": "Polygon", "coordinates": [ [ [ 139.182294407658219, -6.20172493839119 ], [ 138.989130724939514, -6.293649174555219 ], [ 138.98804120324715, -6.292195648953577 ], [ 138.981324289662041, -6.291171143589336 ], [ 138.953660663301008, -6.310529058705121 ], [ 138.793118061348366, -6.089440430098485 ], [ 139.081713822711066, -5.890808932108231 ], [ 139.123882695983411, -6.030903584679601 ], [ 139.123806368828696, -6.044531284460843 ], [ 139.141754149453277, -6.092494010653501 ], [ 139.1423492429048, -6.110454081312512 ], [ 139.153441031873712, -6.128366851088433 ], [ 139.182294407658219, -6.20172493839119 ] ] ] } },
{ "type": "Feature", "properties": { "company": "PT. ABOGE MAJU PERDANA", "name": "PT. ABOGE MAJU PERDANA", "area_ha": 88323, "type": " ", "concession_type": "palm_oil" }, "geometry": { "type": "Polygon", "coordinates": [ [ [ 139.334548347010809, -6.196028716144864 ], [ 139.228400505192639, -6.20456064559741 ], [ 139.164459486874307, -6.15710649840127 ], [ 139.153441031873712, -6.128366851088433 ], [ 139.1423492429048, -6.110454081312512 ], [ 139.141754149453277, -6.092494010653501 ], [ 139.123806368828696, -6.044531284460843 ], [ 139.123882695983411, -6.030903584679601 ], [ 139.081713822711066, -5.890808932108231 ], [ 139.202457536181385, -5.809863362007095 ], [ 139.282378111065412, -5.753449282708536 ], [ 139.334548347010809, -6.196028716144864 ] ] ] } },
{ "type": "Feature", "properties": { "company": "PT. AGATS SAWIT LESTARI", "name": "PT. AGATS SAWIT LESTARI", "area_ha": 48094, "type": " ", "concession_type": "palm_oil" }, "geometry": { "type": "Polygon", "coordinates": [ [ [ 139.334548347010809, -6.196028716144864 ], [ 139.295114277840014, -5.863691354695579 ], [ 139.282378111065412, -5.753449282708536 ], [ 139.304044897203397, -5.752444452705656 ], [ 139.329700386459109, -5.795558429490808 ], [ 139.333685938286891, -5.79845701250196 ], [ 139.351264346938081, -5.802851613642489 ], [ 139.382026562751236, -5.842403034325249 ], [ 139.397407669759531, -5.866573345247419 ], [ 139.406196875432613, -5.895138260427444 ], [ 139.403999573789775, -5.941281583264851 ], [ 139.414986079308989, -6.018187122383623 ], [ 139.423775283185392, -6.119262971757603 ], [ 139.434726516354999, -6.169912429786083 ], [ 139.384219521937979, -6.186205009251588 ], [ 139.334548347010809, -6.196028716144864 ] ] ] } },
{ "type": "Feature", "properties": { "company": "PT. FREEPORT INDONESIA", "name": "PT. FREEPORT INDONESIA", "area_ha": 547, "type": " ", "concession_type": "palm_oil" }, "geometry": { "type": "Polygon", "coordinates": [ [ [ 136.787170410054443, -4.578618050083165 ], [ 136.765502930417114, -4.578928947057056 ], [ 136.765960693021299, -4.564806937938393 ], [ 136.75813293533227, -4.564809798951561 ], [ 136.759307860756934, -4.559698105680963 ], [ 136.787185668837878, -4.559893130535262 ], [ 136.787170410054443, -4.578618050083165 ] ] ] } },
{ "type": "Feature", "properties": { "company": "PT. FREEPORT INDONESIA (I)", "name": "PT. FREEPORT INDONESIA (I)", "area_ha": 17041, "type": " ", "concession_type": "palm_oil" }, "geometry": { "type": "Polygon", "coordinates": [ [ [ 136.83245817560271, -4.38627261625318 ], [ 136.832505763854869, -4.328808634244948 ], [ 136.874312892748861, -4.328880018563138 ], [ 136.883497612268428, -4.33773161284955 ], [ 136.890850146799181, -4.347701553350845 ], [ 136.956570858849318, -4.362834926098524 ], [ 136.955547690317161, -4.447543735626836 ], [ 136.897964734679107, -4.446496772792859 ], [ 136.898107503028882, -4.441642673221682 ], [ 136.783417484156018, -4.441595083693969 ], [ 136.78989190292009, -4.433137879006249 ], [ 136.808094779034235, -4.420931243955894 ], [ 136.80747611917954, -4.416315089983974 ], [ 136.803978312126816, -4.411294427309387 ], [ 136.807024022249891, -4.403204260220507 ], [ 136.818445435435819, -4.393329496987625 ], [ 136.823061589321696, -4.390640706698302 ], [ 136.826416628922885, -4.3911403932901 ], [ 136.83245817560271, -4.38627261625318 ] ] ] } },
{ "type": "Feature", "properties": { "company": "PUSAKA AGRO LESTARI", "name": "PUSAKA AGRO LESTARI", "area_ha": 38136, "type": " ", "concession_type": "palm_oil" }, "geometry": { "type": "Polygon", "coordinates": [ [ [ 136.635862871006537, -4.259072624033528 ], [ 136.642226523004467, -4.253606749071325 ], [ 136.660023623816585, -4.274757310042259 ], [ 136.658772677562638, -4.277817011759154 ], [ 136.661881890491401, -4.280094459764602 ], [ 136.663030515939539, -4.283342298895269 ], [ 136.662575026073085, -4.296432674309576 ], [ 136.665941688975806, -4.299403257852713 ], [ 136.664713847390942, -4.304809722000411 ], [ 136.70220262200047, -4.299581492640501 ], [ 136.728561608006345, -4.328871456064137 ], [ 136.726581218063558, -4.333980860867464 ], [ 136.730205330940151, -4.338040659932981 ], [ 136.727996897374368, -4.341681329820534 ], [ 136.729059148909585, -4.347412227046903 ], [ 136.726858473194511, -4.352438092000743 ], [ 136.720897500005833, -4.357012791883245 ], [ 136.716362408294572, -4.383371777867485 ], [ 136.713510647136303, -4.383668836213531 ], [ 136.712342217429409, -4.3879662824198 ], [ 136.708737907913246, -4.387986085056881 ], [ 136.707153595959028, -4.392144903969629 ], [ 136.697627922669994, -4.39182804108686 ], [ 136.69386518177879, -4.39511548750858 ], [ 136.692558124955525, -4.399729795510175 ], [ 136.686735778883133, -4.398125680068336 ], [ 136.686260486554488, -4.401492343651328 ], [ 136.681606570189047, -4.400066462723939 ], [ 136.680537159979281, -4.393293530231594 ], [ 136.675625793639853, -4.393511371986337 ], [ 136.671843249388189, -4.397333524037713 ], [ 136.670734230660941, -4.395056075685063 ], [ 136.668654822119379, -4.394679802185745 ], [ 136.667407177174056, -4.398165288385131 ], [ 136.671308544283335, -4.407671158091144 ], [ 136.670100506957226, -4.408403902211193 ], [ 136.663901887155077, -4.404245084502476 ], [ 136.660871891261309, -4.404324299587162 ], [ 136.660436205653554, -4.40721566813893 ], [ 136.663208750675125, -4.409552527570897 ], [ 136.656970524152058, -4.413335072112817 ], [ 136.657465620739401, -4.415592716328411 ], [ 136.666020903315825, -4.417790949041647 ], [ 136.666634825455731, -4.423138000765301 ], [ 136.674912852901173, -4.432445831623554 ], [ 136.682319510927783, -4.433891516207519 ], [ 136.681586765930291, -4.437277982655853 ], [ 136.678418142920179, -4.439139549101808 ], [ 136.676715008108431, -4.442486407023279 ], [ 136.670952073914009, -4.439496019384611 ], [ 136.668635017860652, -4.441199154395573 ], [ 136.666674433074888, -4.446427382601553 ], [ 136.662693850727294, -4.444902483179814 ], [ 136.659782677691112, -4.445971893215222 ], [ 136.659644049676444, -4.44941777078136 ], [ 136.662000713349016, -4.452130905284425 ], [ 136.661980908191936, -4.455992663587501 ], [ 136.664911886385198, -4.46131991279314 ], [ 136.663347377791411, -4.474271659655139 ], [ 136.664773259268827, -4.476390677461176 ], [ 136.66831815600878, -4.476014403300724 ], [ 136.668932077250361, -4.469320685555684 ], [ 136.671942268885374, -4.467914609755407 ], [ 136.673605796077965, -4.478529498298672 ], [ 136.678002260672883, -4.477460088213634 ], [ 136.685448525420355, -4.48185655304187 ], [ 136.684814800818316, -4.484094393126298 ], [ 136.681131276962105, -4.486411448738616 ], [ 136.681507550691919, -4.489599876286521 ], [ 136.686498132269634, -4.490213796848959 ], [ 136.689567735782674, -4.485223215090931 ], [ 136.692280869824572, -4.48514399884865 ], [ 136.692558124955525, -4.487480859159545 ], [ 136.688636952689251, -4.495204379397585 ], [ 136.693112633420867, -4.499858293804945 ], [ 136.688181463721037, -4.507363971520483 ], [ 136.682874020291393, -4.505779658250995 ], [ 136.679586572627073, -4.50744318624256 ], [ 136.680061865854015, -4.512037689823801 ], [ 136.684141468597147, -4.514552784983155 ], [ 136.51501619623167, -4.509601811185229 ], [ 136.516818351438843, -4.502710055852986 ], [ 136.522680304232154, -4.498036335810554 ], [ 136.520561288071377, -4.494550850051597 ], [ 136.517055998052314, -4.497640257888693 ], [ 136.512105024093756, -4.495798495499377 ], [ 136.511095024863636, -4.493481440142928 ], [ 136.511550514730146, -4.491263402728571 ], [ 136.518996780375915, -4.491362422647721 ], [ 136.52135344315019, -4.488035368213851 ], [ 136.519709719318001, -4.484490470343131 ], [ 136.52069991518772, -4.482727923512862 ], [ 136.518759132864119, -4.480846554537432 ], [ 136.520422660056681, -4.477499695856597 ], [ 136.514936980993269, -4.472964602333323 ], [ 136.523809127218129, -4.474667738609204 ], [ 136.52345265595045, -4.470132646354665 ], [ 136.532067351303198, -4.466369906001683 ], [ 136.531651469055873, -4.464211281312186 ], [ 136.526759906975201, -4.461062461870994 ], [ 136.528126375676408, -4.45391325489631 ], [ 136.532205978419483, -4.453774628157643 ], [ 136.536820286267442, -4.456507565311835 ], [ 136.540028516896797, -4.451833846595998 ], [ 136.538602637215973, -4.449199927549096 ], [ 136.534998327699782, -4.450922867064737 ], [ 136.530938529215462, -4.447793850862171 ], [ 136.537793977390493, -4.439182457380189 ], [ 136.54019685040123, -4.441426899254834 ], [ 136.546745338853725, -4.441902191752009 ], [ 136.550230824613976, -4.438839189292282 ], [ 136.548778538955389, -4.437070042322479 ], [ 136.54360312092308, -4.436515533286328 ], [ 136.540777765742632, -4.433716581463921 ], [ 136.544263250604615, -4.431604165104958 ], [ 136.546322856684014, -4.423814633950738 ], [ 136.55466689682811, -4.42600626472338 ], [ 136.558786108088725, -4.411773865433045 ], [ 136.56512335410892, -4.408103543371596 ], [ 136.568265572937889, -4.408420404702459 ], [ 136.568767271244326, -4.404433220202882 ], [ 136.572648834993117, -4.401106167332687 ], [ 136.57296569684496, -4.395772316913184 ], [ 136.577692226729823, -4.396775714302725 ], [ 136.580411961592404, -4.393923954054891 ], [ 136.577164122445652, -4.38898618158782 ], [ 136.5782731411729, -4.383678738036947 ], [ 136.577032096150049, -4.378186458150032 ], [ 136.577665822548681, -4.37480659347778 ], [ 136.580860849739878, -4.371637969314119 ], [ 136.579963073444929, -4.37002725223894 ], [ 136.576055105514996, -4.369868821055186 ], [ 136.575474191071919, -4.368231698355598 ], [ 136.57961980651362, -4.367017059398036 ], [ 136.580676014183695, -4.363769220563886 ], [ 136.575394974935193, -4.358831449847838 ], [ 136.57399549943554, -4.355293153300188 ], [ 136.570193151823418, -4.355002696825452 ], [ 136.572807266368216, -4.345127153902896 ], [ 136.570826876425457, -4.342882712481328 ], [ 136.568080736483381, -4.34517996365034 ], [ 136.566390804211323, -4.343252385318773 ], [ 136.566602044847002, -4.340136571747808 ], [ 136.569506617062473, -4.338684285921494 ], [ 136.566866097438208, -4.332743116386143 ], [ 136.567262174528452, -4.330208218724843 ], [ 136.572780860390395, -4.328940769396602 ], [ 136.590102668873897, -4.31647751668967 ], [ 136.591238091782287, -4.314338696510257 ], [ 136.590657178237535, -4.305994655691714 ], [ 136.594908413997132, -4.301347341447871 ], [ 136.597152855632828, -4.295406171668609 ], [ 136.59997821171163, -4.294191533124952 ], [ 136.602618730437513, -4.287590234094346 ], [ 136.610540289310222, -4.281385014509048 ], [ 136.621498444897469, -4.267337449553167 ], [ 136.635862871006537, -4.259072624033528 ] ] ] } },
{ "type": "Feature", "properties": { "company": "PT. ADI JAYA MULIA", "name": "PT. ADI JAYA MULIA 2", "area_ha": 10593, "type": " ", "concession_type": "palm_oil" }, "geometry": { "type": "Polygon", "coordinates": [ [ [ 133.385864257808947, -4.19450426084952 ], [ 133.377548218152242, -4.183632851018273 ], [ 133.367553711421436, -4.178624153078951 ], [ 133.358810424930795, -4.176244259201253 ], [ 133.345096662056761, -4.175581092402151 ], [ 133.349044799951258, -4.17011404003952 ], [ 133.347320557425235, -4.160774231635551 ], [ 133.342147827152274, -4.151443957464629 ], [ 133.335189819219636, -4.149234294597117 ], [ 133.352496372512945, -4.143529465045306 ], [ 133.360208221479184, -4.147993220398534 ], [ 133.371984936326299, -4.147176446511558 ], [ 133.381216361952511, -4.143719412766606 ], [ 133.389429611882804, -4.135352334722226 ], [ 133.392181396838112, -4.136154175046107 ], [ 133.3937839621602, -4.134368102605817 ], [ 133.392059326570802, -4.140134334131269 ], [ 133.392860730738221, -4.142562967007285 ], [ 133.404807636485231, -4.148010685101955 ], [ 133.405029296966035, -4.151734351822407 ], [ 133.413589477157359, -4.157153605603868 ], [ 133.416442871452858, -4.158043860426329 ], [ 133.420456892955826, -4.155146653146605 ], [ 133.426208496432309, -4.158103942882994 ], [ 133.432037354392207, -4.170233725570856 ], [ 133.441970825091033, -4.178263664095565 ], [ 133.454757690085245, -4.185583591537596 ], [ 133.53432155396294, -4.211384521304172 ], [ 133.526399987792189, -4.224494378629832 ], [ 133.523644471235201, -4.234673631723064 ], [ 133.511825562519164, -4.240362167059089 ], [ 133.50243524920586, -4.25039704336667 ], [ 133.487805983959163, -4.244229721724318 ], [ 133.472183227034606, -4.245728015715267 ], [ 133.46563720715244, -4.247509956148272 ], [ 133.459825631700909, -4.251243664732846 ], [ 133.454879761250908, -4.237223625001109 ], [ 133.432762915829898, -4.217657603546849 ], [ 133.431137084374029, -4.21407365804393 ], [ 133.426849365335812, -4.210513592546572 ], [ 133.414245604844297, -4.203783512096176 ], [ 133.393005371142635, -4.201220989139576 ], [ 133.391250610151417, -4.203128813392899 ], [ 133.385238646790555, -4.202581405324223 ], [ 133.385864257808947, -4.19450426084952 ] ] ] } },
{ "type": "Feature", "properties": { "company": "PT. IRMASULINDO", "name": "PT. IRMASULINDO 2", "area_ha": 9778, "type": " ", "concession_type": "palm_oil" }, "geometry": { "type": "Polygon", "coordinates": [ [ [ 133.385864256910622, -4.19450426084952 ], [ 133.37629699701381, -4.182904242442032 ], [ 133.36314392031926, -4.177314281156081 ], [ 133.354934692146486, -4.175944327748883 ], [ 133.347140406583208, -4.177521357156267 ], [ 133.34539794891819, -4.175964832011327 ], [ 133.3486328119007, -4.171604155724552 ], [ 133.34857177766537, -4.165004252629994 ], [ 133.343460083424361, -4.152804374852111 ], [ 133.338997589961053, -4.149539373663261 ], [ 133.351898193348376, -4.145631790260015 ], [ 133.361297606627602, -4.149631023242527 ], [ 133.372100830676118, -4.148652076669328 ], [ 133.378997801678423, -4.14604520805136 ], [ 133.389370519805084, -4.135332944894553 ], [ 133.392181395939843, -4.136154175046107 ], [ 133.3937839621602, -4.134368102605817 ], [ 133.392059326570802, -4.140134335027218 ], [ 133.392860730738221, -4.142562967007285 ], [ 133.404807636485231, -4.148010685101955 ], [ 133.405029296966035, -4.151734351822407 ], [ 133.413589477157359, -4.157153605603868 ], [ 133.416442871452858, -4.158043860426329 ], [ 133.420456892221864, -4.155146652811923 ], [ 133.426208496432309, -4.158103942882994 ], [ 133.43078613235545, -4.168693542236793 ], [ 133.441970825091033, -4.178263664095565 ], [ 133.454757690085245, -4.185583591537596 ], [ 133.489569973137947, -4.196625828891015 ], [ 133.503799437950761, -4.204071998524236 ], [ 133.52160644538381, -4.210421084653939 ], [ 133.522994995572986, -4.2124090182358 ], [ 133.514694212903038, -4.226596831383207 ], [ 133.511703491353529, -4.236442088966125 ], [ 133.500701904018939, -4.242499827663683 ], [ 133.500223251991173, -4.249677257506623 ], [ 133.487805983959163, -4.244229721724318 ], [ 133.472183227034606, -4.245728015715267 ], [ 133.46563720715244, -4.247509956148272 ], [ 133.459825631462394, -4.251243664792629 ], [ 133.454879759454229, -4.237223625001109 ], [ 133.432762914557173, -4.217657602398142 ], [ 133.431137084374029, -4.21407365804393 ], [ 133.426849365335812, -4.210513592546572 ], [ 133.414245604844297, -4.203783512096176 ], [ 133.393005371142635, -4.201220989139576 ], [ 133.391250610151417, -4.203128814288785 ], [ 133.385238646790555, -4.202581405324223 ], [ 133.385864256910622, -4.19450426084952 ] ] ] } },
{ "type": "Feature", "properties": { "company": "SINAR MAS II", "name": "SINAR MAS II", "area_ha": 19962, "type": " ", "concession_type": "palm_oil" }, "geometry": { "type": "Polygon", "coordinates": [ [ [ 139.899520934936078, -2.872565685121594 ], [ 139.916616002353663, -2.86049579715972 ], [ 139.919296689247517, -2.869788841013084 ], [ 139.940027323959868, -2.871182796867013 ], [ 139.94842680542834, -2.883692664584042 ], [ 139.958792124131975, -2.893736299147999 ], [ 139.969979518999907, -2.897024606606659 ], [ 139.983811855898239, -2.895594907831237 ], [ 139.98584917836871, -2.897667972216125 ], [ 139.987171649383924, -2.89706034885105 ], [ 139.986599770195937, -2.899991231479485 ], [ 139.992961930092235, -2.904602012521412 ], [ 139.989066000485366, -2.907318440244239 ], [ 139.98970936490872, -2.908533684587371 ], [ 139.990745897677385, -2.907604380049149 ], [ 139.990996093755371, -2.912608326110468 ], [ 139.992282822602078, -2.913573372729588 ], [ 139.987064421979994, -2.915717920600988 ], [ 139.987993725548193, -2.917469303294248 ], [ 139.986063633176514, -2.918255636999295 ], [ 139.988243923422772, -2.919041971948512 ], [ 139.986849967172247, -2.919149199276613 ], [ 139.984919873003918, -2.924153146015836 ], [ 139.983418688451195, -2.923938691408094 ], [ 139.986313829254527, -2.928835410126784 ], [ 139.986313830152824, -2.930479564053937 ], [ 139.98331146194559, -2.931051442568641 ], [ 139.984919873003918, -2.934554206670255 ], [ 139.986957193677796, -2.933017279349865 ], [ 139.9947490546881, -2.936162617470275 ], [ 140.052473151827002, -2.962361851879719 ], [ 140.053688396336611, -2.961182349746565 ], [ 140.059264222237175, -2.961861457243156 ], [ 140.061551739887364, -2.965256992065589 ], [ 140.065590639964938, -2.96697263140512 ], [ 140.073918637096369, -2.968009162982177 ], [ 140.082282376396336, -2.963148186236131 ], [ 140.084319696171889, -2.963648580291073 ], [ 140.084927319325033, -2.960002847254478 ], [ 140.088322854080928, -2.961218092634496 ], [ 140.091682646668374, -2.959859878230327 ], [ 140.0925404667978, -2.962469078631618 ], [ 140.090324433484625, -2.964863825257899 ], [ 140.093684225173746, -2.964935310794876 ], [ 140.096543622910218, -2.962719276737958 ], [ 140.10101143350164, -2.968044905649569 ], [ 140.101869251834444, -2.97254845723418 ], [ 140.130963626745029, -2.988739798028859 ], [ 140.153123961673089, -2.998783433853168 ], [ 140.13922013864115, -3.037313822588893 ], [ 140.117238517250655, -3.040602129957213 ], [ 140.1116889338345, -3.02312540870515 ], [ 140.105769276860656, -3.010659677142472 ], [ 140.097876400296656, -3.003236616579889 ], [ 140.089419750043504, -3.001639249635677 ], [ 140.085880483943754, -3.003737750421493 ], [ 140.083969907471612, -3.013635166363964 ], [ 140.084815573395247, -3.0189597254026 ], [ 140.090797870792159, -3.02863789218268 ], [ 140.090140130629322, -3.036593410451971 ], [ 140.084126512571743, -3.041448154224119 ], [ 140.063172808208066, -3.046960637527177 ], [ 140.056188239787389, -3.051878024312297 ], [ 140.052899541668154, -3.056419559575494 ], [ 140.050895002315627, -3.062965635358169 ], [ 140.053964454013339, -3.072330594631556 ], [ 140.071880027340029, -3.091686929739858 ], [ 140.0783947804604, -3.096353748717856 ], [ 140.084095191012722, -3.123227110011718 ], [ 140.028343930781745, -3.089243896605357 ], [ 140.020670302435803, -3.086143124551872 ], [ 140.028939028724864, -3.076872129221328 ], [ 140.027686191517233, -3.071641532781992 ], [ 140.016567259952041, -3.062182611383665 ], [ 140.018477837322479, -3.04758705756098 ], [ 140.034827364139659, -3.019178971629606 ], [ 140.037333039453245, -3.018646514764104 ], [ 140.03902436950392, -3.013353277296932 ], [ 140.038335307782063, -2.999227536674636 ], [ 140.033981699114349, -2.99315127553889 ], [ 140.027811475058286, -2.992650140435929 ], [ 140.024491456278412, -2.989518047804571 ], [ 140.021296720141322, -2.980215731521753 ], [ 140.015408385624795, -2.977177600091346 ], [ 140.009394767567187, -2.968626985617338 ], [ 140.000938115517357, -2.964022808567259 ], [ 139.978762893708392, -2.961861663579656 ], [ 139.974659852122926, -2.95384350447382 ], [ 139.96783188880238, -2.953091802310748 ], [ 139.958153720205672, -2.954281997765385 ], [ 139.950198204116873, -2.957288808213532 ], [ 139.936855487675984, -2.96959793428565 ], [ 139.935289440268093, -2.973638335352242 ], [ 139.930591299841211, -2.963177143288796 ], [ 139.929119216212058, -2.955628799556992 ], [ 139.929432424615641, -2.92875543799992 ], [ 139.927490528381156, -2.920674637894288 ], [ 139.924107867381565, -2.91384667363829 ], [ 139.903937186721805, -2.893613351885524 ], [ 139.896796014099323, -2.882901592172064 ], [ 139.896294879036589, -2.880020066871215 ], [ 139.899520934936078, -2.872565685121594 ] ] ] } },
{ "type": "Feature", "properties": { "company": "PT. PERKEBUNAN II ARSO", "name": "PT. PERKEBUNAN II ARSO", "area_ha": 38488, "type": " ", "concession_type": "palm_oil" }, "geometry": { "type": "Polygon", "coordinates": [ [ [ 140.831735743506414, -2.772385599395843 ], [ 140.835405998347596, -2.778168441888393 ], [ 140.837897457821782, -2.776561552261026 ], [ 140.841873397676039, -2.779386669290923 ], [ 140.847309752043884, -2.777066038773793 ], [ 140.84984602128111, -2.780217710763273 ], [ 140.851798859894075, -2.780070116313039 ], [ 140.84981855529125, -2.782916169587032 ], [ 140.850565721842344, -2.786393277672911 ], [ 140.848641979661323, -2.789957756026028 ], [ 140.849518921329917, -2.798179325968603 ], [ 140.847018755383999, -2.799057984335686 ], [ 140.845293199521052, -2.803214133758102 ], [ 140.845807423037485, -2.806688594974162 ], [ 140.842809515863962, -2.808237061109655 ], [ 140.841539725650307, -2.811710357135105 ], [ 140.844353351528071, -2.814958081576281 ], [ 140.847601390100863, -2.816032111847437 ], [ 140.849271640285053, -2.820940919574938 ], [ 140.853598791770992, -2.822374790171268 ], [ 140.860389423803326, -2.830408241489797 ], [ 140.869089691771592, -2.82917406799099 ], [ 140.871703837757423, -2.831371662723391 ], [ 140.874547108937918, -2.830195935134624 ], [ 140.876371333955063, -2.831763288731633 ], [ 140.880089458221107, -2.830485929920857 ], [ 140.886574778041137, -2.836468095728391 ], [ 140.890813261316964, -2.834967535457944 ], [ 140.901582107737795, -2.838401847510131 ], [ 140.910548688458647, -2.838104205962923 ], [ 140.928428875349709, -2.861866598759456 ], [ 140.934351629714627, -2.866400281663029 ], [ 140.944867767469674, -3.018158675170829 ], [ 140.852781617713219, -3.013513442527126 ], [ 140.841727648716102, -3.00677754319156 ], [ 140.827719914860296, -3.009170777637176 ], [ 140.821414584185533, -3.006472002660722 ], [ 140.813942403940416, -3.008656122854504 ], [ 140.812915595434674, -3.012304476227319 ], [ 140.801830573474859, -3.011118487162352 ], [ 140.794136220995398, -3.012876761780404 ], [ 140.7886388997658, -3.008758398605449 ], [ 140.787637109340778, -3.005129763741397 ], [ 140.780456645306089, -2.997711732321251 ], [ 140.784077473942034, -2.98197277831438 ], [ 140.783128231367783, -2.978633359290273 ], [ 140.76705068118099, -2.979767386689014 ], [ 140.767097830156985, -2.974310593870931 ], [ 140.770400756691942, -2.969831219381023 ], [ 140.769292212275161, -2.967495534928929 ], [ 140.766465781811235, -2.968330620875271 ], [ 140.766214075665289, -2.964720414584774 ], [ 140.761325598399367, -2.964808678833328 ], [ 140.76037851627342, -2.954871614502495 ], [ 140.761764784741757, -2.944110450662347 ], [ 140.767837253230283, -2.943785996515413 ], [ 140.766164804868595, -2.929671369306728 ], [ 140.771847130537651, -2.92931876673985 ], [ 140.782483496115333, -2.923745397741093 ], [ 140.786004838130197, -2.924414808375306 ], [ 140.782730103423773, -2.921520233142166 ], [ 140.787887572218409, -2.918630362278103 ], [ 140.784530639866887, -2.916450262246675 ], [ 140.785430908088415, -2.912450313806021 ], [ 140.782684325276904, -2.915950298290217 ], [ 140.780929565184039, -2.915200233066135 ], [ 140.783569335613322, -2.911740303347802 ], [ 140.782241820557829, -2.906890391225467 ], [ 140.784408569599549, -2.903860331797226 ], [ 140.776931763030746, -2.909060240001318 ], [ 140.780441284114744, -2.90417027513855 ], [ 140.776199341426747, -2.896810293074722 ], [ 140.778579711639651, -2.893090247869178 ], [ 140.775497436491321, -2.888470411430121 ], [ 140.774917602721501, -2.881870270795098 ], [ 140.771774291541135, -2.880500316809547 ], [ 140.774688720970232, -2.878960370416911 ], [ 140.77481079123757, -2.877360344793022 ], [ 140.77098083480351, -2.879070281424624 ], [ 140.769348144977954, -2.875910282117983 ], [ 140.77452087345435, -2.874620199137211 ], [ 140.77351379374889, -2.871280192858058 ], [ 140.771011353268648, -2.870590210578512 ], [ 140.771697997624102, -2.869420289292461 ], [ 140.773254395329161, -2.869770288047768 ], [ 140.77519226082299, -2.873080253774616 ], [ 140.777221679915669, -2.872910260319538 ], [ 140.779754638861021, -2.867340326085977 ], [ 140.776473999528235, -2.866770267171034 ], [ 140.781021117884535, -2.865830421456318 ], [ 140.778381347455252, -2.862090349279693 ], [ 140.779953003045392, -2.861240387043905 ], [ 140.782623291041489, -2.863910197901901 ], [ 140.784652709235843, -2.860880375668437 ], [ 140.782333374156678, -2.856880188537307 ], [ 140.78843689021798, -2.857670307297049 ], [ 140.792129516703, -2.852670192926848 ], [ 140.79521179185133, -2.852530241054308 ], [ 140.794708251998628, -2.845920324346694 ], [ 140.798690796266868, -2.84657025310073 ], [ 140.799438476654217, -2.845030307759318 ], [ 140.799011230718548, -2.842110395182646 ], [ 140.794647216865002, -2.840500354618368 ], [ 140.794540404482717, -2.839000224861327 ], [ 140.805786133250223, -2.840070248355774 ], [ 140.802841187152637, -2.836860179385933 ], [ 140.798522948750986, -2.836540221919192 ], [ 140.799453735437652, -2.83518028326557 ], [ 140.805343628531205, -2.835570335166792 ], [ 140.806514316602744, -2.832530417347862 ], [ 140.805847168383963, -2.830220221970854 ], [ 140.802444457885514, -2.830360412516861 ], [ 140.800277710640444, -2.828150271818462 ], [ 140.797744750796767, -2.829860209879354 ], [ 140.797592162962587, -2.824510336800995 ], [ 140.801910399567646, -2.825760364705661 ], [ 140.802444457885514, -2.822620392198746 ], [ 140.804733276296275, -2.820710421110336 ], [ 140.800949096212435, -2.818090199791982 ], [ 140.805328368849445, -2.813640356651951 ], [ 140.809402466716506, -2.814040421719858 ], [ 140.806686400573511, -2.81027030850831 ], [ 140.809402465818152, -2.809130191514987 ], [ 140.809432983385022, -2.807720423245732 ], [ 140.803543091189795, -2.807880402368161 ], [ 140.805694579651458, -2.804880380588989 ], [ 140.805389403983128, -2.802500247840096 ], [ 140.802490234235762, -2.802060365534973 ], [ 140.802047729516715, -2.806860209614575 ], [ 140.80006408767261, -2.807130336408862 ], [ 140.79673767109125, -2.799640179504367 ], [ 140.798019408898227, -2.797310351804184 ], [ 140.793655395942949, -2.795900344986676 ], [ 140.794891356501296, -2.793700217778193 ], [ 140.794052124311747, -2.790040254617305 ], [ 140.799514770571307, -2.787490368407252 ], [ 140.801971436497894, -2.790260315135288 ], [ 140.801895141682536, -2.786390304175761 ], [ 140.800003051640601, -2.785060405473014 ], [ 140.796035767054093, -2.786030292931561 ], [ 140.792816161956722, -2.782040357813272 ], [ 140.792877197090377, -2.779190301549441 ], [ 140.789306641771077, -2.779010296187522 ], [ 140.788177490001601, -2.776870251173907 ], [ 140.79199218675393, -2.777460337060364 ], [ 140.792236328186902, -2.772590398957907 ], [ 140.796035767054093, -2.775920391128449 ], [ 140.800158706323145, -2.77036152202413 ], [ 140.831735743506414, -2.772385599395843 ] ] ] } },
{ "type": "Feature", "properties": { "company": "PT. KOPERMAS TANGTEY", "name": "PT. KOPERMAS TANGTEY 2", "area_ha": 4046, "type": " ", "concession_type": "palm_oil" }, "geometry": { "type": "Polygon", "coordinates": [ [ [ 140.144531249892083, -2.532423973126806 ], [ 140.150207520017744, -2.553890944438468 ], [ 140.15141296390766, -2.566791058373675 ], [ 140.131149291446292, -2.575016021437948 ], [ 140.120239257710551, -2.588306904185703 ], [ 140.1007995613503, -2.590928077818018 ], [ 140.09542846689294, -2.590306996400461 ], [ 140.091339111140769, -2.58701705873163 ], [ 140.087005614853979, -2.578309058420668 ], [ 140.080810546990421, -2.574873924018435 ], [ 140.079605103100533, -2.569931030716703 ], [ 140.080871582124075, -2.547483920305777 ], [ 140.091949463375727, -2.531584977841626 ], [ 140.128879540675797, -2.531851122190701 ], [ 140.128509521016952, -2.534834146447254 ], [ 140.130874634243128, -2.53325414695646 ], [ 140.133010863921356, -2.536803961084492 ], [ 140.134124756009044, -2.536473989474269 ], [ 140.133590698589501, -2.534333944075793 ], [ 140.135635375567233, -2.535134077700356 ], [ 140.138015746678462, -2.532854080073805 ], [ 140.140930175209235, -2.535324097214446 ], [ 140.144531249892083, -2.532423973126806 ] ] ] } },
{ "type": "Feature", "properties": { "company": "PT. KOPERMAS TANGTEY", "name": "PT. KOPERMAS TANGTEY 3", "area_ha": 10541, "type": " ", "concession_type": "palm_oil" }, "geometry": { "type": "Polygon", "coordinates": [ [ [ 139.942733764654548, -2.497041702323344 ], [ 139.956255214395981, -2.491977485970642 ], [ 139.962718341336966, -2.493237591918718 ], [ 139.974696451284217, -2.491016650695174 ], [ 139.994310234858375, -2.496986159277319 ], [ 140.000998367320136, -2.496755258349501 ], [ 140.007036497706878, -2.494312425964322 ], [ 140.015975952001128, -2.498546123812619 ], [ 140.01631164613454, -2.496836185233423 ], [ 140.014068604074083, -2.495156287920683 ], [ 140.018844604181623, -2.493386268638938 ], [ 140.018310546762081, -2.499066113673323 ], [ 140.015594481517383, -2.499726294738779 ], [ 140.018692017245797, -2.505876303221768 ], [ 140.022872925698465, -2.505056142814388 ], [ 140.01980590843516, -2.507316113052467 ], [ 140.022872925698465, -2.509176254716727 ], [ 140.020126342886869, -2.511666297699734 ], [ 140.02326965316891, -2.512526273893846 ], [ 140.022186278648064, -2.516806126077976 ], [ 140.026504517049744, -2.516056061526506 ], [ 140.027694702156197, -2.512956142417484 ], [ 140.027725220621335, -2.518056154028264 ], [ 140.029647826433461, -2.518526076507245 ], [ 140.030151367184544, -2.521806240552704 ], [ 140.029296874414882, -2.524855374723584 ], [ 140.031921386959084, -2.525735378513463 ], [ 140.032135009926918, -2.528465509099054 ], [ 140.035415649259647, -2.529795407855222 ], [ 140.037750244020685, -2.527685404041041 ], [ 140.039916992164024, -2.529225588207938 ], [ 140.040161132698699, -2.532205581578659 ], [ 140.041671753155214, -2.530515431674928 ], [ 140.043289185095603, -2.53203558883876 ], [ 140.045135497888992, -2.530445575896102 ], [ 140.046493529612945, -2.53127551137715 ], [ 140.046783446497898, -2.533895492354142 ], [ 140.049026488558383, -2.535155534499679 ], [ 140.049102782475472, -2.53917551058891 ], [ 140.051269530618839, -2.539695500381144 ], [ 140.050003051595326, -2.543985367118769 ], [ 140.052276611222652, -2.542725563325997 ], [ 140.053512573577649, -2.545405387681747 ], [ 140.050277710595083, -2.546695470771027 ], [ 140.049591064443064, -2.549815416006846 ], [ 140.052520751757271, -2.547915459018435 ], [ 140.054901122868529, -2.55157542220735 ], [ 140.051849365286984, -2.551475525378359 ], [ 140.047683715617751, -2.556075573575489 ], [ 140.048400878438343, -2.550785541991154 ], [ 140.045120239105529, -2.551095485696104 ], [ 140.045593262289742, -2.555315495025123 ], [ 140.042358397510583, -2.554855584993538 ], [ 140.042373657192343, -2.557455540578199 ], [ 140.04426574723422, -2.559145450550414 ], [ 140.041625976804994, -2.561255454930569 ], [ 140.039520263795225, -2.560115576664909 ], [ 140.03790283185478, -2.563285589362132 ], [ 140.033935547268328, -2.561335563832709 ], [ 140.034652710088835, -2.557615519241228 ], [ 140.032455443480302, -2.558495522234251 ], [ 140.03179931579345, -2.56330537829232 ], [ 140.035018920890849, -2.566655396292149 ], [ 140.033966063936816, -2.570635557111947 ], [ 140.031936646640787, -2.565435410605877 ], [ 140.02377319302164, -2.564875603036826 ], [ 140.028274535926045, -2.569485425299948 ], [ 140.02775573728988, -2.575995445208213 ], [ 140.028823853027319, -2.576695442628396 ], [ 140.030258178668419, -2.575045585653871 ], [ 140.032318115327911, -2.578955411262063 ], [ 140.037292480518147, -2.580005407497881 ], [ 140.038970946693922, -2.582275391550217 ], [ 140.037811279154312, -2.584445476398351 ], [ 140.042190551791322, -2.581685543615153 ], [ 140.042404174759156, -2.587515353301447 ], [ 140.037567138619636, -2.587405442511703 ], [ 140.028045654174775, -2.598335505467055 ], [ 140.027769821076873, -2.602966914966832 ], [ 139.924635558440684, -2.546814480494682 ], [ 139.928378161798207, -2.531398778175349 ], [ 139.934435478402804, -2.518066419037247 ], [ 139.93272774511513, -2.505941673036924 ], [ 139.935012816652772, -2.505231618945935 ], [ 139.936538695892722, -2.506511688640346 ], [ 139.938247680533607, -2.504771709099394 ], [ 139.934799193684967, -2.504101514948664 ], [ 139.933105468725813, -2.501691579137143 ], [ 139.939941406391142, -2.501301527187054 ], [ 139.93742370622914, -2.497331618515628 ], [ 139.938919067003951, -2.495701551687713 ], [ 139.942001343050606, -2.498991727622405 ], [ 139.942733764654548, -2.497041702323344 ] ] ] } },
{ "type": "Feature", "properties": { "company": "PT. KOPERMAS TANGTEY", "name": "PT. KOPERMAS TANGTEY 1", "area_ha": 37, "type": " ", "concession_type": "palm_oil" }, "geometry": { "type": "Polygon", "coordinates": [ [ [ 140.129440307703703, -2.531791924462444 ], [ 140.142425536882314, -2.531735896484079 ], [ 140.14470799342422, -2.532041972316939 ], [ 140.140899657642393, -2.534994124329367 ], [ 140.136901854590775, -2.53276395848232 ], [ 140.135284424446979, -2.534904002886821 ], [ 140.133270264137735, -2.534193993310569 ], [ 140.133102416621853, -2.536524057380937 ], [ 140.131820678814876, -2.53323411884599 ], [ 140.128601073717505, -2.534284114802542 ], [ 140.129440307703703, -2.531791924462444 ] ] ] } },
{ "type": "Feature", "properties": { "company": "LEMBAH GRIME PLANTATIONS", "name": "LEMBAH GRIME PLANTATIONS", "area_ha": 6086, "type": " ", "concession_type": "palm_oil" }, "geometry": { "type": "Polygon", "coordinates": [ [ [ 140.019603546747732, -2.39669075446353 ], [ 140.043614519857215, -2.396909495843317 ], [ 140.04228202184683, -2.399146189179174 ], [ 140.043376574104769, -2.402477435199751 ], [ 140.046969560356814, -2.403928905780296 ], [ 140.043186217502836, -2.403786137411984 ], [ 140.044970813341223, -2.40695082151906 ], [ 140.043471752405765, -2.409710995532725 ], [ 140.046231927625826, -2.410520013469799 ], [ 140.046921971206302, -2.413446748911932 ], [ 140.049134870297394, -2.41470786407437 ], [ 140.047778577711796, -2.417325271553339 ], [ 140.04818308638923, -2.42141794413409 ], [ 140.050300806281086, -2.423083566027838 ], [ 140.049705941001605, -2.425391643822072 ], [ 140.052180580420469, -2.424535038839212 ], [ 140.051823660893433, -2.426771730730435 ], [ 140.05482178186594, -2.427985256551923 ], [ 140.052704061075843, -2.429722261711035 ], [ 140.055392852570151, -2.43072163613623 ], [ 140.053513078430825, -2.433648372805153 ], [ 140.055131112242464, -2.437574484132852 ], [ 140.053988969935716, -2.440453631205349 ], [ 140.058747892171397, -2.442666530014052 ], [ 140.061531861068403, -2.440120507689061 ], [ 140.064363420014303, -2.440525015702745 ], [ 140.066623908255877, -2.444712867567884 ], [ 140.071454214217283, -2.443427958117559 ], [ 140.068931984749668, -2.454444861783214 ], [ 140.067004622358098, -2.457395393017114 ], [ 140.063792349310063, -2.457538161100092 ], [ 140.062555029600645, -2.461297708839078 ], [ 140.06767087046498, -2.459156195614324 ], [ 140.069098546776331, -2.46263020824924 ], [ 140.073595727786028, -2.462511234853295 ], [ 140.074761663769721, -2.463986499544697 ], [ 140.070740375163297, -2.465176230810151 ], [ 140.071906311146904, -2.468436092203438 ], [ 140.070335867384102, -2.470101714950542 ], [ 140.068551271545715, -2.468721627782341 ], [ 140.067147389809605, -2.473694701022342 ], [ 140.065672123449389, -2.473932646699066 ], [ 140.066171809529521, -2.476597643078606 ], [ 140.072643943877864, -2.47428956558281 ], [ 140.074000237361815, -2.46762707589248 ], [ 140.07552309197419, -2.467246362058442 ], [ 140.075737242253041, -2.469221314897862 ], [ 140.07773599106531, -2.468602654931085 ], [ 140.078188087994988, -2.46467654396971 ], [ 140.082090404623472, -2.460702843850954 ], [ 140.081852457972701, -2.463915117196617 ], [ 140.08423191909057, -2.463296457454541 ], [ 140.086397228132824, -2.466056631746504 ], [ 140.084493660316582, -2.465747301511585 ], [ 140.082399734101671, -2.470815552887833 ], [ 140.083946384187612, -2.47357572771927 ], [ 140.087396602089797, -2.477121124697859 ], [ 140.090299543863068, -2.477168714252072 ], [ 140.093868736438111, -2.484640221620579 ], [ 140.097176186888873, -2.484092945633162 ], [ 140.093749763561931, -2.488066644757513 ], [ 140.099746003710322, -2.491183739187631 ], [ 140.102292027753208, -2.490612669586415 ], [ 140.101268858322697, -2.49411047586836 ], [ 140.104814256322555, -2.494205653749933 ], [ 140.106146755231237, -2.492468647352885 ], [ 140.112499914906692, -2.497703462144517 ], [ 140.114070358669579, -2.501177474958637 ], [ 140.112618887782929, -2.501629572786933 ], [ 140.112928218159482, -2.503104838678206 ], [ 140.092134704072151, -2.514490559052702 ], [ 140.064080858534879, -2.492825567511026 ], [ 140.060083365402022, -2.486561636012301 ], [ 140.054890191269777, -2.485865643780878 ], [ 140.055443416042579, -2.481118618850198 ], [ 140.051071155654654, -2.477977731027074 ], [ 140.052070530509923, -2.477192509028517 ], [ 140.037276230892985, -2.470999960809672 ], [ 140.036508855841305, -2.468697832853967 ], [ 140.023356384611276, -2.461256069052467 ], [ 140.021000718068677, -2.457133652838185 ], [ 140.014504790043475, -2.454349683740018 ], [ 139.97802519270553, -2.466162090522519 ], [ 139.97523329168456, -2.469683693545194 ], [ 139.973869067873324, -2.469112623636915 ], [ 139.972853831465045, -2.467558042450939 ], [ 139.97507466088345, -2.467240779717053 ], [ 139.977327217899472, -2.461879061907677 ], [ 139.974471865276684, -2.461434895933662 ], [ 139.972822104765811, -2.458230554898282 ], [ 139.977390670399529, -2.458642994829718 ], [ 139.972980736465189, -2.455882819548004 ], [ 139.974947756781631, -2.453630263557862 ], [ 139.969554311341653, -2.449569317443085 ], [ 139.971997224959551, -2.446079440816093 ], [ 139.974947757679956, -2.447729199507737 ], [ 139.976280254791988, -2.445952535664985 ], [ 139.975677457388571, -2.444048968625208 ], [ 139.971965499158671, -2.442526112690756 ], [ 139.972726927363141, -2.440781173982216 ], [ 139.976089898190054, -2.443287539976389 ], [ 140.019068167906426, -2.44138149295584 ], [ 140.018867400728595, -2.439467513808894 ], [ 140.017368341589787, -2.43923997839206 ], [ 140.019215396391559, -2.435947399169388 ], [ 140.01684634764618, -2.434354647176395 ], [ 140.016150354523603, -2.430767610034516 ], [ 140.018037564018584, -2.427193956891742 ], [ 140.016752655158655, -2.426270428426413 ], [ 140.022253671158978, -2.416807610315439 ], [ 140.020620765737789, -2.413662259231394 ], [ 140.020513691047483, -2.407063717309612 ], [ 140.018639864653636, -2.405872499578251 ], [ 140.018479252169044, -2.40071947923679 ], [ 140.021156144579152, -2.397908740917479 ], [ 140.019603546747732, -2.39669075446353 ] ] ] } },
{ "type": "Feature", "properties": { "company": "PT. RIMBA MATOA LESTARI", "name": "PT. RIMBA MATOA LESTARI", "area_ha": 31648, "type": " ", "concession_type": "palm_oil" }, "geometry": { "type": "Polygon", "coordinates": [ [ [ 139.847045898818209, -2.374757767169596 ], [ 139.883697510058283, -2.374937773156048 ], [ 139.95693067382777, -2.365796817970038 ], [ 139.970381399206872, -2.365820026807525 ], [ 139.979309788053399, -2.368179208766475 ], [ 139.985003236662294, -2.371184737639781 ], [ 139.987451965973406, -2.37701447853728 ], [ 139.990039898220886, -2.378274855365857 ], [ 139.998159564359867, -2.373427209910954 ], [ 140.025160009462326, -2.372977181843286 ], [ 140.026745111035694, -2.374399157987611 ], [ 140.02638928924992, -2.379052890797844 ], [ 140.028233183778497, -2.380959615710698 ], [ 140.028103814699506, -2.383609655849154 ], [ 140.020235795417761, -2.392753792284936 ], [ 140.020656354294431, -2.396987384334447 ], [ 140.01878006292344, -2.399023392103166 ], [ 140.019944659518984, -2.400671596179248 ], [ 140.017356728169858, -2.400897801652103 ], [ 140.018974171788301, -2.402190519544878 ], [ 140.016316880617751, -2.404827791756602 ], [ 140.01975130344232, -2.422105742418144 ], [ 140.014700780878883, -2.429527331107703 ], [ 140.016059431542146, -2.430270645968608 ], [ 140.014215537013541, -2.434019465967255 ], [ 140.015185970845323, -2.437606734985387 ], [ 140.017485774753595, -2.439053236173701 ], [ 140.015900674078637, -2.442188048056694 ], [ 140.017550513641226, -2.444191741721618 ], [ 139.977075796519387, -2.447855781392305 ], [ 139.971878051759006, -2.445028066920877 ], [ 139.968887329311144, -2.449838160974624 ], [ 139.974029541119023, -2.45363807712061 ], [ 139.972549438229322, -2.456387996936902 ], [ 139.976486206147285, -2.458618164019671 ], [ 139.972503661879074, -2.457508087138197 ], [ 139.974166870169739, -2.461968184075284 ], [ 139.976348876198273, -2.461968184075284 ], [ 139.974838256640027, -2.466128110907933 ], [ 139.972198486210743, -2.467728137778637 ], [ 139.975463866760094, -2.470368147300664 ], [ 139.979217529277093, -2.46653819070677 ], [ 139.977325438336891, -2.472448110421133 ], [ 139.979370117111273, -2.47674799008087 ], [ 139.977844238769677, -2.479358196271143 ], [ 139.979568481295672, -2.481738090572859 ], [ 139.975097655958166, -2.481837987361253 ], [ 139.974914551455441, -2.484997988418038 ], [ 139.972961425381612, -2.484808207494148 ], [ 139.965143590483166, -2.489597764496272 ], [ 139.94279479978826, -2.496511697772737 ], [ 139.94221496601844, -2.498531580452453 ], [ 139.939483642888604, -2.495371580445187 ], [ 139.937988281215553, -2.495701551687713 ], [ 139.936843871561052, -2.497391700910182 ], [ 139.939514160455474, -2.50101161007662 ], [ 139.932922363324792, -2.501251697548039 ], [ 139.934005736947341, -2.504201650558077 ], [ 139.937561035279884, -2.504911661232065 ], [ 139.93255615162451, -2.505441665978658 ], [ 139.931823730020511, -2.508401632323923 ], [ 139.929367064992221, -2.505141735063966 ], [ 139.924987793253507, -2.504411696858471 ], [ 139.903323949098166, -2.512365525027987 ], [ 139.895786552061736, -2.511654524920536 ], [ 139.873606526062616, -2.503498662107288 ], [ 139.832697228260884, -2.486672253605071 ], [ 139.824857951474968, -2.467319798565269 ], [ 139.814381691732024, -2.450796223176919 ], [ 139.806326761785698, -2.447758379783842 ], [ 139.790928490667284, -2.456031672775536 ], [ 139.76383972230775, -2.428018331546836 ], [ 139.76580810536845, -2.423918247517964 ], [ 139.769271851000468, -2.421718358816339 ], [ 139.769805907521743, -2.41809821112279 ], [ 139.773071288969447, -2.421068430017215 ], [ 139.777954101459159, -2.420778275566489 ], [ 139.775817870882605, -2.41559839243573 ], [ 139.777725219707889, -2.41209840806223 ], [ 139.781646728842532, -2.417628288142745 ], [ 139.783798217304195, -2.416738271799394 ], [ 139.784393310755718, -2.412808418378469 ], [ 139.780883789671719, -2.41119837805711 ], [ 139.777801513624979, -2.404308319048122 ], [ 139.78196716329424, -2.406918287216929 ], [ 139.783325195018222, -2.405558348384546 ], [ 139.782806395483789, -2.403178452838559 ], [ 139.787322998069925, -2.40751838695773 ], [ 139.787261962936213, -2.404188394514691 ], [ 139.78541564834623, -2.401928425810186 ], [ 139.787857055489468, -2.398368358995327 ], [ 139.789413452296174, -2.400448321992162 ], [ 139.791732788273777, -2.399678230133782 ], [ 139.789474487429828, -2.396578311965631 ], [ 139.794174194518632, -2.399138211951456 ], [ 139.795837401911029, -2.398308276649193 ], [ 139.792694092527285, -2.393198251883726 ], [ 139.788696289475666, -2.39336824439012 ], [ 139.797271729348779, -2.39147829990699 ], [ 139.791320801121543, -2.387368441268685 ], [ 139.791931151559851, -2.38320827498701 ], [ 139.787338256853275, -2.383438349036817 ], [ 139.788833617628086, -2.378988266049122 ], [ 139.791931152458176, -2.382548331973744 ], [ 139.794906616122603, -2.381308317043808 ], [ 139.792587280145085, -2.376128434339778 ], [ 139.788955687895395, -2.376128435237344 ], [ 139.788070679355627, -2.374528407911732 ], [ 139.79336599589513, -2.372387803264602 ], [ 139.810578248987099, -2.378548442956246 ], [ 139.847045898818209, -2.374757767169596 ] ] ] } },
{ "type": "Feature", "properties": { "company": "PT. ANNATANI RODA PERSADA", "name": "PT. ANNATANI RODA PERSADA 1", "area_ha": 2555, "type": " ", "concession_type": "palm_oil" }, "geometry": { "type": "Polygon", "coordinates": [ [ [ 136.32569885342113, -2.387311935119965 ], [ 136.336687201396472, -2.37831915118323 ], [ 136.31114196865235, -2.442112922870045 ], [ 136.303100585300456, -2.472765922963245 ], [ 136.302047729244833, -2.490689992622173 ], [ 136.299621581783356, -2.490937948272608 ], [ 136.295578003279758, -2.488656997562797 ], [ 136.293853759855409, -2.484479903716687 ], [ 136.290315693415323, -2.481475953532021 ], [ 136.287750243794022, -2.473851918548591 ], [ 136.282554531022811, -2.471753135007551 ], [ 136.278561993225139, -2.466117664885439 ], [ 136.288635253232229, -2.451462030437952 ], [ 136.290679340656766, -2.439633607192749 ], [ 136.296585082985189, -2.421751976062302 ], [ 136.29629002419108, -2.410402149398081 ], [ 136.306723463470263, -2.402116025541771 ], [ 136.315139771703969, -2.399771929311096 ], [ 136.32569885342113, -2.387311935119965 ] ] ] } },
{ "type": "Feature", "properties": { "company": "PT. ANNATANI RODA PERSADA", "name": "PT. ANNATANI RODA PERSADA 2", "area_ha": 48801, "type": " ", "concession_type": "palm_oil" }, "geometry": { "type": "MultiPolygon", "coordinates": [ [ [ [ 136.57961165025759, -2.202414944993697 ], [ 136.574005126680419, -2.194428920518547 ], [ 136.575500487455201, -2.193742037198041 ], [ 136.577545166229584, -2.195935011425301 ], [ 136.579452515054896, -2.19209098759874 ], [ 136.584613887334825, -2.190021223157729 ], [ 136.57961165025759, -2.202414944993697 ] ] ], [ [ [ 136.557601929118277, -2.209575890416678 ], [ 136.571273803550639, -2.205812930801561 ], [ 136.572280884154424, -2.199649095430192 ], [ 136.573974609113606, -2.198307037521946 ], [ 136.576965331561496, -2.199912071038234 ], [ 136.574677873285282, -2.207824523582863 ], [ 136.579424643432617, -2.203708823903133 ], [ 136.585069773351421, -2.190232438975853 ], [ 136.589065552200253, -2.190937041637042 ], [ 136.587683017337866, -2.195582795841739 ], [ 136.582519530521523, -2.20123696349079 ], [ 136.578271180640456, -2.214413728819692 ], [ 136.575881957938918, -2.216475964068038 ], [ 136.581726074682166, -2.237509965845132 ], [ 136.586685181089081, -2.237152100315889 ], [ 136.584976195549842, -2.239219903151889 ], [ 136.587722778361382, -2.240802050299407 ], [ 136.576568604090966, -2.249088048631884 ], [ 136.573303222643261, -2.255300998631719 ], [ 136.573562621961401, -2.265436888369372 ], [ 136.575653076187649, -2.270503998359973 ], [ 136.579010009437525, -2.272811890153843 ], [ 136.601699828462046, -2.277643919211031 ], [ 136.640518187845544, -2.278455018736262 ], [ 136.653320311623219, -2.277148008191206 ], [ 136.685104370055257, -2.271122931764366 ], [ 136.691726684752723, -2.268182993264682 ], [ 136.703414917341007, -2.258557080812901 ], [ 136.708358764964487, -2.257905005580841 ], [ 136.722640990733453, -2.269198894319366 ], [ 136.745788574158723, -2.276026963506024 ], [ 136.76205444267012, -2.277029036806911 ], [ 136.764846801831936, -2.283620119079229 ], [ 136.777420043858342, -2.289623021869146 ], [ 136.785583495680868, -2.291481018236767 ], [ 136.786651611418336, -2.293565034871866 ], [ 136.782318115131488, -2.302941084407237 ], [ 136.780548096255274, -2.311597109298642 ], [ 136.787811278957946, -2.323029994494032 ], [ 136.794082642535187, -2.329776048873103 ], [ 136.793411255166575, -2.33336400965072 ], [ 136.783050536735516, -2.338504076564903 ], [ 136.75457763699967, -2.339818954404246 ], [ 136.739028931308809, -2.345319985800401 ], [ 136.726577758651416, -2.35250091584336 ], [ 136.717193604155625, -2.363948106889887 ], [ 136.715118407814373, -2.359251975833204 ], [ 136.709472656153849, -2.356815100675644 ], [ 136.699707031174313, -2.35827803623549 ], [ 136.675750732227925, -2.354541063210164 ], [ 136.665206909294142, -2.348752022087968 ], [ 136.642074584652249, -2.324727057630745 ], [ 136.642135620684257, -2.311992883773475 ], [ 136.637405396028612, -2.301172018294818 ], [ 136.626800537062934, -2.307754993686662 ], [ 136.626129149694322, -2.31868600758466 ], [ 136.624130249066752, -2.319642067069609 ], [ 136.608581542477594, -2.31380510297999 ], [ 136.59829711886195, -2.306068897595935 ], [ 136.585266113333034, -2.301021099154938 ], [ 136.580688476511654, -2.302514075768918 ], [ 136.579238892087062, -2.308238983128931 ], [ 136.577514648662714, -2.308835029743181 ], [ 136.571243285983797, -2.300647973239196 ], [ 136.573837280062889, -2.295192003237594 ], [ 136.573547363177966, -2.291771888985977 ], [ 136.558975219625779, -2.278506993660466 ], [ 136.555267334357296, -2.282258986885644 ], [ 136.550979613522429, -2.28229999476278 ], [ 136.551528930623732, -2.290302991771574 ], [ 136.546813965649847, -2.290493010496225 ], [ 136.541366577275397, -2.294553041389307 ], [ 136.537948607993599, -2.293441057161504 ], [ 136.533111571854079, -2.280879974037823 ], [ 136.526824951289967, -2.275484084647426 ], [ 136.526840210073402, -2.270900011287542 ], [ 136.530563354125206, -2.264857053476326 ], [ 136.528564452599426, -2.260859012625923 ], [ 136.519714354624853, -2.259767056049217 ], [ 136.51771545399734, -2.255191087818923 ], [ 136.510421752829586, -2.250497102861536 ], [ 136.50929260285676, -2.246773004554911 ], [ 136.501296996753524, -2.239922046602261 ], [ 136.500152587997292, -2.234760999845448 ], [ 136.493865966534912, -2.227320909180743 ], [ 136.485870360431676, -2.225336075326114 ], [ 136.477294921456888, -2.231388092327578 ], [ 136.474151611174847, -2.230247021181067 ], [ 136.46986389213663, -2.225661992320498 ], [ 136.445388794554134, -2.227200984925433 ], [ 136.462997436904431, -2.252674102172775 ], [ 136.479568481084186, -2.267848015393593 ], [ 136.496780395964038, -2.304662943238536 ], [ 136.509170531691126, -2.349948883626134 ], [ 136.514114380212845, -2.360672950924444 ], [ 136.521453857730904, -2.37552308998569 ], [ 136.528839110700915, -2.381453991292535 ], [ 136.536834716804208, -2.379327059030245 ], [ 136.538253783661872, -2.381598949289419 ], [ 136.536224365467518, -2.386791945069089 ], [ 136.541275024574873, -2.399302959465632 ], [ 136.548980712894974, -2.398860930559271 ], [ 136.548080444673388, -2.40487408605076 ], [ 136.550613403618769, -2.411075115355592 ], [ 136.548309326424658, -2.414257049872717 ], [ 136.55265808059653, -2.422741890315714 ], [ 136.553146362564178, -2.431586027552955 ], [ 136.55729675255165, -2.439454079113605 ], [ 136.56236267044244, -2.438648939527747 ], [ 136.559646605197713, -2.442333936570891 ], [ 136.555725097859749, -2.443192958874683 ], [ 136.550720215102729, -2.448406935107307 ], [ 136.550476073669756, -2.454516888139178 ], [ 136.557632445786794, -2.459513902867742 ], [ 136.557632445786794, -2.461330891608906 ], [ 136.555938720827612, -2.466783999615451 ], [ 136.546783447184737, -2.473789929736418 ], [ 136.523254395072343, -2.479712963344981 ], [ 136.495346069424613, -2.478843926319252 ], [ 136.490081787349425, -2.482412100498931 ], [ 136.486389159966109, -2.482125043961249 ], [ 136.476074218783566, -2.476828097898987 ], [ 136.475433349880092, -2.474159002303924 ], [ 136.478057861525969, -2.464390039136679 ], [ 136.472549438017836, -2.453020096503177 ], [ 136.4731750490362, -2.451006889141996 ], [ 136.476074218783566, -2.449848889620835 ], [ 136.480621338038162, -2.434627055947626 ], [ 136.472885131252951, -2.432162046162355 ], [ 136.468246460196184, -2.427726029949711 ], [ 136.464080811425276, -2.419698953992241 ], [ 136.459823608157279, -2.405463934277876 ], [ 136.45472717359803, -2.403170108546536 ], [ 136.449081421039097, -2.389996052253054 ], [ 136.438583374455618, -2.384232043584714 ], [ 136.437469482367874, -2.377353907462945 ], [ 136.429946898550526, -2.374032974336522 ], [ 136.419708252183398, -2.373702048828689 ], [ 136.410888671775695, -2.383645057441329 ], [ 136.390991211014608, -2.370980024409383 ], [ 136.397674560845843, -2.359735965498607 ], [ 136.403930663842999, -2.359761953263053 ], [ 136.41247558614927, -2.366947888958883 ], [ 136.414749145776597, -2.366672039855023 ], [ 136.41702270450557, -2.362673997938422 ], [ 136.416168212634261, -2.357516049984547 ], [ 136.398498535150281, -2.320200920404242 ], [ 136.395217895817495, -2.30799698753079 ], [ 136.397201538559955, -2.289340019030209 ], [ 136.403182982557297, -2.26780605294429 ], [ 136.399169922518894, -2.257461070657318 ], [ 136.394592284799103, -2.253720998146391 ], [ 136.391174316415658, -2.251704930508759 ], [ 136.386734008644936, -2.253565073391961 ], [ 136.381790161021456, -2.258816003925657 ], [ 136.377502441084971, -2.247637032702509 ], [ 136.369820091772624, -2.243769660123081 ], [ 136.38882446287127, -2.226511955259621 ], [ 136.393615722660485, -2.21895194110168 ], [ 136.408126831079102, -2.211571931887846 ], [ 136.418502808293539, -2.220395087926827 ], [ 136.410598754890799, -2.225310086915889 ], [ 136.410385131922965, -2.227395058450663 ], [ 136.422897338815716, -2.249677895617948 ], [ 136.42408752392214, -2.251270056084981 ], [ 136.426437378364852, -2.25039410607214 ], [ 136.429626464997142, -2.246401071917652 ], [ 136.43838501027119, -2.243526936004215 ], [ 136.437561035068427, -2.236082077571965 ], [ 136.430938720370904, -2.222228049593391 ], [ 136.437591552635268, -2.224354982002891 ], [ 136.444107055848832, -2.220674037863659 ], [ 136.444992064388686, -2.218004942274842 ], [ 136.442839735073136, -2.208978184511239 ], [ 136.457824707529795, -2.213746071501635 ], [ 136.502087096042743, -2.201250447949748 ], [ 136.510327797090241, -2.19117310105768 ], [ 136.521703552808873, -2.202159295112283 ], [ 136.522491455003205, -2.204683065044833 ], [ 136.523551322012793, -2.203943787636959 ], [ 136.526489258054823, -2.206781114340896 ], [ 136.526123047252838, -2.211875916140761 ], [ 136.530854379196057, -2.21099675232711 ], [ 136.53242492685402, -2.212513516731109 ], [ 136.535705565933085, -2.217885971456559 ], [ 136.535369872697942, -2.221816063431145 ], [ 136.538528441763361, -2.220026015676995 ], [ 136.544222419429218, -2.223907005304065 ], [ 136.557601929118277, -2.209575890416678 ] ], [ [ 136.485153197611055, -2.372745990400384 ], [ 136.498031616204145, -2.369577885030127 ], [ 136.498809814158363, -2.362737893739582 ], [ 136.497238158568166, -2.354665995043228 ], [ 136.485946654348766, -2.354762076699375 ], [ 136.483184813652116, -2.362319946089108 ], [ 136.474044799690944, -2.363713980743672 ], [ 136.470855713058683, -2.355015992782551 ], [ 136.475402832313279, -2.355103015376754 ], [ 136.4762878417514, -2.352838038657308 ], [ 136.475494385013803, -2.333844899991881 ], [ 136.424957275475151, -2.333869934120552 ], [ 136.423370361101576, -2.356451035101371 ], [ 136.43992614739625, -2.364202023090769 ], [ 136.451583862417635, -2.362334967516845 ], [ 136.459442138571887, -2.372668981926154 ], [ 136.485153197611055, -2.372745990400384 ] ] ] ] } },
{ "type": "Feature", "properties": { "company": "GAHARU PRIMA LESTARI", "name": "GAHARU PRIMA LESTARI", "area_ha": 29502, "type": " ", "concession_type": "palm_oil" }, "geometry": { "type": "Polygon", "coordinates": [ [ [ 138.983396410171679, -1.990340894041211 ], [ 139.031804340010382, -2.001869382701274 ], [ 139.07338542043945, -2.028602626204254 ], [ 139.092444902160821, -2.046841194902612 ], [ 139.106043522574993, -2.053301431156068 ], [ 139.112396683148745, -2.058369683026166 ], [ 139.122675954027983, -2.07325321043486 ], [ 139.15847494458751, -2.09502527889258 ], [ 139.175999674408814, -2.102699040402199 ], [ 139.219650886477552, -2.105947004483463 ], [ 139.234284570016627, -2.112621393084527 ], [ 139.241066033843168, -2.11294262051842 ], [ 139.243136164584513, -2.120366538267499 ], [ 139.251773607975139, -2.123221891093801 ], [ 139.261303349734106, -2.131395339387043 ], [ 139.267977737971933, -2.134678995663731 ], [ 139.268513115915027, -2.132144869538841 ], [ 139.27079739963014, -2.131431031692031 ], [ 139.300957065975012, -2.143494899796545 ], [ 139.315983361802267, -2.14395889424405 ], [ 139.328297073356595, -2.147528084225543 ], [ 139.332330259250597, -2.149419756240053 ], [ 139.334900076970399, -2.156272603554483 ], [ 139.33729143447755, -2.158021507860086 ], [ 139.344037206441214, -2.159520567733683 ], [ 139.350211907700611, -2.16391067371725 ], [ 139.354173710767213, -2.162554380904758 ], [ 139.352210655614527, -2.167765400646455 ], [ 139.355886922879847, -2.170834904853413 ], [ 139.351710968636041, -2.173369030388425 ], [ 139.347856242056309, -2.178829894313472 ], [ 139.34821316068502, -2.180400337424049 ], [ 139.352103580025869, -2.181185560608978 ], [ 139.352817418181587, -2.183434150864556 ], [ 139.349283919266014, -2.187538720477122 ], [ 139.348070393233598, -2.19242851411319 ], [ 139.343073525245444, -2.197532457821931 ], [ 139.346963943687967, -2.200958880623698 ], [ 139.351675276773193, -2.200280734470407 ], [ 139.354316479117045, -2.20445668838642 ], [ 139.349176842779144, -2.204920683839782 ], [ 139.346963943687967, -2.208061571988289 ], [ 139.348855616013338, -2.215985177568578 ], [ 139.346963943687967, -2.216342095839047 ], [ 139.345643342965218, -2.213558127098934 ], [ 139.343466136635271, -2.212951363860435 ], [ 139.342109844049645, -2.219018990446558 ], [ 139.339468641705764, -2.22151742397371 ], [ 139.341967075699898, -2.225943221260989 ], [ 139.338362193058572, -2.228691499103738 ], [ 139.338112349120166, -2.231225624132596 ], [ 139.340967703539548, -2.233224372332983 ], [ 139.342252611501152, -2.238399698605394 ], [ 139.340717859601142, -2.238435391060198 ], [ 139.338647728859826, -2.234009594545273 ], [ 139.336434828870381, -2.233367139059913 ], [ 139.331866264135016, -2.238221240806539 ], [ 139.333972086739152, -2.239970143353461 ], [ 139.334007778602057, -2.243289491283631 ], [ 139.30581116651166, -2.224444160581096 ], [ 139.275580114644441, -2.207776037221064 ], [ 139.239566974704303, -2.182684620853822 ], [ 139.196772368242819, -2.162482996849942 ], [ 139.186564481089306, -2.144244429425892 ], [ 139.181531920340035, -2.137712809709726 ], [ 139.176106749997416, -2.133643929644885 ], [ 139.149159354904043, -2.116725962843413 ], [ 139.100689735059859, -2.093276375030983 ], [ 139.088286794746693, -2.099950762172656 ], [ 139.085716977026891, -2.106125465341833 ], [ 139.08207640162442, -2.106874995158018 ], [ 139.081790865823137, -2.110301418991392 ], [ 139.074616790606768, -2.09905846491842 ], [ 139.065229818095901, -2.097809248086405 ], [ 139.061014426014452, -2.100081634213136 ], [ 139.059301213901819, -2.096607621663053 ], [ 139.032746429300005, -2.120735354764973 ], [ 139.001432724259132, -2.111407868219572 ], [ 139.010236728778182, -2.077857468092636 ], [ 138.990344436024913, -2.035741008784531 ], [ 138.982730161166529, -2.034598868723603 ], [ 138.982968106918975, -2.03283806784108 ], [ 138.978685077086539, -2.026794236068321 ], [ 138.984253015778847, -2.015515591133405 ], [ 138.982920517768463, -2.007282655783665 ], [ 138.983396410171679, -1.990340894041211 ] ] ] } },
{ "type": "Feature", "properties": { "company": "PT. KODECO MAMBERAMO", "name": "PT. KODECO MAMBERAMO 1", "area_ha": 444, "type": " ", "concession_type": "palm_oil" }, "geometry": { "type": "Polygon", "coordinates": [ [ [ 136.757308960129478, -1.825485228365389 ], [ 136.750141225222336, -1.824201316827135 ], [ 136.750264393230964, -1.814640893226725 ], [ 136.759483437377583, -1.813483869284227 ], [ 136.779142615517912, -1.804912298397806 ], [ 136.786177830954301, -1.813119620536988 ], [ 136.78332519573533, -1.815635203674573 ], [ 136.779479979619481, -1.814935206992635 ], [ 136.778198241812561, -1.81709516004395 ], [ 136.773178101170345, -1.817395209859518 ], [ 136.768814087316713, -1.820885180915016 ], [ 136.765121459933425, -1.821165204196638 ], [ 136.762725830038733, -1.824415326239751 ], [ 136.757308960129478, -1.825485228365389 ] ] ] } },
{ "type": "Feature", "properties": { "company": "PT. KODECO MAMBERAMO", "name": "PT. KODECO MAMBERAMO 2", "area_ha": 118, "type": " ", "concession_type": "palm_oil" }, "geometry": { "type": "Polygon", "coordinates": [ [ [ 136.798799040321967, -1.812795222587962 ], [ 136.792221069161798, -1.811985134754734 ], [ 136.788879394695357, -1.814235210039752 ], [ 136.786162105046941, -1.81313401332145 ], [ 136.780317183413189, -1.8063444716708 ], [ 136.794322756820776, -1.806258989163284 ], [ 136.799157897515016, -1.810343039274542 ], [ 136.798799040321967, -1.812795222587962 ] ] ] } },
{ "type": "Feature", "properties": { "company": "PT. IRMASULINDO", "name": "PT. IRMASULINDO 3", "area_ha": 21257, "type": " ", "concession_type": "palm_oil" }, "geometry": { "type": "Polygon", "coordinates": [ [ [ 131.204038817634739, -1.507093783521353 ], [ 131.200785752089644, -1.491988828958482 ], [ 131.191109211240189, -1.484161294623711 ], [ 131.180050306898949, -1.46881319134685 ], [ 131.171448936256866, -1.459911291475003 ], [ 131.123680619476886, -1.448093249914695 ], [ 131.08098096404251, -1.446251478253961 ], [ 131.05953586504873, -1.440536115613399 ], [ 131.042179530715657, -1.440536114715375 ], [ 131.032042204431093, -1.443759216188106 ], [ 131.0194473408541, -1.443605735654033 ], [ 131.008849224642915, -1.429945923160346 ], [ 130.989496142944034, -1.429025036029425 ], [ 130.987345799834344, -1.426722820179371 ], [ 130.986270629627001, -1.416286110196739 ], [ 130.986890443816804, -1.398230311853756 ], [ 130.989655172597082, -1.389942335292614 ], [ 130.994567871138059, -1.387417435811083 ], [ 131.000137328881522, -1.381827234687571 ], [ 131.005014758666107, -1.3666132157631 ], [ 131.011158595609004, -1.358785684488047 ], [ 131.110590904552595, -1.386082838671323 ], [ 131.143922732371379, -1.388097845653076 ], [ 131.152812220572912, -1.343785474905321 ], [ 131.173676781517656, -1.34584079478561 ], [ 131.202593872110356, -1.354901467763218 ], [ 131.204038817634739, -1.507093783521353 ] ] ] } },
{ "type": "Feature", "properties": { "company": "PT. ADI JAYA MULIA", "name": "PT. ADI JAYA MULIA 1", "area_ha": 457, "type": " ", "concession_type": "palm_oil" }, "geometry": { "type": "Polygon", "coordinates": [ [ [ 133.992693143915233, -1.101415089339661 ], [ 133.991163569006204, -1.094127810408123 ], [ 133.988819444018418, -1.094233790486718 ], [ 133.988380427457599, -1.092191661006342 ], [ 133.984552811134819, -1.090122120314462 ], [ 133.983702267359206, -1.091328224179036 ], [ 133.982289220112222, -1.089793182649718 ], [ 133.980029955376011, -1.090236039305728 ], [ 133.979947629271805, -1.088015735951114 ], [ 133.977011768734997, -1.086206604031728 ], [ 133.976738943196665, -1.083180418583757 ], [ 133.980113822090971, -1.078356050108338 ], [ 133.982610666066961, -1.080411884913738 ], [ 134.00799560521699, -1.082937002467417 ], [ 134.004276811706092, -1.088101004830073 ], [ 134.004057328129335, -1.092185263469068 ], [ 133.99843069082138, -1.094498978677001 ], [ 134.000227872056911, -1.097390863080705 ], [ 133.997659441335884, -1.102045553263952 ], [ 133.992693143915233, -1.101415089339661 ] ] ] } },
{ "type": "Feature", "properties": { "company": "PT. HENRISON INTI PERSADA", "name": "PT. HENRISON INTI PERSADA", "area_ha": 19646, "type": " ", "concession_type": "palm_oil" }, "geometry": { "type": "Polygon", "coordinates": [ [ [ 133.730919568664916, -0.996772166260403 ], [ 133.724498630202902, -0.997228133262195 ], [ 133.717993826822664, -0.98935276538136 ], [ 133.715128783174634, -0.992457667324999 ], [ 133.707134347576186, -0.988907258412987 ], [ 133.700566417784302, -0.98998723524726 ], [ 133.697593278959801, -0.987692297976179 ], [ 133.692917380819324, -0.988826277471136 ], [ 133.684469723600472, -0.985138049350989 ], [ 133.683280520352582, -0.982141153403974 ], [ 133.678766765425991, -0.981601175434763 ], [ 133.678388325858009, -0.983383112551467 ], [ 133.670441975280085, -0.984328084438846 ], [ 133.668333754174085, -0.97690332148344 ], [ 133.672171812513682, -0.974203415773539 ], [ 133.671305389218787, -0.970489266962519 ], [ 133.673440633445182, -0.967951344169291 ], [ 133.671681088026787, -0.961452630974691 ], [ 133.672735172079456, -0.959913681105204 ], [ 133.667653865149617, -0.956295803573041 ], [ 133.66602637477294, -0.952143361053239 ], [ 133.66232343562848, -0.94876847135695 ], [ 133.653539191350745, -0.942828680424693 ], [ 133.651231971849739, -0.943482841993477 ], [ 133.647258797009926, -0.939459970230932 ], [ 133.649042626585413, -0.93667906005773 ], [ 133.643196061932969, -0.928584797228923 ], [ 133.646277295933857, -0.923157981930416 ], [ 133.618554305305707, -0.919662344525259 ], [ 133.61412161974016, -0.9223622523572 ], [ 133.609445722497981, -0.921714269167152 ], [ 133.609596043882675, -0.914433074025417 ], [ 133.604985261023927, -0.912186369334406 ], [ 133.601407930610634, -0.914251375168762 ], [ 133.595503880068208, -0.914139042566673 ], [ 133.58825031293236, -0.908578422583782 ], [ 133.571437839333498, -0.914756896086062 ], [ 133.565140200034193, -0.912060836699001 ], [ 133.544923660379141, -0.912780323849683 ], [ 133.539694340734854, -0.90502914286485 ], [ 133.534127683938436, -0.90373729197464 ], [ 133.526030687683971, -0.898738337643364 ], [ 133.518945816971979, -0.897109463585629 ], [ 133.514728675870629, -0.89834514848341 ], [ 133.511579856221005, -0.89637927660035 ], [ 133.496415073414596, -0.893542222942997 ], [ 133.488318078058398, -0.887532272882147 ], [ 133.485225455216323, -0.887307582673784 ], [ 133.48447271461896, -0.889393386219424 ], [ 133.480350076285561, -0.891142720397386 ], [ 133.472141278405729, -0.890049397973251 ], [ 133.468316491776136, -0.887207056179964 ], [ 133.464721163616218, -0.880836664280658 ], [ 133.460089159855471, -0.877865999873636 ], [ 133.454998720652412, -0.879182784256625 ], [ 133.451771729606747, -0.876140566207955 ], [ 133.446135875583963, -0.876095170661173 ], [ 133.444363273152959, -0.877729791737396 ], [ 133.448999253755431, -0.883496345895197 ], [ 133.448181130178398, -0.885085548528003 ], [ 133.44109083364205, -0.882996882660409 ], [ 133.436182198181172, -0.885357987610759 ], [ 133.429864573163371, -0.88408662241872 ], [ 133.426388782919986, -0.886636759885976 ], [ 133.422889085811931, -0.880779391771436 ], [ 133.419616644504458, -0.882777242804559 ], [ 133.414844364320516, -0.880824787261324 ], [ 133.404617979956981, -0.88064318463973 ], [ 133.40307268902211, -0.87978046630222 ], [ 133.40425436977776, -0.876919874904719 ], [ 133.402098441841929, -0.869076869716744 ], [ 133.393417400515631, -0.867805504386375 ], [ 133.388281456253537, -0.862901666535784 ], [ 133.380777637344153, -0.846751418542181 ], [ 133.380050416985654, -0.838669154890281 ], [ 133.376091316949726, -0.830913477533654 ], [ 133.375864061149116, -0.82723558761209 ], [ 133.387908443408236, -0.820697130389315 ], [ 133.392317114311254, -0.815566269991943 ], [ 133.397012835575111, -0.816268495384586 ], [ 133.402194178895058, -0.813453322572291 ], [ 133.404830301265946, -0.8092305735961 ], [ 133.411057023963508, -0.806188379061055 ], [ 133.42316469433095, -0.821069112415309 ], [ 133.423028340850664, -0.830785973289476 ], [ 133.425482712479976, -0.837960125857779 ], [ 133.430121969238343, -0.844254418870591 ], [ 133.431985633889752, -0.853199400871833 ], [ 133.43789484166021, -0.859147582641203 ], [ 133.44559293023292, -0.857694540204237 ], [ 133.448138419778275, -0.848749535392757 ], [ 133.45182029702255, -0.847296541125178 ], [ 133.450865766066272, -0.845117063522932 ], [ 133.453593060251961, -0.837897492133336 ], [ 133.458066145750792, -0.834669485815301 ], [ 133.467248117323891, -0.84229770666832 ], [ 133.481202959274128, -0.848836164801867 ], [ 133.492245211544969, -0.857105154170837 ], [ 133.495591793507828, -0.862248083288975 ], [ 133.514576956707316, -0.858776608443169 ], [ 133.515091802756274, -0.861412343081925 ], [ 133.517344276228897, -0.86282664954756 ], [ 133.534141384144817, -0.868612464471252 ], [ 133.55710369902593, -0.874310709366251 ], [ 133.594849832879589, -0.880686966947564 ], [ 133.593369657226305, -0.892194276798986 ], [ 133.624488118830101, -0.901839488000267 ], [ 133.626764553066295, -0.899500574791766 ], [ 133.626338996861705, -0.896289785705504 ], [ 133.63024141679648, -0.894275704214186 ], [ 133.631152000372424, -0.888883224335851 ], [ 133.633558503475285, -0.887129032478697 ], [ 133.64311945001225, -0.896744574003795 ], [ 133.660496035066814, -0.909584610260142 ], [ 133.661796877344926, -0.92517737541174 ], [ 133.71165014527179, -0.968537220782689 ], [ 133.719975365710724, -0.965288704306682 ], [ 133.725170676036669, -0.966249112133998 ], [ 133.736223028066206, -0.960728935023925 ], [ 133.789864997297741, -1.007443754560255 ], [ 133.793244548329824, -1.007125684226603 ], [ 133.797174957972203, -1.01059530589996 ], [ 133.796626533796342, -1.014475790214788 ], [ 133.802522150056518, -1.024154157159337 ], [ 133.809718178301836, -1.024699229721254 ], [ 133.813785694212754, -1.027849262459912 ], [ 133.823520333603227, -1.027027516064385 ], [ 133.819681310472959, -1.029401460097257 ], [ 133.820321173263295, -1.032003652407189 ], [ 133.826902319968042, -1.033647169364733 ], [ 133.828684698764221, -1.032323220225651 ], [ 133.831381154684578, -1.036249362689224 ], [ 133.827679236924666, -1.036112409075368 ], [ 133.82855135374183, -1.050837073294738 ], [ 133.821787435809398, -1.05129359306028 ], [ 133.813103978014993, -1.059921964905029 ], [ 133.810224696968049, -1.057456725949586 ], [ 133.803597885304214, -1.057182795419781 ], [ 133.79808559634543, -1.044084168158537 ], [ 133.792921231184323, -1.044312415518186 ], [ 133.790087722894356, -1.042075425237169 ], [ 133.784771263074163, -1.041499863789109 ], [ 133.778144397511426, -1.035884593141702 ], [ 133.771426144538253, -1.036432407600932 ], [ 133.770420681800289, -1.03346498922919 ], [ 133.761782945558878, -1.027484469494895 ], [ 133.764968081400525, -1.014212629573295 ], [ 133.762088855150779, -1.010514759311831 ], [ 133.764739589518143, -1.007821248208564 ], [ 133.760481886786806, -1.003409467820264 ], [ 133.755363188381494, -1.005966026772577 ], [ 133.754220620273315, -1.003911647821556 ], [ 133.749513292776015, -1.011033480813358 ], [ 133.744988738302965, -1.009070421711883 ], [ 133.746588345871544, -1.009070421711883 ], [ 133.747182488905565, -1.006468205482615 ], [ 133.7441661006917, -1.006148637793079 ], [ 133.737584954885364, -0.999620303416914 ], [ 133.730919568664916, -0.996772166260403 ] ] ] } },
{ "type": "Feature", "properties": { "company": "PT. IRMASULINDO", "name": "PT. IRMASULINDO 4", "area_ha": 1, "type": " ", "concession_type": "palm_oil" }, "geometry": { "type": "Polygon", "coordinates": [ [ [ 131.210436633743711, -0.367280183633506 ], [ 131.210113525623257, -0.36730340074989 ], [ 131.209999872491636, -0.367209133905943 ], [ 131.210436633743711, -0.367280183633506 ] ] ] } },
{ "type": "Feature", "properties": { "company": "PT. PERKEBUNAN II PRAFI", "name": "PT. PERKEBUNAN II PRAFI", "area_ha": 1, "type": " ", "concession_type": "palm_oil" }, "geometry": { "type": "Polygon", "coordinates": [ [ [ 131.104816748932848, -0.323248148013611 ], [ 131.103956214589545, -0.323444242450514 ], [ 131.104739730160134, -0.322946862348328 ], [ 131.104816748932848, -0.323248148013611 ] ] ] } },
{ "type": "Feature", "properties": { "company": "PT. NUSA IRIAN JAYA INDAH", "name": "PT. NUSA IRIAN JAYA INDAH", "area_ha": 3, "type": " ", "concession_type": "palm_oil" }, "geometry": { "type": "Polygon", "coordinates": [ [ [ 131.097925718266282, -0.319006539408823 ], [ 131.098812903692675, -0.321320780129858 ], [ 131.097518921473693, -0.321074724458504 ], [ 131.097925718266282, -0.319006539408823 ] ] ] } },
{ "type": "Feature", "properties": { "company": "PT. IRMASULINDO BLOK 2", "name": "PT. IRMASULINDO BLOK 2", "area_ha": 2, "type": " ", "concession_type": "palm_oil" }, "geometry": { "type": "Polygon", "coordinates": [ [ [ 131.094167945227753, -0.320669265982258 ], [ 131.094565438941771, -0.319773726880635 ], [ 131.09542217269518, -0.320238124989475 ], [ 131.094167945227753, -0.320669265982258 ] ] ] } },
{ "type": "Feature", "properties": { "company": "PT. IRMASULINDO BLOK 1", "name": "PT. IRMASULINDO BLOK 1", "area_ha": 1, "type": " ", "concession_type": "palm_oil" }, "geometry": { "type": "Polygon", "coordinates": [ [ [ 131.092068831748719, -0.314448588608817 ], [ 131.091949462831906, -0.313823461414284 ], [ 131.092939299209348, -0.314217913026221 ], [ 131.092068831748719, -0.314448588608817 ] ] ] } },
{ "type": "Feature", "properties": { "company": "PT. IRMASULINDO", "name": "PT. IRMASULINDO 6", "area_ha": 1, "type": " ", "concession_type": "palm_oil" }, "geometry": { "type": "Polygon", "coordinates": [ [ [ 131.091323852711838, -0.313109338400621 ], [ 131.090606688992978, -0.311789334023767 ], [ 131.091461181762611, -0.312199354074791 ], [ 131.091323852711838, -0.313109338400621 ] ] ] } },
{ "type": "Feature", "properties": { "company": "PT. VARITA MAJUTAMA (BLOK A)", "name": "PT. VARITA MAJUTAMA (BLOK A)", "area_ha": 29986, "type": " ", "concession_type": "palm_oil" }, "geometry": { "type": "MultiPolygon", "coordinates": [ [ [ [ 131.092636108085628, -0.312385708608942 ], [ 131.091445922979176, -0.310905694986601 ], [ 131.08869934106599, -0.313525677055171 ], [ 131.078598021952956, -0.308797001659608 ], [ 131.064605713068858, -0.305027306196629 ], [ 131.043899535888471, -0.304590790434466 ], [ 131.033004760936109, -0.302523612722265 ], [ 131.026702880690323, -0.298887490940352 ], [ 131.021102904481694, -0.292259902392059 ], [ 131.019195557452974, -0.285727589457778 ], [ 131.020797728813392, -0.279460191821604 ], [ 131.022994995421925, -0.277637689751439 ], [ 131.027999878179003, -0.276995509643198 ], [ 131.053100585881566, -0.279607504791832 ], [ 131.073104858126527, -0.274617612195285 ], [ 131.084503173829887, -0.27369388875656 ], [ 131.128601074072009, -0.291308491943989 ], [ 131.140106201259243, -0.294247090807082 ], [ 131.14759826661151, -0.293110995611655 ], [ 131.16130065950901, -0.282351791747312 ], [ 131.165206908961864, -0.282967000873021 ], [ 131.170501708603837, -0.294433504040049 ], [ 131.177200317218421, -0.301705301095306 ], [ 131.184799194054534, -0.306622892633964 ], [ 131.19749450724666, -0.310495405394649 ], [ 131.205200195566675, -0.309072286376699 ], [ 131.230895996720818, -0.298433095106988 ], [ 131.240493774184444, -0.291553288675365 ], [ 131.24049377328609, -0.286826997759432 ], [ 131.236495972031122, -0.279869287813455 ], [ 131.219497681017401, -0.259468197964929 ], [ 131.213302612255546, -0.248742595039871 ], [ 131.214202880477075, -0.246676594297668 ], [ 131.222793579133594, -0.241285904358475 ], [ 131.232406615380654, -0.242187500350201 ], [ 131.252700806307132, -0.238411396992777 ], [ 131.265792846969703, -0.231797099751576 ], [ 131.270706177026312, -0.22671569875355 ], [ 131.274993896064501, -0.217823892441956 ], [ 131.275497436815613, -0.199210106534683 ], [ 131.267196654145664, -0.190422803094538 ], [ 131.247497558467359, -0.183829694555921 ], [ 131.235702515293468, -0.1853265019361 ], [ 131.219497681017401, -0.20049899787006 ], [ 131.208602905166771, -0.196356296254782 ], [ 131.183807373132566, -0.192248002487966 ], [ 131.17939758292863, -0.189841404965762 ], [ 131.17770385707118, -0.18815240355422 ], [ 131.176498413181292, -0.181684597740298 ], [ 131.177795409771676, -0.16780489707664 ], [ 131.184692383469013, -0.142510995417924 ], [ 131.193920057730537, -0.13009239131111 ], [ 131.200812909388333, -0.126951687670212 ], [ 131.210693359393105, -0.138087600016943 ], [ 131.213333129822416, -0.139112263941006 ], [ 131.227738532175181, -0.132782279756933 ], [ 131.232086181827214, -0.140782237852367 ], [ 131.236984253100445, -0.144872262717029 ], [ 131.25808368791192, -0.135802678550695 ], [ 131.262600820671395, -0.148838527875755 ], [ 131.281369141120905, -0.154501741140753 ], [ 131.286453246901544, -0.160152242501627 ], [ 131.299376951784978, -0.159935475741607 ], [ 131.300262451283004, -0.170311003451816 ], [ 131.307327270699545, -0.175451025123104 ], [ 131.311950683871288, -0.183655195647449 ], [ 131.308609008506494, -0.187160999378045 ], [ 131.308295982673485, -0.192077049616129 ], [ 131.313461303429477, -0.198066264303076 ], [ 131.316244955076257, -0.196632478184224 ], [ 131.318152919221887, -0.197725901828877 ], [ 131.315505981305506, -0.201531008456419 ], [ 131.315025890132802, -0.209554494943914 ], [ 131.306167603159935, -0.211810990385575 ], [ 131.304456540361372, -0.215898343563123 ], [ 131.294812618107926, -0.221686739651267 ], [ 131.294494628456761, -0.231110558015976 ], [ 131.296766323307224, -0.243628084168718 ], [ 131.301315308237008, -0.25234049661018 ], [ 131.311904906622743, -0.265530496779467 ], [ 131.321434263627339, -0.27056407412104 ], [ 131.340347289690015, -0.29131048977136 ], [ 131.333103019770618, -0.296132357134895 ], [ 131.328781127369041, -0.295394987796178 ], [ 131.323104858141619, -0.30139920080851 ], [ 131.315567016439132, -0.29645431016906 ], [ 131.310198138625964, -0.299670282074007 ], [ 131.309127808040927, -0.297992467547002 ], [ 131.304611206353201, -0.305692077015167 ], [ 131.305328369173708, -0.310832112369799 ], [ 131.302139282541447, -0.31226208878776 ], [ 131.301589966338497, -0.319872080565507 ], [ 131.294738769889705, -0.318922101760376 ], [ 131.290222168201979, -0.321012110171208 ], [ 131.288742064414009, -0.32458209948782 ], [ 131.284317017223316, -0.325152098322493 ], [ 131.280347713676065, -0.327863969446623 ], [ 131.286918436520608, -0.335546779964598 ], [ 131.281524658061556, -0.337042093399584 ], [ 131.277755736761151, -0.344522088726722 ], [ 131.245559692075204, -0.339862108301417 ], [ 131.245161238042726, -0.349705767756927 ], [ 131.241592406590371, -0.350591391274266 ], [ 131.240707396253924, -0.352426796318202 ], [ 131.241302490603772, -0.359061389758865 ], [ 131.241897583157026, -0.361027896038822 ], [ 131.248001099218357, -0.36552679492548 ], [ 131.2496948235231, -0.375738118276323 ], [ 131.241359020396146, -0.380775091550458 ], [ 131.230850355263698, -0.37487751654555 ], [ 131.225601196180435, -0.368155658025718 ], [ 131.2158813484495, -0.366065650943036 ], [ 131.212890625103313, -0.363925665712411 ], [ 131.207946777479862, -0.365735649874693 ], [ 131.202545166353985, -0.363595634921772 ], [ 131.200637817528644, -0.36497566095143 ], [ 131.201011430448517, -0.368188254993045 ], [ 131.195999146471848, -0.369545667919394 ], [ 131.201034545897414, -0.357645660883797 ], [ 131.197601317832209, -0.352550714769944 ], [ 131.195114135237077, -0.354505688293959 ], [ 131.192169189139491, -0.354125679448873 ], [ 131.192123413687511, -0.351595670042086 ], [ 131.196121215840833, -0.348128825177934 ], [ 131.193969727379169, -0.346075684220495 ], [ 131.193740844729632, -0.341895670366074 ], [ 131.169937133617424, -0.333995670146485 ], [ 131.171325683806629, -0.33251568661471 ], [ 131.168563843110007, -0.333515673399694 ], [ 131.155166625880838, -0.328805655071622 ], [ 131.131469727150858, -0.327995658383473 ], [ 131.117477417368463, -0.32323569102129 ], [ 131.1024498831095, -0.322275873458965 ], [ 131.101119995258216, -0.314145713708897 ], [ 131.104644775125621, -0.309675693922867 ], [ 131.104019165005582, -0.307375698781561 ], [ 131.101821899295345, -0.30910569423601 ], [ 131.100051880419073, -0.306955695709558 ], [ 131.092636108085628, -0.312385708608942 ] ] ], [ [ [ 131.10257245295648, -0.322879326819431 ], [ 131.102460048606645, -0.322470367948674 ], [ 131.102643836643807, -0.322391537239591 ], [ 131.10257245295648, -0.322879326819431 ] ] ] ] } },
{ "type": "Feature", "properties": { "company": "PT. IRMASULINDO", "name": "PT. IRMASULINDO 1", "area_ha": 7839, "type": " ", "concession_type": "palm_oil" }, "geometry": { "type": "MultiPolygon", "coordinates": [ [ [ [ 130.837936400981761, -0.245197311722997 ], [ 130.831008911514232, -0.239867329706266 ], [ 130.820373534981627, -0.242207318804931 ], [ 130.81747436523429, -0.239587307520357 ], [ 130.812545776394302, -0.240917309996246 ], [ 130.809275005054872, -0.237065187008634 ], [ 130.805518092433232, -0.226538414924081 ], [ 130.798383574530419, -0.220864567683547 ], [ 130.792919229370426, -0.210917029186609 ], [ 130.79684601593101, -0.19254521868684 ], [ 130.785197272835916, -0.177350322859132 ], [ 130.790533389404459, -0.169163750206907 ], [ 130.781583188913118, -0.16885327725698 ], [ 130.77915646706137, -0.161479470791631 ], [ 130.783840168982408, -0.156489153133645 ], [ 130.79399701296316, -0.155916775711167 ], [ 130.796575247897152, -0.164978667177098 ], [ 130.802350036260094, -0.167317229845472 ], [ 130.809947438062522, -0.164166077879354 ], [ 130.810056742371358, -0.156432455277565 ], [ 130.816415450042001, -0.153840326620011 ], [ 130.827001578235752, -0.157469507873116 ], [ 130.830795105290093, -0.161683206456156 ], [ 130.83370570969268, -0.160444639389022 ], [ 130.83344194995226, -0.158437085877018 ], [ 130.835380362520056, -0.156923937003265 ], [ 130.842133702789994, -0.157940987762285 ], [ 130.844560589564963, -0.156438977920519 ], [ 130.849133650368316, -0.156939693394264 ], [ 130.850708114990425, -0.16051089257627 ], [ 130.855111357374142, -0.163013528796345 ], [ 130.853985760238345, -0.170406745471578 ], [ 130.859723555977808, -0.173233456075676 ], [ 130.861226101478252, -0.176607178386722 ], [ 130.865104649582662, -0.176413671412985 ], [ 130.876257281445731, -0.184249967396859 ], [ 130.879951022739959, -0.188118096180141 ], [ 130.878811541243124, -0.192615298179912 ], [ 130.887556742941968, -0.191620105187006 ], [ 130.891139149734869, -0.194945194901044 ], [ 130.890114551983032, -0.199316286759121 ], [ 130.897481994954234, -0.202028394459965 ], [ 130.901615209153448, -0.200356949939914 ], [ 130.901252355355666, -0.203927482138853 ], [ 130.905116738824745, -0.204181138715306 ], [ 130.906492920110736, -0.209403229738073 ], [ 130.910910407079939, -0.207347944672823 ], [ 130.91258255899757, -0.210540732692777 ], [ 130.91514280606637, -0.209603714402918 ], [ 130.914968257118488, -0.211868909765957 ], [ 130.921149694844161, -0.210593096035402 ], [ 130.923974780530074, -0.208246554084378 ], [ 130.923127080820649, -0.211164217668533 ], [ 130.926007984225009, -0.209141303409637 ], [ 130.927222856832088, -0.211725110234401 ], [ 130.93167317273344, -0.211529212363425 ], [ 130.924916906650594, -0.222776349740328 ], [ 130.918501703931753, -0.221029907670445 ], [ 130.916425006505705, -0.224067806482957 ], [ 130.913824641574621, -0.224417926674971 ], [ 130.902634435878241, -0.216872288755597 ], [ 130.895525917914625, -0.218290383292302 ], [ 130.896875748020136, -0.214413045014308 ], [ 130.895198499061564, -0.209459609425292 ], [ 130.892299696725161, -0.209091108580809 ], [ 130.891751137801947, -0.2053886212547 ], [ 130.889444777090347, -0.203029316249135 ], [ 130.885276992125767, -0.202238035688146 ], [ 130.883234824142534, -0.200142097592384 ], [ 130.878935468328109, -0.203190186437747 ], [ 130.872732134167308, -0.200692397677233 ], [ 130.870222649996975, -0.202101134189409 ], [ 130.865727810895265, -0.200185340429646 ], [ 130.862806129366902, -0.197600942454688 ], [ 130.863447089000147, -0.195308488563157 ], [ 130.861271570604686, -0.192647564584228 ], [ 130.854669600053398, -0.192733017240699 ], [ 130.854273666693615, -0.19056635308354 ], [ 130.850205010820588, -0.189547634121706 ], [ 130.847648515116418, -0.184198990962952 ], [ 130.842808935846307, -0.184526393748023 ], [ 130.832244104013, -0.176882285235249 ], [ 130.827287798553272, -0.176699556199909 ], [ 130.825030738282749, -0.174307366397479 ], [ 130.823204170459348, -0.176539071140236 ], [ 130.821160935277646, -0.175967932171491 ], [ 130.818756287195839, -0.177568674778775 ], [ 130.819418934855122, -0.182763074581677 ], [ 130.824041705731389, -0.187163552376478 ], [ 130.827448154119679, -0.194163432447144 ], [ 130.834689125976979, -0.198690979549812 ], [ 130.836613506860033, -0.201807057236621 ], [ 130.837016404858247, -0.208273861790301 ], [ 130.841214474726058, -0.211944708192918 ], [ 130.84141795571432, -0.213985150790282 ], [ 130.850102472622495, -0.220465824655865 ], [ 130.856377777108889, -0.230763131113749 ], [ 130.853147970154396, -0.236886558000092 ], [ 130.837936400981761, -0.245197311722997 ] ] ], [ [ [ 130.777246395404802, -0.162477523718701 ], [ 130.776661471933892, -0.16208669752851 ], [ 130.776975471387118, -0.161889998223599 ], [ 130.777246395404802, -0.162477523718701 ] ] ] ] } }
]
}
