{
"type": "FeatureCollection",
"name": "papua_wood_fiber",
"crs": { "type": "name", "properties": { "name": "urn:ogc:def:crs:OGC:1.3:CRS84" } },
"features": [
{ "type": "Feature", "properties": { "name": "PT. SELARAS INTI SEMESTA", "area_ha": 10970, "type": "HT", "concession_type": "wood_fiber" }, "geometry": { "type": "Polygon", "coordinates": [ [ [ 140.606634139812115, -8.12397384732861 ], [ 140.627199173695061, -8.106565476327347 ], [ 140.627721785679597, -8.153482436813619 ], [ 140.52831459003815, -8.140760422020517 ], [ 140.537538529104722, -8.087551117804759 ], [ 140.550256728675294, -8.076807021764067 ], [ 140.556402206840147, -8.017494202347855 ], [ 140.617296218766541, -8.017820358130599 ], [ 140.61478996314122, -8.05289268609182 ], [ 140.591051102307745, -8.111619948692079 ], [ 140.606634139812115, -8.12397384732861 ] ] ] } },
{ "type": "Feature", "properties": { "name": "PT. SELARAS INTI SEMESTA", "area_ha": 48251, "type": "HT", "concession_type": "wood_fiber" }, "geometry": { "type": "Polygon", "coordinates": [ [ [ 140.421125412159483, -8.005731582129698 ], [ 140.425546646001777, -8.082323073742439 ], [ 140.46429633996155, -8.089933395674967 ], [ 140.457700728584172, -8.137193680284792 ], [ 140.333620072074041, -8.107973098978562 ], [ 140.325162888221598, -8.161550521880677 ], [ 140.253908156965878, -8.161211013389734 ], [ 140.283391951552176, -8.080400466960894 ], [ 140.308450698049512, -8.068973541934627 ], [ 140.309968948796012, -8.063018798707006 ], [ 140.307767868839136, -8.055179594929831 ], [ 140.301080703862908, -8.04955482517401 ], [ 140.286935806246362, -8.042772293123434 ], [ 140.228822708046778, -8.023069381744468 ], [ 140.210905074883044, -8.02372360191216 ], [ 140.181093215555023, -8.0168457034393 ], [ 140.179616927810343, -8.013851165056472 ], [ 140.188833236586902, -7.944320677656942 ], [ 140.199300765603596, -7.938055038938878 ], [ 140.207513808921362, -7.937723159190801 ], [ 140.218328475709939, -7.940382002934302 ], [ 140.230619430243109, -7.948251723799421 ], [ 140.241437912176707, -7.950164794935485 ], [ 140.251531600999641, -7.944639205784877 ], [ 140.27187919587152, -7.929483414139726 ], [ 140.386678696021306, -7.926712036007942 ], [ 140.38853645335135, -7.929323196674342 ], [ 140.421369552694102, -7.932836532718503 ], [ 140.421125412159483, -8.005731582129698 ] ] ] } },
{ "type": "Feature", "properties": { "name": "NoName", "area_ha": 65649, "type": "HT", "concession_type": "wood_fiber" }, "geometry": { "type": "Polygon", "coordinates": [ [ [ 140.022880540717097, -7.947182651404777 ], [ 140.04201632264369, -7.947182651404777 ], [ 140.043610972410221, -7.961534488240522 ], [ 140.035637728967629, -7.964723785573457 ], [ 140.034043080997691, -8.026915080785503 ], [ 140.024475189585218, -8.0348883232851 ], [ 140.008528702700062, -8.036482972386038 ], [ 139.987798271905319, -8.057213403934902 ], [ 139.975041082756491, -8.060402699839653 ], [ 139.968662489080344, -8.054024106914502 ], [ 139.896903301690315, -8.049240160092742 ], [ 139.890524708014283, -8.04286156659934 ], [ 139.855442440100802, -8.034888324174613 ], [ 139.818765522420819, -8.030104376645472 ], [ 139.761358172149414, -8.02850972917696 ], [ 139.74860098389891, -8.034888324174613 ], [ 139.667273905994762, -8.03807762055763 ], [ 139.654516717744258, -8.049240160092742 ], [ 139.622623745770511, -8.052429458322656 ], [ 139.525350181879475, -8.047645512236102 ], [ 139.525350181879475, -8.038077619668144 ], [ 139.512592992730617, -8.038077619668144 ], [ 139.512592992730617, -7.998211406374903 ], [ 139.769331415592063, -7.995022108801569 ], [ 139.774115362196596, -7.881802060202118 ], [ 140.024475188686978, -7.8818020593123 ], [ 140.022880540717097, -7.947182651404777 ] ] ] } },
{ "type": "Feature", "properties": { "name": "PT. SELARAS INTI SEMESTA", "area_ha": 2067, "type": "HT", "concession_type": "wood_fiber" }, "geometry": { "type": "Polygon", "coordinates": [ [ [ 140.487596512119353, -7.841779707923008 ], [ 140.46535301116225, -7.833770751921464 ], [ 140.455018996949633, -7.876600265383673 ], [ 140.450109481139719, -7.876953125112201 ], [ 140.445970534790661, -7.873546600395172 ], [ 140.446176529265074, -7.80994415257419 ], [ 140.472654342620132, -7.805175781989738 ], [ 140.470060349439365, -7.811489104600766 ], [ 140.494054794445987, -7.826759337626062 ], [ 140.494424820392993, -7.828639984283429 ], [ 140.487596512119353, -7.841779707923008 ] ] ] } },
{ "type": "Feature", "properties": { "name": "NoName", "area_ha": 67579, "type": "HT", "concession_type": "wood_fiber" }, "geometry": { "type": "Polygon", "coordinates": [ [ [ 138.821312830994117, -7.51439502505458 ], [ 138.843637910657066, -7.536720104589777 ], [ 138.843637910657066, -7.559045184710602 ], [ 138.869152288056426, -7.555855887920206 ], [ 138.901045260030145, -7.589343508179049 ], [ 138.940911473649862, -7.589343509069515 ], [ 138.947290069122573, -7.595722102409157 ], [ 139.033401092732987, -7.597316750865854 ], [ 139.041374336175551, -7.605289994261541 ], [ 139.030211794996575, -7.619641832189412 ], [ 139.015859958776218, -7.633993669111261 ], [ 138.995129527083122, -7.670670586148108 ], [ 138.975993744258233, -7.686617072009895 ], [ 138.972804447420174, -7.77910668958437 ], [ 138.968020500815641, -7.785485283649763 ], [ 138.958452609403224, -7.81897290420226 ], [ 138.948884717990694, -7.825351498892657 ], [ 138.950479366858872, -7.839703336642303 ], [ 138.934532880872069, -7.857244470769114 ], [ 138.918586394885153, -7.873190956991487 ], [ 138.889882719749494, -7.885948145861791 ], [ 138.880314829235402, -7.897110686188161 ], [ 138.873936234660931, -7.916246468836412 ], [ 138.873936233762606, -7.921030414753953 ], [ 138.864368342350161, -7.938571547677713 ], [ 138.86277369438028, -7.989600304153984 ], [ 138.859584396643953, -7.980032412378302 ], [ 138.810150290713494, -7.983221708738572 ], [ 138.80855564184526, -7.976843115150809 ], [ 138.816528885287852, -7.960896628819039 ], [ 138.818123534156058, -7.935382251675827 ], [ 138.810150290713494, -7.922625063204442 ], [ 138.810150290713494, -7.893921388698234 ], [ 138.827691424670235, -7.877974903278583 ], [ 138.845232560423597, -7.871596308113964 ], [ 138.881909477205227, -7.871596308113964 ], [ 138.889882719749494, -7.865217714435123 ], [ 138.904234556868204, -7.860433767753308 ], [ 138.904234557766443, -7.831730092994093 ], [ 138.915397098047123, -7.820567552897804 ], [ 138.937722177710128, -7.814188958931988 ], [ 138.937722176811803, -7.7998371218677 ], [ 138.920181042855035, -7.793458528311807 ], [ 138.909018502574412, -7.77910668958437 ], [ 138.902639908898351, -7.715320745862079 ], [ 138.894666666354027, -7.732861881186687 ], [ 138.872341585792725, -7.756781610159908 ], [ 138.864368342350161, -7.772728096414785 ], [ 138.845232558626947, -7.77910668958437 ], [ 138.826096776700382, -7.763160204291558 ], [ 138.811744938683319, -7.734456529648052 ], [ 138.800582399301021, -7.718510043704971 ], [ 138.776662670769866, -7.699374261061223 ], [ 138.757526887046652, -7.665886639683029 ], [ 138.746364346766029, -7.65153480279642 ], [ 138.746364346766029, -7.637182966392263 ], [ 138.759121535914829, -7.608479290749618 ], [ 138.763905481621066, -7.576586320008531 ], [ 138.778257318739747, -7.555855887920206 ], [ 138.783041264446013, -7.53353080792271 ], [ 138.802177048169227, -7.487285999376584 ], [ 138.821312830994117, -7.51439502505458 ] ] ] } },
{ "type": "Feature", "properties": { "name": "PT. SELARAS INTI SEMESTA", "area_ha": 107359, "type": "HT", "concession_type": "wood_fiber" }, "geometry": { "type": "Polygon", "coordinates": [ [ [ 140.321901321020675, -7.466947556155272 ], [ 140.334825515963956, -7.478427887702208 ], [ 140.334886551097611, -7.481527329237116 ], [ 140.329225539755299, -7.481758117242775 ], [ 140.324296950915283, -7.479917526106753 ], [ 140.321916579804082, -7.486698150833469 ], [ 140.322694778656597, -7.488248825134378 ], [ 140.326906203777696, -7.489318847643183 ], [ 140.333925246844075, -7.489439010820438 ], [ 140.338151930748637, -7.48764800994822 ], [ 140.340349198255495, -7.489074707415647 ], [ 140.344942092962071, -7.501522064161359 ], [ 140.34013557528769, -7.509214400842749 ], [ 140.341661452730932, -7.512357711767959 ], [ 140.346040726266352, -7.512308121110772 ], [ 140.349184035649984, -7.508207320573272 ], [ 140.350435256788415, -7.503267287824394 ], [ 140.355546951029424, -7.502557755204644 ], [ 140.357820510656722, -7.500707626015679 ], [ 140.356523514066396, -7.496517181244873 ], [ 140.348649979128794, -7.495117187273155 ], [ 140.345659255782579, -7.491874694964057 ], [ 140.346635817921197, -7.489679336184905 ], [ 140.350801467590458, -7.489408494421199 ], [ 140.364000319736903, -7.49570846499584 ], [ 140.368043900037065, -7.499757766879541 ], [ 140.367982864005143, -7.503978729670879 ], [ 140.374727248969947, -7.515317916946062 ], [ 140.384717942352381, -7.523834228837624 ], [ 140.403291702304614, -7.535694121971598 ], [ 140.412149428772523, -7.537794113168658 ], [ 140.435216904932389, -7.531129837318284 ], [ 140.447057723558174, -7.524414061836358 ], [ 140.455610275256163, -7.528869628645636 ], [ 140.452341079561791, -7.535329818164377 ], [ 140.444929123271635, -7.542949676324822 ], [ 140.437822340853216, -7.547922133756118 ], [ 140.431318282176392, -7.549364089169425 ], [ 140.429819107154884, -7.555244446295813 ], [ 140.434541703317109, -7.557031631945189 ], [ 140.436006545626725, -7.561452866137751 ], [ 140.424188615176064, -7.561103820565511 ], [ 140.420042037638666, -7.564617157379367 ], [ 140.419141769417053, -7.567852019951522 ], [ 140.427076340386719, -7.583309173184158 ], [ 140.429918290145423, -7.619234085420381 ], [ 140.42866325386197, -7.64071655295671 ], [ 140.439302443742889, -7.640176771880258 ], [ 140.449369430144031, -7.633455277398838 ], [ 140.445310592857055, -7.60929679886955 ], [ 140.494077681722757, -7.600982666073861 ], [ 140.498746872143016, -7.611001967825079 ], [ 140.499902725435931, -7.618068694764567 ], [ 140.497842788776467, -7.617769239852566 ], [ 140.496660233061732, -7.619829177696134 ], [ 140.498388290732748, -7.630723953856229 ], [ 140.495729446375009, -7.635133743781898 ], [ 140.498071671426061, -7.637493133716377 ], [ 140.504838942769396, -7.63721466095576 ], [ 140.506597518905494, -7.63928031821111 ], [ 140.519380569653038, -7.690351486170549 ], [ 140.531049729211219, -7.723945618273856 ], [ 140.538190840748229, -7.757419586613082 ], [ 140.540590285787914, -7.758928299061767 ], [ 140.538911819612139, -7.767333984290902 ], [ 140.531976698956299, -7.773618697594295 ], [ 140.534524917583383, -7.775579452401028 ], [ 140.535116195889913, -7.778285979670292 ], [ 140.528486251800672, -7.784122468182916 ], [ 140.530424118192826, -7.788183211593768 ], [ 140.525911330751796, -7.803678513084295 ], [ 140.518320083307316, -7.802934645673258 ], [ 140.495225907420604, -7.796371460238145 ], [ 140.494073868374414, -7.726932526017634 ], [ 140.409872054898557, -7.725408553806528 ], [ 140.365221024206789, -7.670009612941057 ], [ 140.33261299057196, -7.669059752666498 ], [ 140.32092857402705, -7.663639068072439 ], [ 140.307020186655109, -7.651775360998863 ], [ 140.30383491516784, -7.653158188310822 ], [ 140.296327591032139, -7.6602268223698 ], [ 140.29181480359108, -7.671630859041918 ], [ 140.267957686736992, -7.710155486308675 ], [ 140.262357712324928, -7.709064482711911 ], [ 140.254152298398822, -7.703399658393212 ], [ 140.247682572433831, -7.704893111785582 ], [ 140.248746872127924, -7.720340729394797 ], [ 140.251787185172759, -7.72864341732388 ], [ 140.24280738933578, -7.756971359814658 ], [ 140.244962692044112, -7.767887116412923 ], [ 140.244050980184142, -7.77878761336852 ], [ 140.241403580363169, -7.784881592201711 ], [ 140.231321334280238, -7.789194107152396 ], [ 140.2194614408277, -7.800476075028316 ], [ 140.217252730580782, -7.806571961376965 ], [ 140.222814558932583, -7.848470687588113 ], [ 140.220098496382832, -7.868665694871285 ], [ 140.215253829953241, -7.877799987056004 ], [ 140.196359633752678, -7.898206711440807 ], [ 140.170938491598349, -7.906364440582206 ], [ 140.145502089762346, -7.918886183865004 ], [ 140.135831832628327, -7.931047439389566 ], [ 140.135362624589106, -7.941076278172427 ], [ 140.122602462914983, -7.960201262593306 ], [ 140.118215560886256, -7.962360382388275 ], [ 140.113790511000644, -7.977602005017333 ], [ 140.109369278056704, -7.98217201264385 ], [ 140.103853225156882, -7.992046355627676 ], [ 140.104806900018673, -8.00601386980159 ], [ 140.071416855081253, -7.946422577057235 ], [ 140.023694991981216, -7.945743561051042 ], [ 140.023889541020594, -7.713188172360277 ], [ 140.050848006951554, -7.712928771606387 ], [ 140.065752030390541, -7.694322586084979 ], [ 140.076654433836239, -7.70604896582717 ], [ 140.082120896139173, -7.707241059433293 ], [ 140.094636917278621, -7.702243805133404 ], [ 140.100484848268593, -7.706161498998867 ], [ 140.088346480671248, -7.715053558198908 ], [ 140.087533950903492, -7.724777222036366 ], [ 140.096113205023272, -7.729486465437696 ], [ 140.099615097613878, -7.734563826558636 ], [ 140.116003037290938, -7.741256712812487 ], [ 140.126577376893209, -7.732358933165647 ], [ 140.148836135735365, -7.735967636046902 ], [ 140.175603866873587, -7.698223114091611 ], [ 140.328622817810356, -7.625936508173437 ], [ 140.325639724754211, -7.625194549580117 ], [ 140.324937820717082, -7.621643066347928 ], [ 140.331178664930889, -7.61654281701366 ], [ 140.332963944387188, -7.609363555181974 ], [ 140.338319779162845, -7.604843140216357 ], [ 140.329271317003872, -7.587593078928884 ], [ 140.330873490160855, -7.578132629932242 ], [ 140.333848952926985, -7.572542189685597 ], [ 140.33218574463632, -7.571472167803476 ], [ 140.317262649963851, -7.572072981684881 ], [ 140.306550978615888, -7.573972702140058 ], [ 140.305238724140452, -7.575761795070511 ], [ 140.306184767813875, -7.577543259033473 ], [ 140.311418533220547, -7.58283233587917 ], [ 140.309938431229227, -7.585512161334591 ], [ 140.307146072965764, -7.586341858045038 ], [ 140.295503615829432, -7.574312210081045 ], [ 140.284593582991988, -7.574922560562772 ], [ 140.28280830533231, -7.572483061749574 ], [ 140.282396317281751, -7.56761360082519 ], [ 140.279878616221453, -7.566835402636714 ], [ 140.276765822608013, -7.569896698155666 ], [ 140.280794144124769, -7.577241897864409 ], [ 140.278352736981503, -7.578258513784775 ], [ 140.272111892767782, -7.572187423728579 ], [ 140.272706986219305, -7.567848205980293 ], [ 140.266740800106987, -7.566017151280311 ], [ 140.261751176133288, -7.560848235897295 ], [ 140.268236159983473, -7.560068131399606 ], [ 140.268526077766637, -7.556917191224411 ], [ 140.263231278124664, -7.553348542084435 ], [ 140.258714676436853, -7.554897309426878 ], [ 140.251466750720965, -7.547227860444761 ], [ 140.252656936725771, -7.544378281325937 ], [ 140.259645462225279, -7.545255660818825 ], [ 140.262315750221376, -7.549873352856991 ], [ 140.264925003083874, -7.551208495778458 ], [ 140.268114089716079, -7.549219132442169 ], [ 140.269762039223394, -7.545936584602909 ], [ 140.268205643314928, -7.542337417630232 ], [ 140.26303291304194, -7.540412903215231 ], [ 140.259782791275995, -7.535791396595144 ], [ 140.255662917957011, -7.537036896169345 ], [ 140.254838942754304, -7.540632249374768 ], [ 140.2501392356655, -7.53800392106106 ], [ 140.244798659673279, -7.521888732880686 ], [ 140.248186111388236, -7.519567489343332 ], [ 140.253160475680176, -7.522846222251255 ], [ 140.255601882823356, -7.522037506005567 ], [ 140.256807326713243, -7.519308089795203 ], [ 140.254030228131512, -7.514225005807176 ], [ 140.251451491937559, -7.512928009262402 ], [ 140.247026443848597, -7.516944885418097 ], [ 140.245347976774553, -7.516798019094232 ], [ 140.241380692188045, -7.506202697782144 ], [ 140.243852615101417, -7.502998350650964 ], [ 140.257310866566002, -7.495595931871674 ], [ 140.257631301916035, -7.498613356751614 ], [ 140.251237868969781, -7.504878997883782 ], [ 140.252534867356729, -7.508186340396034 ], [ 140.25639533956101, -7.508193970280185 ], [ 140.263521195009588, -7.500204085675361 ], [ 140.263261794793209, -7.494503021938345 ], [ 140.266817093125724, -7.491037367813448 ], [ 140.269502639905284, -7.489858626902267 ], [ 140.273668289574516, -7.491218566630789 ], [ 140.276933670123867, -7.490388871087542 ], [ 140.277528762677065, -7.480218887246709 ], [ 140.280748366876196, -7.481227875031313 ], [ 140.279848098654668, -7.487527847167848 ], [ 140.285676955716212, -7.487768172695414 ], [ 140.287874222324774, -7.484737397399107 ], [ 140.289247512832191, -7.473848342269978 ], [ 140.291627883943391, -7.472597121660143 ], [ 140.296449661299533, -7.47325897214832 ], [ 140.298402787373362, -7.470817565608272 ], [ 140.295915603879934, -7.464218140334526 ], [ 140.297578811272274, -7.460348130364724 ], [ 140.304185867186419, -7.45808792130289 ], [ 140.309648514344332, -7.453687667899454 ], [ 140.315065384253586, -7.452018737274505 ], [ 140.317796708281747, -7.453868866177348 ], [ 140.323213577292762, -7.462007521820404 ], [ 140.321901321020675, -7.466947556155272 ] ] ] } },
{ "type": "Feature", "properties": { "name": "PT. OKABA RIMBA MAKMUR", "area_ha": 259385, "type": "HT", "concession_type": "wood_fiber" }, "geometry": { "type": "Polygon", "coordinates": [ [ [ 139.762908935621084, -7.473876952804365 ], [ 139.790206909033856, -7.471334934870845 ], [ 139.809005737388958, -7.489327908245012 ], [ 139.81550598092079, -7.516458034959479 ], [ 139.828201293214562, -7.52396822032372 ], [ 139.847610473804593, -7.524857043241241 ], [ 139.869003296238731, -7.520954132159003 ], [ 139.969406127947309, -7.521061897641383 ], [ 140.039901731583996, -7.511400222423916 ], [ 140.057205200062612, -7.513204098069707 ], [ 140.061401367298714, -7.537599086572496 ], [ 140.059997559224399, -7.570666790079501 ], [ 140.052307128789437, -7.645930768086827 ], [ 140.045700072875377, -7.689039229668792 ], [ 139.991897582787431, -7.683753967330591 ], [ 139.990798950381446, -7.681588172746471 ], [ 139.989608765275051, -7.683529854095153 ], [ 139.970001221398832, -7.681603908875645 ], [ 139.940200805709196, -7.685743809951701 ], [ 139.929000854190235, -7.724752903666589 ], [ 139.914398193071179, -7.762625218305193 ], [ 139.877197265628098, -7.806454181871938 ], [ 139.828399658297286, -7.835246087335921 ], [ 139.783401488935311, -7.867681979727896 ], [ 139.746597289861057, -7.886652945913347 ], [ 139.696609497423765, -7.888309956427625 ], [ 139.649703979236477, -7.884716988127136 ], [ 139.628763675940235, -7.872594020187104 ], [ 139.620455627696344, -7.865280658111502 ], [ 139.603500365984758, -7.84440898935065 ], [ 139.577316283761292, -7.790686131357965 ], [ 139.563354492444063, -7.771626948713946 ], [ 139.553680421063348, -7.754011154338384 ], [ 139.547500610186546, -7.736914157830319 ], [ 139.524383545226357, -7.685335158685882 ], [ 139.514953612583696, -7.654489993668496 ], [ 139.496444702011786, -7.639185906291618 ], [ 139.485061645990186, -7.623620032886424 ], [ 139.476425170983447, -7.60687589630253 ], [ 139.464309691561169, -7.576510905882063 ], [ 139.447952271247573, -7.505802155793168 ], [ 139.448211670565712, -7.486269951108794 ], [ 139.453445435074002, -7.464728831798608 ], [ 139.478210448643097, -7.405942917011833 ], [ 139.491119384802971, -7.384284972724983 ], [ 139.50195312462165, -7.369845866984956 ], [ 139.521560669396109, -7.348703860833548 ], [ 139.540145873885081, -7.334781170077134 ], [ 139.554504395367786, -7.32612609927496 ], [ 139.655807495297893, -7.326460839228511 ], [ 139.776504517034653, -7.333613874101959 ], [ 139.756301878808614, -7.363967895617315 ], [ 139.747604369566545, -7.402289867090441 ], [ 139.750305176027837, -7.436036109817221 ], [ 139.750396728728276, -7.469557761623916 ], [ 139.762908935621084, -7.473876952804365 ] ] ] } },
{ "type": "Feature", "properties": { "name": "NoName", "area_ha": 80088, "type": "HT", "concession_type": "wood_fiber" }, "geometry": { "type": "Polygon", "coordinates": [ [ [ 140.078693242120238, -7.406596781184188 ], [ 140.115370158901897, -7.390650294060446 ], [ 140.126532699182548, -7.397028888042788 ], [ 140.128127348050754, -7.411380726050098 ], [ 140.102612969753068, -7.433705806684175 ], [ 140.091450430370742, -7.452841589202112 ], [ 140.085071835796384, -7.479950615428119 ], [ 140.241347397030353, -7.48154526372416 ], [ 140.254104586179125, -7.48632921015377 ], [ 140.247725991604739, -7.508654289752055 ], [ 140.250915289341151, -7.526195423960377 ], [ 140.268456423297835, -7.558088396098453 ], [ 140.282808261314869, -7.575629530238406 ], [ 140.325863771772589, -7.585197422209743 ], [ 140.335431664083359, -7.601143908117215 ], [ 140.324269122904383, -7.625063637312731 ], [ 140.191913291099866, -7.685660282680544 ], [ 140.160020319126147, -7.723931849201803 ], [ 140.116964806871778, -7.736689038404601 ], [ 140.091450430370742, -7.723931849201803 ], [ 140.091450430370742, -7.706390715373913 ], [ 140.070719998677674, -7.695228174156796 ], [ 140.056368160660696, -7.709580011099751 ], [ 140.035637728967629, -7.700012121299512 ], [ 140.035637728967629, -7.71595860610884 ], [ 140.029259135291483, -7.717553254296551 ], [ 140.019691243879038, -7.71595860610884 ], [ 140.016501946142654, -7.392244943399569 ], [ 140.037232377835721, -7.38108240278672 ], [ 140.078693242120238, -7.406596781184188 ] ] ] } },
{ "type": "Feature", "properties": { "name": "PT. EUCALYPTUS TANAMAN LESTARI", "area_ha": 172425, "type": "HT", "concession_type": "wood_fiber" }, "geometry": { "type": "Polygon", "coordinates": [ [ [ 140.979785843112126, -7.722469286876638 ], [ 140.979767309071178, -7.723940488253065 ], [ 140.950436638613269, -7.668654740853767 ], [ 140.895782831300238, -7.572110600980435 ], [ 140.87598433523911, -7.543173169340762 ], [ 140.859696652039304, -7.523639325984555 ], [ 140.830530868250094, -7.493165841293303 ], [ 140.811630997391887, -7.479244077577857 ], [ 140.793552417570339, -7.471105255607375 ], [ 140.791836293119502, -7.450075919912707 ], [ 140.779884183111506, -7.424611657813322 ], [ 140.755527931742762, -7.394215872957987 ], [ 140.758012007065304, -7.368523257839896 ], [ 140.757127398275827, -7.359623669051557 ], [ 140.738838423133302, -7.329441294780441 ], [ 140.73813098098239, -7.281887753336639 ], [ 140.77912388678422, -7.275741787743152 ], [ 140.796623803340822, -7.298180052344611 ], [ 140.816434499421831, -7.298500098666253 ], [ 140.82031053404009, -7.278715037562185 ], [ 140.818187965940666, -7.240600899186714 ], [ 140.799527422443759, -7.198180814361601 ], [ 140.781739287716533, -7.193277702805035 ], [ 140.760458889440173, -7.191779978257742 ], [ 140.70703760213803, -7.180531530617178 ], [ 140.686808674715195, -7.177781465031638 ], [ 140.705660811794218, -7.173701073012841 ], [ 140.713103395245639, -7.16689770103371 ], [ 140.711370202804488, -7.146906628635747 ], [ 140.695974305933305, -7.14977352887615 ], [ 140.68763837488126, -7.155177745715281 ], [ 140.673324287665793, -7.154946499024491 ], [ 140.660341896265152, -7.150351812818434 ], [ 140.660527719968201, -7.139046254367451 ], [ 140.653711204777551, -7.128666111865432 ], [ 140.645948991764925, -7.127040595395908 ], [ 140.635057423798145, -7.113709782681277 ], [ 140.63402153242663, -7.10007661838391 ], [ 140.629003831608713, -7.098726226928013 ], [ 140.622434892110419, -7.101158761106979 ], [ 140.594739554321592, -7.078786574880731 ], [ 140.577470149060247, -7.07019925213728 ], [ 140.57607941326998, -7.067990379861594 ], [ 140.577453612872461, -7.062992095853132 ], [ 140.579177857195106, -7.062992095853132 ], [ 140.580978392739894, -7.066892147215669 ], [ 140.589706421345483, -7.070672511637693 ], [ 140.592437743576966, -7.066272259260673 ], [ 140.587801182662758, -7.058676754159997 ], [ 140.590201687714426, -7.059102780990461 ], [ 140.589996338230407, -7.061043261809847 ], [ 140.593795775300975, -7.063520908377517 ], [ 140.597635941986539, -7.061175166678669 ], [ 140.606063842557347, -7.062882422805818 ], [ 140.607131958294787, -7.059132576010662 ], [ 140.607009888027505, -7.062762260356362 ], [ 140.608795165687155, -7.063122272442558 ], [ 140.610336303710511, -7.058302402281807 ], [ 140.614929199315327, -7.0611624716903 ], [ 140.618133544731052, -7.059552191608245 ], [ 140.620162964721999, -7.061392307090558 ], [ 140.620513915842224, -7.058302402281807 ], [ 140.623489380405005, -7.054972171997423 ], [ 140.619857788155372, -7.053962230929387 ], [ 140.620162963823645, -7.052412510747861 ], [ 140.626281737770142, -7.053782462958829 ], [ 140.629348755931687, -7.050802652228598 ], [ 140.632546631680697, -7.050433594977587 ], [ 140.646383706293875, -7.051811071230346 ], [ 140.650294945888049, -7.057759325004064 ], [ 140.655396077737976, -7.054033750110399 ], [ 140.666041400417328, -7.03776207281609 ], [ 140.667739867582952, -7.036803245980867 ], [ 140.670806883947847, -7.038103103695001 ], [ 140.673004149658112, -7.035193442930414 ], [ 140.672943113626133, -7.039353370986762 ], [ 140.674911500280075, -7.039833068648617 ], [ 140.676879884239042, -7.038583278734642 ], [ 140.675979615119189, -7.035013198726293 ], [ 140.679855347005144, -7.037213325293996 ], [ 140.682333354207969, -7.033447704228379 ], [ 140.691536993145775, -7.043424448708631 ], [ 140.70442647538988, -7.05367191404267 ], [ 140.719601673263696, -7.057263482831684 ], [ 140.80857045338854, -7.059162371920452 ], [ 140.821876680262591, -7.05799261490584 ], [ 140.831764591105156, -7.055729094342632 ], [ 140.839302724760074, -7.050081200895738 ], [ 140.840700785413219, -7.041680063123345 ], [ 140.837498632785099, -7.027434933344943 ], [ 141.000000000434994, -7.006033267671064 ], [ 140.999987059304999, -7.765506658070583 ], [ 140.979785843112126, -7.722469286876638 ] ] ] } },
{ "type": "Feature", "properties": { "name": "PT. MAHARANI RAYON JAYA", "area_ha": 200700, "type": "HT", "concession_type": "wood_fiber" }, "geometry": { "type": "Polygon", "coordinates": [ [ [ 140.458684870707174, -6.769235952566206 ], [ 140.513144067895354, -7.166674646849916 ], [ 140.516703603581135, -7.171654466962626 ], [ 140.469722378975007, -7.202818499690211 ], [ 140.46400797626373, -7.198800491676424 ], [ 140.453223517123291, -7.200896254256038 ], [ 140.455231652431934, -7.204312777084048 ], [ 140.444958812591864, -7.214401761935277 ], [ 140.432206747433383, -7.210407248258224 ], [ 140.423034295307303, -7.22387203561715 ], [ 140.410664398623538, -7.229597781559653 ], [ 140.393730282355449, -7.203369903715744 ], [ 140.391691391426463, -7.193967964405332 ], [ 140.346554249096783, -7.193181819983693 ], [ 140.334598572777082, -7.202034169102865 ], [ 140.344448612443898, -7.221286629787579 ], [ 140.35518471706925, -7.227030778350463 ], [ 140.358195604000315, -7.247127576386807 ], [ 140.362894721794248, -7.253162357934895 ], [ 140.371389298020347, -7.276543057039482 ], [ 140.366152531342351, -7.279628333681861 ], [ 140.359624757141972, -7.288999688173273 ], [ 140.348600259174418, -7.297745886952944 ], [ 140.345852559756992, -7.302201288573779 ], [ 140.31150584856789, -7.307178199098272 ], [ 140.308359051924242, -7.318343375730848 ], [ 140.300019107199489, -7.319007777703182 ], [ 140.286232596058767, -7.334462584229053 ], [ 140.274232177349717, -7.337737152328783 ], [ 140.273012178955582, -7.345612678766033 ], [ 140.269196591972815, -7.34451923937611 ], [ 140.266011948407964, -7.346651156900976 ], [ 140.257184317298595, -7.343664308244612 ], [ 140.243656750030141, -7.349146014623779 ], [ 140.240589627663979, -7.39471692757415 ], [ 140.237688275908823, -7.401020415605457 ], [ 140.240294887724332, -7.40560272556686 ], [ 140.237864139091982, -7.412594609388692 ], [ 140.239573228835809, -7.424650847835219 ], [ 140.249709354971088, -7.439239212017685 ], [ 140.255148060230027, -7.443311956068054 ], [ 140.253839358591506, -7.479609832973326 ], [ 140.085975079238096, -7.480745353355274 ], [ 140.096243443671426, -7.444251428948698 ], [ 140.131143344599082, -7.409094436613509 ], [ 140.128561401419603, -7.387975635770229 ], [ 140.107731546885844, -7.384830280692832 ], [ 140.104199894008133, -7.39708974662034 ], [ 140.083374979310094, -7.40979943682844 ], [ 140.034277405641291, -7.376481099646933 ], [ 140.020066062338032, -7.392432326323062 ], [ 139.98848603556155, -7.379835195162304 ], [ 139.995022793813092, -7.358184253296164 ], [ 140.030296594223216, -7.30611486926214 ], [ 140.074549441275423, -7.26385188775756 ], [ 140.063895713059907, -7.253034924980788 ], [ 140.042705064565297, -7.260159375318428 ], [ 140.045556814943723, -7.238629406894308 ], [ 140.081650072929108, -7.210335285610896 ], [ 140.109966596635218, -7.206796770987993 ], [ 140.11615506098309, -7.221221156733767 ], [ 140.135437481201706, -7.215487249135571 ], [ 140.148191203751878, -7.193972398342443 ], [ 140.170370246993997, -7.194172043112451 ], [ 140.197904622853599, -7.153493646803105 ], [ 140.189351217756126, -7.139190162975468 ], [ 140.188948019720641, -7.128210439964664 ], [ 140.207777654900127, -7.123841285353106 ], [ 140.211221041114584, -7.111820085812992 ], [ 140.211432732704537, -7.099644717440272 ], [ 140.219792116073705, -7.04886108629245 ], [ 140.234024835687364, -7.035232700636436 ], [ 140.232083148760324, -7.023023685689934 ], [ 140.219053531128566, -7.014343203387649 ], [ 140.218334425252038, -7.006674821871538 ], [ 140.237139371134248, -6.994103943379643 ], [ 140.250329359603796, -6.975754046675699 ], [ 140.260393565719141, -6.974354545959591 ], [ 140.277908699736571, -6.966115867799962 ], [ 140.267193338109479, -6.930533851064485 ], [ 140.297231347411952, -6.900433496669234 ], [ 140.323102726084983, -6.899209455229731 ], [ 140.341102252364891, -6.900434774630494 ], [ 140.347463571438112, -6.885181441680468 ], [ 140.338567943251661, -6.881321478854579 ], [ 140.338727407689362, -6.875426969078127 ], [ 140.350157116816945, -6.873694449604195 ], [ 140.350211782895229, -6.857390844332516 ], [ 140.334011680045734, -6.852214760102146 ], [ 140.332209058612932, -6.844521789156691 ], [ 140.344638703144483, -6.821119026171212 ], [ 140.33810898229487, -6.805476205647778 ], [ 140.347188849556233, -6.80149591783375 ], [ 140.366186062757009, -6.801617914851966 ], [ 140.373881974711793, -6.792530274705221 ], [ 140.365420748440556, -6.781526863638036 ], [ 140.346342996782994, -6.781252883577517 ], [ 140.331380000742229, -6.769643950708428 ], [ 140.335539226558893, -6.759941618344391 ], [ 140.458684870707174, -6.769235952566206 ] ] ] } },
{ "type": "Feature", "properties": { "name": "NoName", "area_ha": 54086, "type": "HT", "concession_type": "wood_fiber" }, "geometry": { "type": "Polygon", "coordinates": [ [ [ 139.322032486669798, -6.94670012770537 ], [ 139.318843189831739, -7.010486070615066 ], [ 139.307680649551116, -7.026432557022458 ], [ 139.314059244125474, -7.051946934403294 ], [ 139.336384323788451, -7.093407798157808 ], [ 139.358709404349725, -7.098191744260406 ], [ 139.361898702086137, -7.067893420633822 ], [ 139.361898702086137, -7.050352286320122 ], [ 139.373061242366759, -7.050352286320122 ], [ 139.424089997165368, -7.074272015345911 ], [ 139.455982968240846, -7.067893419742338 ], [ 139.470334805359499, -7.069488068877231 ], [ 139.462361562815232, -7.087029203297912 ], [ 139.462361562815232, -7.134868660895295 ], [ 139.441631131122136, -7.126895418999685 ], [ 139.373061242366759, -7.125300770012522 ], [ 139.353925458643545, -7.144436552335632 ], [ 139.336384324686776, -7.17473487589297 ], [ 139.33478967492033, -7.205033198666669 ], [ 139.420900699429069, -7.227358279231945 ], [ 139.34914151293728, -7.232142225399465 ], [ 139.331600378980596, -7.222574334098144 ], [ 139.272598379841014, -7.219385036844341 ], [ 139.274193029607517, -7.15719374220575 ], [ 139.248678652208184, -7.14284190384662 ], [ 139.204028491983934, -7.131679363858839 ], [ 139.188082005997103, -7.149220498290309 ], [ 139.183298060290866, -7.117327526563338 ], [ 139.168946223172128, -7.096597095438747 ], [ 139.165756926334154, -7.066298772236525 ], [ 139.180108761656186, -7.059920178025373 ], [ 139.180108762554539, -7.018459313911889 ], [ 139.183298060290866, -6.989755640238987 ], [ 139.212001735426526, -7.00091817902929 ], [ 139.234326814191206, -7.002512828182642 ], [ 139.227948221413413, -6.992944937130855 ], [ 139.219974977072525, -6.984971693771935 ], [ 139.216785680234437, -6.972214505965272 ], [ 139.21040708566008, -6.925969696106544 ], [ 139.231137517353147, -6.925969696106544 ], [ 139.255057245884302, -6.953078723177904 ], [ 139.255057245884302, -6.964241261693152 ], [ 139.274193028709192, -6.954673371224703 ], [ 139.283760921019962, -6.94191618161057 ], [ 139.285355568989814, -6.929158993038335 ], [ 139.280571624181903, -6.914807156076792 ], [ 139.27578767757737, -6.871751644161081 ], [ 139.32043783780162, -6.870156996345011 ], [ 139.32043783780162, -6.892482076242231 ], [ 139.331600378980596, -6.916401805267536 ], [ 139.323627134639679, -6.935537588156721 ], [ 139.322032486669798, -6.94670012770537 ] ] ] } },
{ "type": "Feature", "properties": { "name": "NoName", "area_ha": 111670, "type": "HT", "concession_type": "wood_fiber" }, "geometry": { "type": "Polygon", "coordinates": [ [ [ 138.918586393986828, -6.897266022079329 ], [ 138.958452609403224, -6.892482076242231 ], [ 139.004697417597328, -6.930753641885947 ], [ 138.993534878214945, -6.95148407417709 ], [ 138.982372337934351, -6.956268019207968 ], [ 138.95526331166684, -6.938726885431197 ], [ 138.952074014828753, -6.94670012770537 ], [ 138.953668663696959, -6.975403802070169 ], [ 138.964831203079285, -6.983377045366852 ], [ 138.972804445623609, -6.983377045366852 ], [ 139.007886715333626, -6.975403802070169 ], [ 139.034995741601193, -6.964241262584826 ], [ 139.04456363301361, -6.949889425115286 ], [ 139.076456604987357, -6.949889425115286 ], [ 139.101970982386689, -6.97859309874637 ], [ 139.140242548036468, -6.983377046258514 ], [ 139.181703411422632, -6.981782396875347 ], [ 139.184892709159044, -6.992944937130855 ], [ 139.178514113686333, -7.06310947498533 ], [ 139.164162276567652, -7.069488068877231 ], [ 139.168946223172128, -7.095002446440338 ], [ 139.183298060290866, -7.11573287817973 ], [ 139.183298060290866, -7.154004444058338 ], [ 139.143431844874556, -7.18111346984287 ], [ 139.114728170637193, -7.177924173351396 ], [ 139.105160279224691, -7.169950930142815 ], [ 139.062104767868647, -7.146031202392339 ], [ 138.974399095390055, -7.14284190384662 ], [ 138.964831203977582, -7.133274012925783 ], [ 138.897855963192086, -7.138057958885078 ], [ 138.840448612920738, -7.122111472331686 ], [ 138.81812353325779, -7.109354282737374 ], [ 138.76550012959089, -7.059920178025373 ], [ 138.743175049927942, -7.050352286320122 ], [ 138.72403926710308, -7.005702126182984 ], [ 138.712876726822401, -6.975403802070169 ], [ 138.720849970264993, -6.913212506854256 ], [ 138.757526887945005, -6.914807156968556 ], [ 138.781446615577806, -6.913212506854256 ], [ 138.792609155858457, -6.903644616273903 ], [ 138.819718183024236, -6.898860669766026 ], [ 138.826096776700382, -6.894076724870257 ], [ 138.864368342350161, -6.892482076242231 ], [ 138.913802449178974, -6.882914184225144 ], [ 138.918586393986828, -6.897266022079329 ] ] ] } },
{ "type": "Feature", "properties": { "name": "PT. MITRA JAYA AGRO PALM", "area_ha": 52765, "type": "HT", "concession_type": "wood_fiber" }, "geometry": { "type": "Polygon", "coordinates": [ [ [ 139.346084595432757, -6.697978972595044 ], [ 139.342727660386316, -6.770573139164584 ], [ 139.387680054296311, -6.773582935273848 ], [ 139.387313842595972, -6.784504889694369 ], [ 139.38188171300493, -6.797296047073308 ], [ 139.380142210797175, -6.808656215910593 ], [ 139.373825073564603, -6.813152790961283 ], [ 139.371780396586928, -6.823288917630044 ], [ 139.365447997876004, -6.825916767442926 ], [ 139.364440918170487, -6.828917027236375 ], [ 139.33195495570132, -6.867940903301488 ], [ 139.330963134779267, -6.865931988344642 ], [ 139.324798583584197, -6.862602233563348 ], [ 139.308486938722581, -6.861132144785417 ], [ 139.297531126839971, -6.854052067178338 ], [ 139.290145873869932, -6.85618209760397 ], [ 139.284240722891326, -6.8620710370641 ], [ 139.278244019212167, -6.875000953692011 ], [ 139.278656006364372, -6.880372046402957 ], [ 139.283004761434597, -6.891232014867454 ], [ 139.282043457181061, -6.896760940138482 ], [ 139.256835937994623, -6.901010990334123 ], [ 139.238845824262228, -6.908482073732603 ], [ 139.228927612346837, -6.910275936243555 ], [ 139.231491088859059, -6.893733978605793 ], [ 139.208526611733078, -6.892373083835271 ], [ 139.206680297143095, -6.915071964179595 ], [ 139.214309690647752, -6.919037819251878 ], [ 139.216186522804577, -6.930352211067506 ], [ 139.213226317923557, -6.983972073193753 ], [ 139.210556029927403, -6.987660885004461 ], [ 139.20533752420252, -6.984210967558872 ], [ 139.196273804158466, -6.967842102362479 ], [ 139.189270019875522, -6.963252067980357 ], [ 139.170410156386765, -6.961532117224777 ], [ 139.165893555597279, -6.958971976740571 ], [ 139.138793943673932, -6.958840847248311 ], [ 139.125793456610239, -6.950032234108149 ], [ 139.123672484817092, -6.947721003385531 ], [ 139.124755859337938, -6.946610928861865 ], [ 139.12283325172919, -6.947300909966247 ], [ 139.105773925581786, -6.930222034013807 ], [ 139.088897704835432, -6.920701981013212 ], [ 139.106765747402193, -6.877768993152164 ], [ 139.106231689084325, -6.87053012761944 ], [ 139.11091613828799, -6.866382121839365 ], [ 139.112854004680145, -6.861715793857014 ], [ 139.111221313058024, -6.858076094725143 ], [ 139.112045288260731, -6.855516911179769 ], [ 139.110244750919378, -6.855340004247327 ], [ 139.111373900892119, -6.852066993855231 ], [ 139.109817504983738, -6.850581168857748 ], [ 139.116363524865818, -6.846651077265847 ], [ 139.114517212072514, -6.844332218325626 ], [ 139.116668701432474, -6.841297150030017 ], [ 139.124771118121316, -6.842004775898393 ], [ 139.126312256144672, -6.845157145758248 ], [ 139.135299683169961, -6.847291945699839 ], [ 139.137374877714535, -6.84622001557404 ], [ 139.140289307143661, -6.840387820596871 ], [ 139.141372680766182, -6.828726767879073 ], [ 139.139343262571913, -6.826170920790914 ], [ 139.142547607089284, -6.822063923271181 ], [ 139.144165039029645, -6.814865112128428 ], [ 139.139343261673559, -6.808800219818194 ], [ 139.141159057798347, -6.806966782276962 ], [ 139.141448975581596, -6.799410820063257 ], [ 139.143066405725364, -6.796197889870993 ], [ 139.15538024933204, -6.790894984869618 ], [ 139.155731201350619, -6.788157939610291 ], [ 139.159683228052018, -6.783638954032917 ], [ 139.238754270663435, -6.739201068888648 ], [ 139.240722656419081, -6.735928059110348 ], [ 139.243789672784033, -6.718495846224376 ], [ 139.245956420927371, -6.715113162893066 ], [ 139.244750977935837, -6.713993072813573 ], [ 139.245529174991731, -6.712266923387585 ], [ 139.236968993902053, -6.703350066887108 ], [ 139.240081786617253, -6.69383001263812 ], [ 139.252975463993749, -6.677583218866959 ], [ 139.252044678205351, -6.694606780841044 ], [ 139.346084595432757, -6.697978972595044 ] ] ] } },
{ "type": "Feature", "properties": { "name": "PT. KALIMANTAN HAMPARAN SAWIT", "area_ha": 47230, "type": "HT", "concession_type": "wood_fiber" }, "geometry": { "type": "Polygon", "coordinates": [ [ [ 139.085159301101868, -6.568373203031258 ], [ 139.107482909324432, -6.562137127049471 ], [ 139.105728149231567, -6.564374923201673 ], [ 139.107727050757404, -6.564610958211608 ], [ 139.107818605254522, -6.567608834144642 ], [ 139.109771728633433, -6.566276073343356 ], [ 139.110626221403066, -6.568368912281676 ], [ 139.112533569330026, -6.567843913624402 ], [ 139.112960815265694, -6.569509982642423 ], [ 139.119857788064763, -6.572896004654843 ], [ 139.120513915751616, -6.577702044867622 ], [ 139.118988037409991, -6.579463959305683 ], [ 139.120895386235304, -6.583157063410515 ], [ 139.12202453620813, -6.581610201658225 ], [ 139.126220703444119, -6.581843852932384 ], [ 139.128219604071688, -6.583462238264508 ], [ 139.127456664900905, -6.585793971992271 ], [ 139.129608155159133, -6.584555149179941 ], [ 139.131988525372066, -6.588121891426666 ], [ 139.135879516939809, -6.58688306817921 ], [ 139.138931273623001, -6.588499068696117 ], [ 139.139739990042358, -6.586403847090078 ], [ 139.145019530900981, -6.588066101402873 ], [ 139.147338867776824, -6.585923194148942 ], [ 139.147338866878499, -6.58768415579596 ], [ 139.150299071759491, -6.586967944746583 ], [ 139.151336670828442, -6.588918209046632 ], [ 139.153015137004218, -6.587679863428378 ], [ 139.155578612618115, -6.588914870645958 ], [ 139.155914306751583, -6.591104984265977 ], [ 139.158386229665012, -6.590816976335855 ], [ 139.156249999986727, -6.593008040857605 ], [ 139.158355712996496, -6.595860957593364 ], [ 139.156509399304866, -6.602097033039112 ], [ 139.160156250337906, -6.617159843323739 ], [ 139.159957886153506, -6.622906208098767 ], [ 139.155120850013986, -6.628574848196294 ], [ 139.154617310161228, -6.632351875400086 ], [ 139.162734985633477, -6.642752171384899 ], [ 139.151077270612092, -6.75871992214786 ], [ 139.148178100864726, -6.767580986996138 ], [ 139.155075072765385, -6.775427819152196 ], [ 139.155899047968148, -6.77984190101513 ], [ 139.159790038637567, -6.784705161714312 ], [ 139.155731201350619, -6.788157939610291 ], [ 139.15538024933204, -6.790894984869618 ], [ 139.144729614016057, -6.794948100850816 ], [ 139.141448975581596, -6.799410820063257 ], [ 139.141159057798347, -6.806966782276962 ], [ 139.139343261673559, -6.808800219818194 ], [ 139.144165039029645, -6.814865112128428 ], [ 139.142547607089284, -6.822063923271181 ], [ 139.139343262571913, -6.826170920790914 ], [ 139.141311647429177, -6.828371047638085 ], [ 139.141372681664507, -6.833546161277107 ], [ 139.140289307143661, -6.840387820596871 ], [ 139.137374877714535, -6.84622001557404 ], [ 139.131546020652962, -6.847055912001374 ], [ 139.126312256144672, -6.845157145758248 ], [ 139.124771118121316, -6.842004775898393 ], [ 139.116668701432474, -6.841297150030017 ], [ 139.114517212072514, -6.844332218325626 ], [ 139.116363524865818, -6.846651077265847 ], [ 139.109527588098814, -6.851058006103247 ], [ 139.111373900892119, -6.852066993855231 ], [ 139.110244750919378, -6.855340004247327 ], [ 139.112045288260731, -6.855516911179769 ], [ 139.111221313058024, -6.858076094725143 ], [ 139.112854004680145, -6.861715793857014 ], [ 139.11091613828799, -6.866382121839365 ], [ 139.106231689084325, -6.87053012761944 ], [ 139.106765747402193, -6.877768993152164 ], [ 139.090408325291946, -6.916848659933463 ], [ 139.084442139179629, -6.911499023375806 ], [ 139.084182738963221, -6.901208877849016 ], [ 139.087066649927237, -6.892233848770243 ], [ 139.077667235749686, -6.870495796186742 ], [ 139.075073241670623, -6.852914810056975 ], [ 139.071090698300736, -6.840048789749468 ], [ 139.057785033772006, -6.826687812958681 ], [ 139.04853820832696, -6.809186934804978 ], [ 139.035507201899719, -6.758221148994204 ], [ 139.005493163242249, -6.715631008190173 ], [ 138.976135253170014, -6.704597950297997 ], [ 138.960617065944291, -6.695087910247935 ], [ 138.942855833963165, -6.680540084892098 ], [ 138.935958862960774, -6.671236038437544 ], [ 138.94458007828581, -6.671464920207474 ], [ 138.950592040748347, -6.669773101783295 ], [ 138.975982665335835, -6.656423091995047 ], [ 138.989913939984604, -6.646055222282738 ], [ 139.018875121688041, -6.614827156150717 ], [ 139.046508789234309, -6.590611935383647 ], [ 139.085159301101868, -6.568373203031258 ] ] ] } },
{ "type": "Feature", "properties": { "name": "PT. SUNGAI RANGIT", "area_ha": 31716, "type": "HT", "concession_type": "wood_fiber" }, "geometry": { "type": "Polygon", "coordinates": [ [ [ 139.105209350595402, -6.562757014770722 ], [ 139.104873657360258, -6.559710979754803 ], [ 139.192291259890197, -6.519941806880118 ], [ 139.211120604913816, -6.543945788145968 ], [ 139.25271606377737, -6.542790890327495 ], [ 139.29606628363203, -6.550794124643733 ], [ 139.293334961400546, -6.628852844725525 ], [ 139.24932861296071, -6.627758979629083 ], [ 139.245803833093191, -6.674130916927808 ], [ 139.247619629218065, -6.677239894662605 ], [ 139.247375488683446, -6.68083906100206 ], [ 139.238540648593954, -6.697042942132622 ], [ 139.236968993902053, -6.703350066887108 ], [ 139.245529174991731, -6.712266923387585 ], [ 139.244750977935837, -6.713993072813573 ], [ 139.245956420927371, -6.715113162893066 ], [ 139.243789672784033, -6.718495846224376 ], [ 139.240432740432482, -6.736641883984858 ], [ 139.233764647588089, -6.742294788556118 ], [ 139.22944641098303, -6.743535995413551 ], [ 139.159683228052018, -6.783638954032917 ], [ 139.155899047968148, -6.77984190101513 ], [ 139.155075072765385, -6.775427819152196 ], [ 139.148178100864726, -6.767580986996138 ], [ 139.151077270612092, -6.75871992214786 ], [ 139.162734985633477, -6.642752171384899 ], [ 139.154617310161228, -6.632351875400086 ], [ 139.155120850013986, -6.628574848196294 ], [ 139.159957886153506, -6.622906208098767 ], [ 139.160156250337906, -6.617159843323739 ], [ 139.156509399304866, -6.602097033039112 ], [ 139.158355712996496, -6.595860957593364 ], [ 139.156249999986727, -6.593008040857605 ], [ 139.158386229665012, -6.590816976335855 ], [ 139.155914306751583, -6.591104984265977 ], [ 139.155578612618115, -6.588914870645958 ], [ 139.153015137004218, -6.587679863428378 ], [ 139.151336670828442, -6.588918209046632 ], [ 139.150299071759491, -6.586967944746583 ], [ 139.147338866878499, -6.58768415579596 ], [ 139.147338867776824, -6.585923194148942 ], [ 139.145019530900981, -6.588066101402873 ], [ 139.139739990042358, -6.586403847090078 ], [ 139.138931273623001, -6.588499068696117 ], [ 139.135879516939809, -6.58688306817921 ], [ 139.131988525372066, -6.588121891426666 ], [ 139.129608155159133, -6.584555149179941 ], [ 139.127456664900905, -6.585793971992271 ], [ 139.128219604071688, -6.583462238264508 ], [ 139.126220703444119, -6.581843852932384 ], [ 139.12202453620813, -6.581610201658225 ], [ 139.120895386235304, -6.583157063410515 ], [ 139.118988037409991, -6.579463959305683 ], [ 139.120513915751616, -6.577702044867622 ], [ 139.119857788064763, -6.572896004654843 ], [ 139.112960815265694, -6.569509982642423 ], [ 139.112533569330026, -6.567843913624402 ], [ 139.110626221403066, -6.568368912281676 ], [ 139.109771728633433, -6.566276073343356 ], [ 139.107818605254522, -6.567608834144642 ], [ 139.107727050757404, -6.564610958211608 ], [ 139.105728149231567, -6.564374923201673 ], [ 139.107482909324432, -6.562137127049471 ], [ 139.105209350595402, -6.562757014770722 ] ] ] } },
{ "type": "Feature", "properties": { "name": "PT. WANAKERTA ANAKERTA EKA LESTARI", "area_ha": 87026, "type": "HT", "concession_type": "wood_fiber" }, "geometry": { "type": "Polygon", "coordinates": [ [ [ 139.04583949494031, -5.958859992218487 ], [ 139.041444892552903, -5.983030303966558 ], [ 139.059023301204064, -5.998411411933316 ], [ 139.089785517017305, -6.055541239866144 ], [ 139.100772021638193, -6.081908853790964 ], [ 139.094180120302951, -6.09948726242465 ], [ 139.08319361298706, -6.110473768587732 ], [ 139.070009807621602, -6.119262971757603 ], [ 139.067812505978765, -6.130249478084701 ], [ 139.074404409110656, -6.147827886863521 ], [ 139.08978551611898, -6.158814391758401 ], [ 139.08319361298706, -6.207155016145887 ], [ 139.021669183157286, -6.202760415003794 ], [ 139.021669183157286, -6.171998199047048 ], [ 139.004090773607828, -6.165406295281959 ], [ 138.986512364956724, -6.161011693694447 ], [ 138.973328558692913, -6.161011692801335 ], [ 138.953552849297296, -6.187379305789038 ], [ 138.894225719313681, -6.209352317259963 ], [ 138.861266201857632, -6.211549618136235 ], [ 138.852476997981228, -6.220338822769734 ], [ 138.705257824742006, -6.204957715690441 ], [ 138.694271319222707, -6.079711552581625 ], [ 139.04583949494031, -5.958859992218487 ] ] ] } },
{ "type": "Feature", "properties": { "name": "PT. WANAKERTA ANAKERTA EKA LESTARI", "area_ha": 133920, "type": "HT", "concession_type": "wood_fiber" }, "geometry": { "type": "Polygon", "coordinates": [ [ [ 139.124191284351525, -6.043887615053724 ], [ 139.1109313961731, -6.026817321688008 ], [ 139.102890014617884, -6.004950999919053 ], [ 139.092712401587761, -5.992341041570018 ], [ 139.08772277761409, -5.989790915897989 ], [ 139.077255250394074, -5.991691112778427 ], [ 139.065917968926016, -5.986540794279187 ], [ 139.066757201115621, -5.973902224663588 ], [ 139.073730468729991, -5.966047287359887 ], [ 139.07446289213064, -5.963298797773376 ], [ 139.071130693093778, -5.949025117851686 ], [ 139.309515625605599, -5.780878601953225 ], [ 139.333685938286891, -5.798457011608224 ], [ 139.351264346938081, -5.802851613642489 ], [ 139.382026562751236, -5.842403034325249 ], [ 139.397407669759531, -5.866573346141053 ], [ 139.406196875432613, -5.895138258640277 ], [ 139.403999573789775, -5.941281583264851 ], [ 139.414986079308989, -6.018187122383623 ], [ 139.423775283185392, -6.119262971757603 ], [ 139.441353691836525, -6.200563113196281 ], [ 139.454537498998661, -6.240114533176939 ], [ 139.252385798163147, -6.161011692801335 ], [ 139.182072162660319, -6.21814152198454 ], [ 139.17108565714102, -6.207155016145887 ], [ 139.160099150723454, -6.207155016145887 ], [ 139.13597284021975, -6.185709406154964 ], [ 139.134475707967169, -6.179510117310262 ], [ 139.13082885693413, -6.174335002864943 ], [ 139.121780395673483, -6.169671059114458 ], [ 139.117919921672609, -6.163891315188951 ], [ 139.115676879612096, -6.153131485326691 ], [ 139.108551025061843, -6.146151065788764 ], [ 139.104690551959294, -6.139871120402135 ], [ 139.103546143203062, -6.131941318838868 ], [ 139.116317749413895, -6.119401454762399 ], [ 139.12420654313496, -6.117371081953619 ], [ 139.138046265083148, -6.119751452841315 ], [ 139.146427973383823, -6.116954880071699 ], [ 139.14222717263749, -6.107477188330566 ], [ 139.142578123757744, -6.093017576740233 ], [ 139.124191284351525, -6.043887615053724 ] ] ] } },
{ "type": "Feature", "properties": { "name": "PT. WANAKERTA ANAKERTA EKA LESTARI", "area_ha": 40110, "type": "HT", "concession_type": "wood_fiber" }, "geometry": { "type": "Polygon", "coordinates": [ [ [ 138.568695068375888, -5.205511093015542 ], [ 138.571292770700381, -5.198586780714093 ], [ 138.58929306234495, -5.190486649627768 ], [ 138.614493468670986, -5.191386664561575 ], [ 138.62889370072898, -5.194986723079976 ], [ 138.647794004575189, -5.202186839238689 ], [ 138.667594326013017, -5.20488688281327 ], [ 138.680194529176021, -5.199486795709628 ], [ 138.696394790129034, -5.169786317161416 ], [ 138.703594906607123, -5.151786025673843 ], [ 138.706294951297053, -5.151786025673843 ], [ 138.755795749950863, -5.21028697007445 ], [ 138.770195982008801, -5.224687202374994 ], [ 138.781896171173514, -5.233687347743482 ], [ 138.788196272755044, -5.241787477711779 ], [ 138.756695763949153, -5.261587797588353 ], [ 138.748595635269282, -5.259787768651445 ], [ 138.745895589681083, -5.264287842410144 ], [ 138.662194239328102, -5.304788496374718 ], [ 138.641493904790309, -5.311088597004391 ], [ 138.625293642939027, -5.312888627092023 ], [ 138.596493177924799, -5.32908888910127 ], [ 138.54339232058274, -5.355189308754007 ], [ 138.510091783780268, -5.392089905080699 ], [ 138.495691551722274, -5.401990064688374 ], [ 138.475891231182771, -5.408290165792953 ], [ 138.448890795063392, -5.411890225299106 ], [ 138.445290737273496, -5.406490136951385 ], [ 138.44799078106513, -5.385789803817295 ], [ 138.45519089664495, -5.368689527425776 ], [ 138.467791099807982, -5.356989338280819 ], [ 138.483991361659207, -5.330888916608544 ], [ 138.487591420347485, -5.32998890217276 ], [ 138.492091493034025, -5.32188877285093 ], [ 138.495691550823921, -5.308388554091696 ], [ 138.505591711093643, -5.288588233654899 ], [ 138.518191914256732, -5.277788059608858 ], [ 138.555992523745829, -5.238187419291339 ], [ 138.563192641122242, -5.222887172630963 ], [ 138.565139140324305, -5.21055934101054 ], [ 138.568695068375888, -5.205511093015542 ] ] ] } },
{ "type": "Feature", "properties": { "name": "PT. WANAKERTA ANAKERTA EKA LESTARI", "area_ha": 54403, "type": "HT", "concession_type": "wood_fiber" }, "geometry": { "type": "Polygon", "coordinates": [ [ [ 138.361094030720068, -5.219192542968969 ], [ 138.362489400020564, -5.212086999287494 ], [ 138.375089604081893, -5.204886881918656 ], [ 138.437190605000382, -5.18868662127537 ], [ 138.454290881748335, -5.191386666350828 ], [ 138.468691115602894, -5.184186549402879 ], [ 138.492091493034025, -5.166186258225333 ], [ 138.526292045631521, -5.122085546092078 ], [ 138.540692275892866, -5.113985415152848 ], [ 138.600093235714724, -5.113085402426943 ], [ 138.654994122850013, -5.116685460054038 ], [ 138.673894427594547, -5.128385647858925 ], [ 138.675694457387806, -5.142785879638176 ], [ 138.663094253326477, -5.164386228691753 ], [ 138.649594035266773, -5.173386374419694 ], [ 138.644455236158734, -5.173526069554795 ], [ 138.637359618900945, -5.167953491437599 ], [ 138.624984741058938, -5.167061328714477 ], [ 138.610382079041557, -5.159744262981978 ], [ 138.606704712238297, -5.159387588998999 ], [ 138.592803954258045, -5.163672447357853 ], [ 138.581924438089175, -5.161882400596176 ], [ 138.567692712910457, -5.165286243202852 ], [ 138.550592437959239, -5.179686474986276 ], [ 138.542492305686096, -5.20488688281327 ], [ 138.518191914256732, -5.239087434723018 ], [ 138.487591420347485, -5.263387826684645 ], [ 138.464191042018058, -5.284988175985668 ], [ 138.451590837956701, -5.304788496374718 ], [ 138.450690823958411, -5.310188583119644 ], [ 138.439016091252199, -5.334436106027691 ], [ 138.425490417632318, -5.34438913481842 ], [ 138.411990199572671, -5.367789513136081 ], [ 138.410190170677708, -5.395689963361754 ], [ 138.401190026202869, -5.41009019464662 ], [ 138.392189879931436, -5.4145902692809 ], [ 138.353489254647457, -5.410090196435236 ], [ 138.335488964799538, -5.399290020847314 ], [ 138.329188863218008, -5.386689817428845 ], [ 138.322888761636534, -5.365089467663868 ], [ 138.313888617161723, -5.355189308754007 ], [ 138.303088441995357, -5.349789222361958 ], [ 138.284188136352469, -5.351589250792751 ], [ 138.26888788939786, -5.361489410806887 ], [ 138.25268762844496, -5.37678965793053 ], [ 138.230187265012148, -5.409190181783442 ], [ 138.205886871786078, -5.435290602426949 ], [ 138.192386653726402, -5.439790675108712 ], [ 138.187886581938159, -5.434390586894662 ], [ 138.186086553043253, -5.421790383929066 ], [ 138.192386653726402, -5.406490136951385 ], [ 138.192386653726402, -5.397489992093071 ], [ 138.195986713312976, -5.384889788872878 ], [ 138.204086842891115, -5.377689672339635 ], [ 138.21488701805751, -5.37678965793053 ], [ 138.222987147635649, -5.371389571266034 ], [ 138.228387236117157, -5.360589395734611 ], [ 138.25268762844496, -5.348889207054969 ], [ 138.285088151249141, -5.312888626197537 ], [ 138.294088295723867, -5.297588378769502 ], [ 138.296788340413826, -5.281388117965521 ], [ 138.30488847089029, -5.264287842410144 ], [ 138.305788484888609, -5.254387681920602 ], [ 138.299488384205375, -5.215687057444418 ], [ 138.310288557575205, -5.208486941072315 ], [ 138.323788775634824, -5.207586927321826 ], [ 138.333688935904547, -5.213887027814988 ], [ 138.333688935904547, -5.226487231420894 ], [ 138.337288993694472, -5.240887464380704 ], [ 138.34808916796257, -5.254387681026053 ], [ 138.360689371125574, -5.259787768651445 ], [ 138.376889632976912, -5.284088160758232 ], [ 138.386789793246606, -5.288588233654899 ], [ 138.399389997307935, -5.286788205200532 ], [ 138.409308608075321, -5.277529733142665 ], [ 138.410190170677708, -5.265187855938527 ], [ 138.401198596130712, -5.240974239363636 ], [ 138.393268568839829, -5.236858386932642 ], [ 138.388992309609648, -5.231293199695658 ], [ 138.366989472707104, -5.22918727513047 ], [ 138.362231841350479, -5.223420046620168 ], [ 138.361094030720068, -5.219192542968969 ] ] ] } }
]
}
